"SITECODE","NAME","EMAIL","ADDRESS_UNSTRUCTURED","ADMINUNIT","THOROUGHFARE","DESIGNATOR","POSTCODE","POSTNAME","ADDRESS","LOCATORNAME"
"FI0100001","","","Uudenmaan ympäristökeskus PL 3600521 Helsinki","","","","","","",""
"FI0100002","","","Uudenmaan ympäristökeskus PL 3600521 Helsinki","","","","","","",""
"FI0100003","","","Uudenmaan ympäristökeskus PL 3600521 Helsinki","","","","","","",""
"FI0100005","","","Uudenmaan ympäristökeskus PL 36Metsähallitus / Etelärannikon puistoaluePL 9401301 Vantaa00521 Helsinki","","","","","","",""
"FI0100006","","","Uudenmaan ympäristökeskus PL 36Metsähallitus, Etelärannikon puistoaluePL 9401301 Vantaa00521 Helsinki","","","","","","",""
"FI0100007","","","Metsähallitus/Etelärannikon puistoalue PL 9401301 Vantaa","","","","","","",""
"FI0100008","","","Helsingin kaupunki KiinteistövirastoMetsä- ja maatalousosastoHelsinginkatu 2400530 HelsinkiUudenmaan ympäristökeskusPL 3600521 Helsinki","","","","","","",""
"FI0100009","","","Metsähallitus/Etelärannikon puistoalue PL 9401301 VantaaUudenmaan ympäristökeskusPL 3600521 Helsinki","","","","","","",""
"FI0100010","","","Uudenmaan ympäristökeskus PL 3600521 Helsinki","","","","","","",""
"FI0100011","","","Uudenmaan ympäristökeskus PL 3600521 Helsinki","","","","","","",""
"FI0100012","","","Uudenmaan ympäristökeskus PL 3600521 HelsinkiMetsäntutkimuslaitos/tutkimusmetsäpalvelutMarja-Leena HeinilehtoPL 1801301 Vantaa","","","","","","",""
"FI0100013","","","Uudenmaan ympäristökeskus Pl 3600521 Helsinki","","","","","","",""
"FI0100014","","","Uudenmaan ympäristökeskus PL 36 00521 Helsinki","","","","","","",""
"FI0100015","","","Uudenmaan ympäristökeskus PL 3600521 Helsinki","","","","","","",""
"FI0100016","","","Uudenmaan ympäristökeskus PL 3600521 Helsinki","","","","","","",""
"FI0100017","","","Uudenmaan ympäristökeskus Pl 3600521 Helsinki","","","","","","",""
"FI0100018","","","Uudenmaan ympäristökeskus PL 3600521 Helsinki","","","","","","",""
"FI0100021","","","Uudenmaan ympäristökeskus PL 3600521 Helsinki","","","","","","",""
"FI0100022","","","Uudenmaan ympäristökeskus PL 3600521 HelsinkiMetsähallitus, Etelä-Suomen luontopalvelutPL 9401301 Vantaa","","","","","","",""
"FI0100023","","","Uudenmaan ympäristökeskus PL 3600521 Helsinki","","","","","","",""
"FI0100024","","","Uudenmaan ympäristökeskus PL 3600521 Helsinki","","","","","","",""
"FI0100025","","","Uudenmaan ympäristökeskus PL 3600521 Helsinki","","","","","","",""
"FI0100026","","","Uudenmaan ympäristökeskus PL 3600521 Helsinki","","","","","","",""
"FI0100027","","","Metsähallitus/Etelärannikon puistoalue PL 9401301 VantaaUudenmaan ympäristökeskusPL 3600521 Helsinki","","","","","","",""
"FI0100028","","","Metsähallitus/Etelärannikon puistoalue PL 9401301 VantaaUudenmaan ympäristökeskusPL 3600521 Helsinki","","","","","","",""
"FI0100029","","","Uudenmaan ympäristökeskus PL 3600521 Helsinki","","","","","","",""
"FI0100030","","","Uudenmaan ympäristökeskus Pl 3600521 Helsinki","","","","","","",""
"FI0100031","","","Uudenmaan ympäristökeskus Pl 3600521 Helsinki","","","","","","",""
"FI0100032","","","Uudenmaan ympäristökeskus PL 3600521 Helsinki","","","","","","",""
"FI0100033","","","Uudenmaan ympäristökeskus PL 3600521 Helsinki","","","","","","",""
"FI0100034","","","Uudenmaan ympäristökeskus PL 3600521 Helsinki","","","","","","",""
"FI0100035","","","Uudenmaan ympäristökeskus PL 3600521 Helsinki","","","","","","",""
"FI0100036","","","Uudenmaan ympäristökeskus PL 3600521 Helsinki","","","","","","",""
"FI0100037","","","Uudenmaan ympäristökeskus PL 3600521 Helsinki","","","","","","",""
"FI0100038","","","Metsähallitus/Etelärannikon puistoalue PL 9401301 VantaaUudenmaan ympäristökeskusPL 3600521 Helsinki","","","","","","",""
"FI0100039","","","Metsähallitus / Etelärannikon puistoalue PL 9401301 VantaaUudenmaan ympäristökeskusPL 3600521 Helsinki","","","","","","",""
"FI0100040","","","Metsähallitus/Etelä-Suomen luontopalvelut PL 94, 01301 VantaaUudenmaan ympäristökeskusPL 36, 00521 Helsinki","","","","","","",""
"FI0100041","","","Uudenmaan ympäristökeskus PL 3600521 Helsinki","","","","","","",""
"FI0100042","","","Uudenmaan ympäristökeskus PL 3600521 Helsinki","","","","","","",""
"FI0100043","","","Uudenmaan ympäristökeskus PL 3600521 Helsinki","","","","","","",""
"FI0100044","","","Uudenmaan ympäristökeskus PL 3600521 Helsinki","","","","","","",""
"FI0100045","","","Uudenmaan ympäristökeskus PL 3600521 Helsinki","","","","","","",""
"FI0100046","","","Uudenmaan ympäristökeskus PL 3600521 Helsinki","","","","","","",""
"FI0100047","","","Uudenmaan ympäristökeskus PL 3600521 Helsinki","","","","","","",""
"FI0100048","","","Uudenmaan ympäristökeskus PL 3600521 Helsinki","","","","","","",""
"FI0100049","","","Uudenmaan ympäristökeskus PL 3600521 Helsinki","","","","","","",""
"FI0100050","","","Uudenmaan ympäristökeskus PL 3600521 Helsinki","","","","","","",""
"FI0100051","","","Uudenmaan ympäristökeskus PL 3700521 Helsinki","","","","","","",""
"FI0100052","","","Metsähallitus/Etelärannikon puistoalue PL 9401301 VantaaUudenmaan ympäristökeskusPL 3600521 Helsinki","","","","","","",""
"FI0100053","","","Metsähallitus/Etelärannikon puistoalue PL 9401301 VantaaUudenmaan ympäristökeskusPL 36 00521 Helsinki","","","","","","",""
"FI0100054","","","Uudenmaan ympäristökeskus PL 3600521 Helsinki","","","","","","",""
"FI0100055","","","Uudenmaan ympäristökeskus PL 3600521 Helsinki","","","","","","",""
"FI0100056","","","Uudenmaan ympäristökeskus PL 3600521 Helsinki","","","","","","",""
"FI0100057","","","Metsähallitus/Etelärannikon puistoalue PL 9401301 VantaaUudenmaan ympäristökeskusPL 3600521 Helsinki","","","","","","",""
"FI0100058","","","Metsähallitus/Etelärannikon puistoalue PL 9401301 VantaaUudenmaan ympäristökeskusPL 3600521 Helsinki","","","","","","",""
"FI0100059","","","Uudenmaan ympäristökeskus PL 3600521 Helsinki","","","","","","",""
"FI0100060","","","Metsähallitus/Etelärannikon puistoalue PL 9401301 VantaaUudenmaan ympäristökeskusPL 3600521 Helsinki","","","","","","",""
"FI0100061","","","Uudenmaan ympäristökeskus PL 3600521 Helsinki","","","","","","",""
"FI0100062","","","Uudenmaan ympäristökeskus PL 3600521 HelsinkiHelsingin kaupungin ympäristökeskusHelsinginkatu 2400530 Helsinki","","","","","","",""
"FI0100063","","","Uudenmaan ympäristökeskus PL 3600521 HelsinkiHelsingin kaupungin ympäristökeskusHelsinginkatu 2400530 Helsinki","","","","","","",""
"FI0100064","","","Uudenmaan ympäristökeskus PL 3600521 HelsinkiVantaan kaupungin ympäristökeskusViertolankuja 4 A01300 Vantaa","","","","","","",""
"FI0100065","","","Uudenmaan ympäristökeskus PL 3600521 Helsinki","","","","","","",""
"FI0100066","","","Uudenmaan ympäristökeskus PL 3600521 Helsinki","","","","","","",""
"FI0100067","","","Uudenmaan ympäristökeskus PL 3600521 Helsinki","","","","","","",""
"FI0100068","","","Uudenmaan ympäristökeskus PL 3600521 Helsinki","","","","","","",""
"FI0100069","","","Uudenmaan ympäristökeskus Ylitarkastaja Leena EerolaPL 3600521 HelsinkiMetsähallitus / Etelä-Suomen luontopalvelutPL 9401301 Vantaa","","","","","","",""
"FI0100070","","","Uudenmaan ympäristökeskus PL 3600521 Helsinki","","","","","","",""
"FI0100071","","","Uudenmaan ympäristökeskus PL 3600521 Helsinki","","","","","","",""
"FI0100072","","","Uudenmaan ympäristökeskus PL 3600521 Helsinki","","","","","","",""
"FI0100073","","","Hämeen ympäristökeskus PL 13113101 Hämeenlinna","","","","","","",""
"FI0100074","","","Uudenmaan ympäristökeskus PL 3600521 Helsinki","","","","","","",""
"FI0100075","","","Uudenmaan ympäristökeskus PL 3600521 Helsinki","","","","","","",""
"FI0100076","","","Uudenmaan ympäristökeskus PL 3600521 Helsinki","","","","","","",""
"FI0100077","","","Metsähallitus/Etelärannikon puistoalue Pl 9401301 VantaaUudenmaan ympäristökeskusPL 3600521 Helsinki","","","","","","",""
"FI0100078","","","Uudenmaan ympäristökeskus PL 3600521 Helsinki","","","","","","",""
"FI0100079","","","Metsäntutkimuslaitos PL 1801301 VantaaUudenmaan ympäristökeskusPL 3600521 Helsinki","","","","","","",""
"FI0100080","","","Uudenmaan ympäristökeskus PL 3600521 Helsinki","","","","","","",""
"FI0100081","","","Uudenmaan ympäristökeskus PL 3600521 Helsinki","","","","","","",""
"FI0100082","","","Uudenmaan ympäristökeskus PL 3600521 Helsinki","","","","","","",""
"FI0100083","","","Uudenmaan ympäristökeskus PL 3600521 Helsinki","","","","","","",""
"FI0100085","","","Uudenmaan ympäristökeskus PL 3600521 Helsinki","","","","","","",""
"FI0100086","","","Uudenmaan ympäristökeskus PL 3600521 Helsinki","","","","","","",""
"FI0100088","","","Uudenmaan ympäristökeskus PL 3600521 Helsinki","","","","","","",""
"FI0100089","","","Uudenmaan ympäristökeskus PL 3600521 Helsinki","","","","","","",""
"FI0100090","","","Uudenmaan ympäristökeskus PL 36 00521 Helsinki","","","","","","",""
"FI0100091","","","Metsähallitus, Etelä-Suomen luontopalvelut PL 9401301 VANTAA","","","","","","",""
"FI0100092","","","Uudenmaan ympäristökeskus Ylitarkastaja Ilpo HuolmanPL 3600521 HELSINKI","","","","","","",""
"FI0100093","","","Uudenmaan ympäristökeskus Ylitarkastaja Leena EerolaPL 3600521 HELSINKI","","","","","","",""
"FI0100094","","","Uudenmaan ympäristökeskus Ylitarkastaja Ilpo HuolmanPL 3600521 HELSINKI","","","","","","",""
"FI0100095","","","Uudenmaan ympäristökeskus Ylitarkastaja Ilpo HuolmanPL 3600521 HELSINKI","","","","","","",""
"FI0100096","","","Uudenmaan ympäristökeskus Ylitarkastaja Leena EerolaPL 3600521 HELSINKI","","","","","","",""
"FI0100097","","","Metsähallitus, Etelä-Suomen luontopalvelut PL 9401301 Vantaa","","","","","","",""
"FI0100098","","","Uudenmaan ympäristökeskus Ylitarkastaja Ilpo HuolmanPL 3600521 HELSINKI","","","","","","",""
"FI0100099","","","Uudenmaan ympäristökeskus Ylitarkastaja Leena EerolaPL 3600521 HELSINKI","","","","","","",""
"FI0100100","","","Uudenmaan ympäristökeskus Ylitarkastaja Leena EerolaPL 3600521 HELSINKI","","","","","","",""
"FI0100101","","","Metsähallitus, Etelä-Suomen luontopalvelut PL 9401301 Vantaa","","","","","","",""
"FI0100102","","","Uudenmaan ympäristökeskus Ylitarkastaja Ilpo HuolmanPL 3600521 HELSINKI","","","","","","",""
"FI0100103","","","Uudenmaan ympäristökeskus PL 3600521 HELSINKI","","","","","","",""
"FI0100104","","","Uudenmaan elinkeino-, liikenne- ja ympäristökeskus","","","","","","",""
"FI0100105","","","Uudenmaan ympäristökeskus PL 36, 00521 Helsinki","","","","","","",""
"FI0100106","","","Metsähallitus","","","","","","",""
"FI0100107","","","Metsähallitus","","","","","","",""
"FI0200001","","","Lounais-Suomen ympäristökeskus PL 47  20801 Turku","","","","","","",""
"FI0200002","","","Lounais-Suomen ympäristökeskus Pl 47  20810 Turku","","","","","","",""
"FI0200003","","","Lounais-Suomen ympäristökeskus Pl 47   20801 Turku","","","","","","",""
"FI0200004","","","Lounais-Suomen ympäristökeskus Pl 47  20801 Turku","","","","","","",""
"FI0200005","","","Lounais-Suomen ympäristökeskus Pl 47   20801 Turku","","","","","","",""
"FI0200007","","","Lounais-Suomen ympäristökeskus Pl 47  20801 Turku","","","","","","",""
"FI0200008","","","Lounais-Suomen ympäristökeskus Pl 47  20801 Turku","","","","","","",""
"FI0200009","","","Lounais-Suomen ympäristökeskus Pl 47  20801 Turku","","","","","","",""
"FI0200010","","","Lounais-Suomen ympäristökeskus Pl 47  20801 Turku","","","","","","",""
"FI0200011","","","Lounais-Suomen ympäristökeskus Pl 47  20801 Turku","","","","","","",""
"FI0200012","","","Lounais-Suomen ympäristökeskus Pl 47   20801 Turku","","","","","","",""
"FI0200013","","","Lounais-Suomen ympäristökeskus Pl 47  20801 Turku","","","","","","",""
"FI0200014","","","Lounais-Suomen ympäristökeskus Pl 47  20801 Turku","","","","","","",""
"FI0200015","","","Lounais-Suomen ympäristökeskus Pl 47  20801 Turku","","","","","","",""
"FI0200016","","","Lounais-Suomen ympäristökeskus PL 47  20801  Turku","","","","","","",""
"FI0200017","","","Lounais-Suomen ympäristökeskus Pl 47  20801 Turku","","","","","","",""
"FI0200018","","","Lounais-Suomen ympäristökeskus Pl 47  20801 Turku","","","","","","",""
"FI0200019","","","Lounais-Suomen ympäristökeskus Pl 47   20801 Turku","","","","","","",""
"FI0200020","","","Lounais-Suomen ympäristökeskus Pl 47  20801 Turku","","","","","","",""
"FI0200021","","","Lounais-Suomen ympäristökeskus Pl 47  20801 Turku","","","","","","",""
"FI0200022","","","Lounais-Suomen ympäristökeskus Pl 47  20801 Turku","","","","","","",""
"FI0200023","","","Lounais-Suomen ympäristökeskus Pl 47  20801 Turku","","","","","","",""
"FI0200024","","","Lounais-Suomen ympäristökeskus Pl 47  20801 Turku","","","","","","",""
"FI0200025","","","Lounais-Suomen ympäristökeskus Pl 47  20801 Turku","","","","","","",""
"FI0200026","","","Lounais-Suomen ympäristökeskus Pl 47  20801 Turku","","","","","","",""
"FI0200027","","","Lounais-Suomen ympäristökeskus Pl 47  20801 Turku","","","","","","",""
"FI0200028","","","Lounais-Suomen ympäristökeskus Pl 47   20801 Turku","","","","","","",""
"FI0200029","","","Lounais-Suomen ympäristökeskus Pl 47   20801 Turku","","","","","","",""
"FI0200030","","","Lounais-Suomen ympäristökeskus Pl 47  20801 Turku","","","","","","",""
"FI0200031","","","Lounais-Suomen ympäristökeskus Pl 47  20801 Turku","","","","","","",""
"FI0200032","","","Lounais-Suomen ympäristökeskus Pl 47  20801 Turku","","","","","","",""
"FI0200033","","","Lounais-Suomen ympäristökeskus Pl 47  20801 Turku","","","","","","",""
"FI0200034","","","Lounais-Suomen ympäristökeskus Pl 47  20801 Turku","","","","","","",""
"FI0200035","","","Lounais-Suomen ympäristökeskus Pl 47  20801 Turku","","","","","","",""
"FI0200036","","","Lounais-Suomen ympäristökeskus Pl 47  20801 Turku","","","","","","",""
"FI0200037","","","Lounais-Suomen ympäristökeskus Pl 47  20801 Turku","","","","","","",""
"FI0200038","","","Lounais-Suomen ympäristökeskus Pl 47  20801 Turku","","","","","","",""
"FI0200039","","","Lounais-Suomen ympäristökeskus Pl 47   20801 Turku","","","","","","",""
"FI0200040","","","Lounais-Suomen ympäristökeskus Pl 47  20801 Turku","","","","","","",""
"FI0200041","","","Lounais-Suomen ympäristökeskus Pl 47  20801 Turku","","","","","","",""
"FI0200042","","","Lounais-Suomen ympäristökeskus Pl 47  20801 Turku","","","","","","",""
"FI0200043","","","Lounais-Suomen ympäristökeskus Pl 47  20801 Turku","","","","","","",""
"FI0200044","","","Lounais-Suomen ympäristökeskus Pl 47  20801  Turku","","","","","","",""
"FI0200045","","","Lounais-Suomen ympäristökeskus Pl 47   20801 Turku","","","","","","",""
"FI0200046","","","Lounais-Suomen ympäristökeskus Pl 47  20801 Turku","","","","","","",""
"FI0200047","","","Lounais-Suomen ympäristökeskus Pl 47  20801 Turku","","","","","","",""
"FI0200048","","","Lounais-Suomen ympäristökeskus Pl 47  20801 Turku","","","","","","",""
"FI0200049","","","Lounais-Suomen ympäristökeskus Pl 47   20801 Turku","","","","","","",""
"FI0200050","","","Lounais-Suomen ympäristökeskus Pl 47  20801 Turku","","","","","","",""
"FI0200052","","","Lounais-Suomen ympäristökeskus Pl 47  20801 Turku","","","","","","",""
"FI0200053","","","Lounais-Suomen ympäristökeskus Pl 47   20801 Turku","","","","","","",""
"FI0200056","","","Lounais-Suomen ympäristökeskus Pl 47   20801 Turku","","","","","","",""
"FI0200057","","","Lounais-Suomen ympäristökeskus Pl 47    20801 Turku","","","","","","",""
"FI0200058","","","Lounais-Suomen ympäristökeskus Pl 47   20801 Turku","","","","","","",""
"FI0200059","","","Lounais-Suomen ympäristökeskus PL 47    20801 Turku","","","","","","",""
"FI0200060","","","Lounais-Suomen ympäristökeskus    Pl 47  20801  Turku","","","","","","",""
"FI0200061","","","Lounais-Suomen ympäristökeskus       Pl 47  20801 Turku","","","","","","",""
"FI0200062","","","Lounais-Suomen ympäristökeskus Pl 47   20801 Turku","","","","","","",""
"FI0200063","","","Lounais-Suomen ympäristökeskus Pl 47 20801 Turku","","","","","","",""
"FI0200064","","","Lounais-Suomen ympäristökeskus Pl 47   20801 Turku","","","","","","",""
"FI0200065","","","Lounais-Suomen ympäristökeskus Pl 47  20801 Turku","","","","","","",""
"FI0200066","","","Lounais-Suomen ympäristökeskus Pl 47  20801 Turku","","","","","","",""
"FI0200067","","","Lounais-Suomen ympäristökeskus Pl 47  20801 Turku","","","","","","",""
"FI0200068","","","Lounais-Suomen ympäristökeskus Pl 47   20801  Turku","","","","","","",""
"FI0200069","","","Lounais-Suomen ympäristökeskus Pl 47  20801 Turku","","","","","","",""
"FI0200070","","","Lounais-Suomen ympäristökeskus Pl 47  20801 Turku","","","","","","",""
"FI0200071","","","Lounais-Suomen ympäristökeskus Pl 47  20801 Turku","","","","","","",""
"FI0200072","","","Lounais-Suomen ympäristökeskus Pl 47  20801 Turku","","","","","","",""
"FI0200073","","","Lounais-Suomen ympäristökeskus Pl 47  20801 Turku","","","","","","",""
"FI0200074","","","Lounais-Suomen ympäristökeskus Pl 47  20801 Turku","","","","","","",""
"FI0200075","","","Lounais-Suomen ympäristökeskus Pl 47  20801 Turku","","","","","","",""
"FI0200076","","","Lounais-Suomen ympäristökeskus Pl 47  20801 Turku","","","","","","",""
"FI0200077","","","Lounais-Suomen ympäristökeskus Pl 47  20801 Turku","","","","","","",""
"FI0200078","","","Lounais-Suomen ympäristökeskus Pl 47  20801 Turku","","","","","","",""
"FI0200079","","","Lounais-Suomen ympäristökeskus PL 47  20801 Turku","","","","","","",""
"FI0200080","","","Lounais-Suomen ympäristökeskus PL 47  20801 Turku","","","","","","",""
"FI0200081","","","Lounais-Suomen ympäristökeskus Pl 47  20801 Turku","","","","","","",""
"FI0200082","","","Lounais-Suomen ympäristökeskus Pl 47  20801 Turku","","","","","","",""
"FI0200083","","","Lounais-Suomen ympäristökeskus Pl 47   20801 Turku","","","","","","",""
"FI0200084","","","Lounais-Suomen ympäristökeskus PL 47  20801 Turku","","","","","","",""
"FI0200085","","","Lounais-Suomen ympäristökeskus PL 47  20801 Turku","","","","","","",""
"FI0200086","","","Lounais-Suomen ympäristökeskus PL 47   20801 Turku","","","","","","",""
"FI0200087","","","Lounais-Suomen ympäristökeskus PL 47  20801 Turku","","","","","","",""
"FI0200088","","","Lounais-Suomen ympäristökeskus PL 47  20801 Turku","","","","","","",""
"FI0200089","","","Lounais-Suomen ympäristökeskus Pl 47   20801  Turku","","","","","","",""
"FI0200090","","","Lounais-Suomen ympäristökeskus Pl 47  20801 Turku","","","","","","",""
"FI0200091","","","Lounais-Suomen ympäristökeskus Pl 47  20801 Turku","","","","","","",""
"FI0200092","","","Lounais-Suomen ympäristökeskus Pl 47  20801 Turku","","","","","","",""
"FI0200093","","","Lounais-Suomen ympäristökeskus PL 47  20801 Turku","","","","","","",""
"FI0200094","","","Lounais-Suomen ympäristökeskus PL 47  20801 Turku","","","","","","",""
"FI0200095","","","Lounais-Suomen ympäristökeskus Pl 47  20801 Turku","","","","","","",""
"FI0200096","","","Lounais-Suomen ympäristökeskus Pl 47  20801 Turku","","","","","","",""
"FI0200097","","","Lounais-Suomen ympäristökeskus PL 47  20801 Turku","","","","","","",""
"FI0200098","","","Lounais-Suomen ympäristökeskus PL 47  20801 Turku","","","","","","",""
"FI0200099","","","Lounais-Suomen ympäristökeskus PL 47  20801 Turku","","","","","","",""
"FI0200100","","","Lounais-Suomen ympäristökeskus Pl 47  20801 Turku","","","","","","",""
"FI0200101","","","Lounais-Suomen ympäristökeskus PL 47  20801 Turku","","","","","","",""
"FI0200102","","","Lounais-Suomen ympäristökeskus Pl 47  20801 Turku","","","","","","",""
"FI0200103","","","Lounais-Suomen ympäristökeskus Pl 47  20801 Turku","","","","","","",""
"FI0200104","","","Lounais-Suomen ympäristökeskus Pl 47  20801 Turku","","","","","","",""
"FI0200105","","","Lounais-Suomen ympäristökeskus Pl 47  20801 Turku","","","","","","",""
"FI0200106","","","Lounais-Suomen ympäristökeskus Pl 47   20801 Turku","","","","","","",""
"FI0200107","","","Lounais-Suomen ympäristökeskus Pl 47  20801 Turku","","","","","","",""
"FI0200108","","","Lounais-Suomen ympäristökeskus Pl 47  20801 Turku","","","","","","",""
"FI0200109","","","Lounais-Suomen ympäristökeskus Pl 47  20801 Turku","","","","","","",""
"FI0200111","","","Lounais-Suomen ympäristökeskus Pl 47  20801 Turku","","","","","","",""
"FI0200112","","","Lounais-Suomen ympäristökeskus Pl 47  20801 Turku","","","","","","",""
"FI0200113","","","Lounais-Suomen ympäristökeskus Pl 47  20801 Turku","","","","","","",""
"FI0200114","","","Lounais-Suomen ympäristökeskus Pl 47  20801 Turku","","","","","","",""
"FI0200117","","","Lounais-Suomen ympäristökeskus Pl 47  20801 Turku","","","","","","",""
"FI0200119","","","Lounais-Suomen ympäristökeskus Pl 47  20801 Turku","","","","","","",""
"FI0200120","","","Lounais-Suomen ympäristökeskus Pl 47  20801 Turku","","","","","","",""
"FI0200121","","","Varsinais-Suomen elinkeino,- liikenne- ja ympäristökeskus","","","","","","",""
"FI0200122","","","Lounais-Suomen ympäristökeskus Pl 47   20801 Turku","","","","","","",""
"FI0200123","","","Lounais-Suomen ympäristökeskus Pl 47   20801 Turku","","","","","","",""
"FI0200125","","","Lounais-Suomen ympäristökeskus Pl 47   20801 Turku","","","","","","",""
"FI0200126","","","Lounais-Suomen ympäristökeskus Pl 47  20801 Turku","","","","","","",""
"FI0200127","","","Lounais-Suomen ympäristökeskus Pl 47 20801  Turku","","","","","","",""
"FI0200128","","","Lounais-Suomen ympäristökeskus Pl 47  20801 Turku","","","","","","",""
"FI0200129","","","Lounais-Suomen ympäristökeskus Pl 47  20801 Turku","","","","","","",""
"FI0200130","","","Lounais-Suomen ympäristökeskus Pl 47  20801 Turku","","","","","","",""
"FI0200131","","","Lounais-Suomen ympäristökeskus Pl 47  20801 Turku","","","","","","",""
"FI0200132","","","Lounais-Suomen ympäristökeskus Pl 47  20801 Turku","","","","","","",""
"FI0200133","","","Lounais-Suomen ympäristökeskus Pl 47  20801 Turku","","","","","","",""
"FI0200134","","","Lounais-Suomen ympäristökeskus Pl 47  20801 Turku","","","","","","",""
"FI0200137","","","Lounais-Suomen ympäristökeskus Pl 47  20801 Turku","","","","","","",""
"FI0200138","","","Lounais-Suomen ympäristökeskus Pl 47  20801 Turku","","","","","","",""
"FI0200141","","","Lounais-Suomen ympäristökeskus Pl 47  20801 Turku","","","","","","",""
"FI0200143","","","Lounais-Suomen ympäristökeskus Pl 47  20801 Turku","","","","","","",""
"FI0200146","","","Lounais-Suomen ympäristökeskus Pl 47 20801 Turku","","","","","","",""
"FI0200147","","","Lounais-Suomen ympäristökeskus Pl 47  20801 Turku","","","","","","",""
"FI0200148","","","Lounais-Suomen ympäristökeskus Pl 47  20801 Turku","","","","","","",""
"FI0200149","","","Lounais-Suomen ympäristökeskus Pl 47   20801 Turku","","","","","","",""
"FI0200150","","","Lounais-Suomen ympäristökeskus Pl 47  20801 Turku","","","","","","",""
"FI0200151","","","Lounais-Suomen ympäristökeskus Pl 47  20801 Turku","","","","","","",""
"FI0200152","","","Lounais-Suomen ympäristökeskus Pl 47  20801 Turku","","","","","","",""
"FI0200154","","","Lounais-Suomen ympäristökeskus Pl 47  20801 Turku","","","","","","",""
"FI0200155","","","Lounais-Suomen ympäristökeskus Pl 47  20801 Turku","","","","","","",""
"FI0200156","","","Lounais-Suomen ympäristökeskus Pl 47  20801 Turku","","","","","","",""
"FI0200157","","","Lounais-Suomen ympäristökeskus Pl 47   20801 Turku","","","","","","",""
"FI0200158","","","Lounais-Suomen ympäristökeskus Pl 47  20801 Turku","","","","","","",""
"FI0200159","","","Lounais-Suomen ympäristökeskus Pl 47  20801 Turku","","","","","","",""
"FI0200160","","","Lounais-Suomen ympäristökeskus Pl 47  20801 Turku","","","","","","",""
"FI0200161","","","Lounais-Suomen ympäristökeskus Pl 47  20801 Turku","","","","","","",""
"FI0200163","","","Lounais-Suomen ympäristökeskus Pl 47  20801 Turku","","","","","","",""
"FI0200164","","","Lounais-Suomen ympäristökeskus Pl 47  20801 Turku","","","","","","",""
"FI0200165","","","Lounais-Suomen ympäristökeskus PL 4720801 Turku","","","","","","",""
"FI0200166","","","Lounais-Suomen ympäristökeskus PL 4720801 Turku","","","","","","",""
"FI0200167","","","Lounais-Suomen ympäristökeskus PL 4720801 Turku","","","","","","",""
"FI0200168","","","Lounais-Suomen ympäristökeskus PL 4720801 TURKU","","","","","","",""
"FI0200169","","","Lounais-Suomen ympäristökeskus PL 4720801 TURKU","","","","","","",""
"FI0200171","","","Lounais-Suomen ympäristökeskus PL 4720801 TURKU","","","","","","",""
"FI0200172","","","Lounais-Suomen ympäristökeskus PL 4720801 Turku","","","","","","",""
"FI0200174","","","Lounais-Suomen ympäristökeskus PL 4720801 Turku","","","","","","",""
"FI0200175","","","Lounais-Suomen ympäristökeskus PL 4720801 TURKU","","","","","","",""
"FI0200176","","","Lounais-Suomen ympäristökeskus PL 4720801 Turku","","","","","","",""
"FI0200177","","","Lounais-Suomen ympäristökeskus PL 4720801 TURKU","","","","","","",""
"FI0200178","","","Lounais-Suomen ympäristökeskus PL 4720801 TURKU","","","","","","",""
"FI0200179","","","Lounais-Suomen ympäristökeskus PL 4720801 TURKU","","","","","","",""
"FI0200180","","","Lounais-Suomen ympäristökeskus PL 4720801 TURKU","","","","","","",""
"FI0200181","","","Lounais-Suomen ympäristökeskus PL 4720801 TURKU","","","","","","",""
"FI0200182","","","Lounais-Suomen ympäristökeskus PL 4720801 TURKU","","","","","","",""
"FI0200183","","","Lounais-Suomen ympäristökeskus PL 4720801 TURKU","","","","","","",""
"FI0200184","","","Lounais-Suomen ympäristökeskus PL4720801 TURKU","","","","","","",""
"FI0200185","","","Lounais-Suomen ympäristökeskus PL 4720801 TURKU","","","","","","",""
"FI0200186","","","Lounais-Suomen ympäristökeskus PL 4720801 TURKU","","","","","","",""
"FI0200187","","","Lounais-Suomen ympäristökeskus PL 4720801 Turku","","","","","","",""
"FI0200188","","","Lounais-Suomen ympäristökeskus PL 4720801 Turku","","","","","","",""
"FI0200189","","","Lounais-Suomen ympäristökeskus PL 4720801 TURKU","","","","","","",""
"FI0200190","","","Lounais-Suomen ympäristökeskus PL 4720801 TURKU","","","","","","",""
"FI0200191","","","Lounais-Suomen ympäristökeskus PL 4720801 Turku","","","","","","",""
"FI0200192","","","Lounais-Suomen ympäristökeskus PL 4720801 Turku","","","","","","",""
"FI0200193","","","Metsähallitus, Etelä-Suomen luontopalvelut PL 94, 01301 Vantaa","","","","","","",""
"FI0301001","","","Hämeen Ympäristökeskus PL 13113101 Hämeenlinna","","","","","","",""
"FI0301003","","","Hämeen ympäristökeskus PL 13113101Hämeenlinna","","","","","","",""
"FI0301005","","","Hämeen ympäristökeskus PL 131  13101 Hämeenlinna","","","","","","",""
"FI0301007","","","Hämeen ympäristökeskus PL 13113101 Hämeenlinna","","","","","","",""
"FI0301009","","","Hämeen ympäristökeskus PL 13113101 Hämeenlinna","","","","","","",""
"FI0301010","","","Hämeen ympäristökeskus PL 13113101 Hämeenlinna","","","","","","",""
"FI0301011","","","Hämeen ympäristökeskus PL 13113101 Hämeenlinna","","","","","","",""
"FI0301012","","","Hämeen ympäristökeskus PL 131   13101 Hämeenlinna","","","","","","",""
"FI0301013","","","Hämeen ympäristökeskus PL 13113101 Hämeenlinna","","","","","","",""
"FI0301014","","","Metsähallitus, Länsi-Suomen luontopalvelut PL 14713101 Hämeenlinna","","","","","","",""
"FI0301016","","","Hämeen ympäristökeskus Birger Jaarlin katu 13PL 13113101 Hämeenlinna","","","","","","",""
"FI0301017","","","Hämeen ympäristökeskus Birger Jaarlin katu 13PL 13113101 Hämeenlinna","","","","","","",""
"FI0302001","","","Metsähallitus/Etelärannikon puistoalue PL 9401301 Vantaa","","","","","","",""
"FI0303003","","","Hämeen ympäristökeskus PL 13113101 Hämeenlinna","","","","","","",""
"FI0303006","","","Hämeen ympäristökeskus PL 13113101 Hämeenlinna","","","","","","",""
"FI0303007","","","Hämeen ympäristökeskus PL 13113101 Hämeenlinna","","","","","","",""
"FI0303010","","","Hämeen ympäristökeskus Pl 13113101 Hämeenlinna","","","","","","",""
"FI0303011","","","Hämeen ympäristökeskus Pl 13113101 Hämeenlinna","","","","","","",""
"FI0303013","","","Hämeen ympäristökeskus PL 13113101 Hämeenlinna","","","","","","",""
"FI0303016","","","Hämeen ympäristökeskus PL 13113101 Hämeenlinna","","","","","","",""
"FI0303017","","","Hämeen ympäristökeskus PL 13113101 Hämeenlinna","","","","","","",""
"FI0303018","","","Hämeen ympäristökeskus Birger Jaarlin katu 13PL 13113101 Hämeenlinna","","","","","","",""
"FI0303019","","","Hämeen ympäristökeskus Birger Jaarlin katu 13PL 13113101 Hämeenlinna","","","","","","",""
"FI0303020","","","Hämeen ympäristökeskus PL 131, 13101 Hämeenlinna","","","","","","",""
"FI0304001","","","Hämeen ympäristökeskus PL 13113101 Hämeenlinna","","","","","","",""
"FI0304003","","","Hämeen ympäristökeskus Birger Jaarlin katu 13PL 13113101 Hämeenlinna","","","","","","",""
"FI0304004","","","Hämeen ympäristökeskus PL 131, 13101 Hämeenlinna","","","","","","",""
"FI0305003","","","Hämeen ympäristökeskus PL 13113101 Hämeenlinna","","","","","","",""
"FI0305004","","","Hämeen ympäristökeskus PL13113101Hämeenlinna","","","","","","",""
"FI0305005","","","Hämeen ympäristökeskus PL 13113101 Hämeenlinna","","","","","","",""
"FI0306003","","","Hämeen ympäristökeskus PL 13113101 Hämeenlinna","","","","","","",""
"FI0306004","","","Hämeen ympäristökeskus PL13113101 Hämeenlinna","","","","","","",""
"FI0306006","","","Hämeen ympäristökeskus PL 13113101 Hämeenlinna","","","","","","",""
"FI0306008","","","Hämeen ympäristökeskus PL 13113101 Hämeenlinna","","","","","","",""
"FI0306009","","","Hämeen ympäristökeskus PL 131, 13101 Hämeenlinna","","","","","","",""
"FI0309001","","","Pirkanmaan ympäristökeskus PL 29733101 TAMPERE","","","","","","",""
"FI0309006","","","Pirkanmaan ympäristökeskus PL 29733101 TAMPERE","","","","","","",""
"FI0309008","","","Pirkanmaan ympäristökeskus PL 29733101 Tampere","","","","","","",""
"FI0310001","","","Metsähallitus/Etelärannikon puistoalue PL 9401301 Vantaa","","","","","","",""
"FI0310002","","","Hämeen ympäristökeskus PL 13113101 Hämeenlinna","","","","","","",""
"FI0310003","","","Hämeen ympäristökeskus PL 13113101 Hämeenlinna","","","","","","",""
"FI0310005","","","Metsähallitus/Etelärannikon puistoalue PL 9401301 Vantaa","","","","","","",""
"FI0310006","","","Hämeen ympäristökeskus PL 13113101 Hämeenlinna","","","","","","",""
"FI0310007","","","Hämeen ympäristökeskus Pl 13113101 Hämeenlinna","","","","","","",""
"FI0310008","","","Hämeen ympäristökeskus Birger Jaarlin katu 13PL 13113101 Hämeenlinna","","","","","","",""
"FI0311001","","","Metsähallitus/Länsi-Suomen puistoalue PL 14713101 Hämeenlinna","","","","","","",""
"FI0311002","","","Metsähallitus/Länsi-Suomen puistoalue PL 14713101 Hämeenlinna","","","","","","",""
"FI0312002","","","Hämeen ympäristökeskus PL 13113101 Hämeenlinna","","","","","","",""
"FI0312003","","","Hämeen ympäristökeskus PL 13113101 Hämeenlinna","","","","","","",""
"FI0312004","","","Hämeen ympäristökeskus PL 13113101 Hämeenlinna","","","","","","",""
"FI0312005","","","Hämeen ympäristökeskus Birger Jaarlin katu 13PL 13113101 Hämeenlinna","","","","","","",""
"FI0312006","","","Hämeen ympäristökeskus Birger Jaarlin katu 13PL 13113101 Hämeenlinna","","","","","","",""
"FI0312007","","","Hämeen ympäristökeskus Birger Jaarlin katu 13PL 13113101 Hämeenlinna","","","","","","",""
"FI0312008","","","Hämeen ympäristökeskus PL 131, 13101 Hämeenlinna","","","","","","",""
"FI0315001","","","Hämeen ympäristökeskus PL 13113101 Hämeenlinna","","","","","","",""
"FI0315002","","","Hämeen ympäristökeskus PL 13113101 Hämeenlinna","","","","","","",""
"FI0315003","","","Hämeen ympäristökeskus PL 13113101 Hämeenlinna","","","","","","",""
"FI0315005","","","Hämeen ympäristökeskus PL 13113101 Hämeenlinna","","","","","","",""
"FI0315006","","","Hämeen ympäristökeskus PL 13113101 Hämeenlinna","","","","","","",""
"FI0315007","","","Hämeen ympäristökeskus Birger Jaarlin katu 13PL 13113101 Hämeenlinna","","","","","","",""
"FI0316001","","","Metsähallitus/Länsi-Suomen puistoalue PL 14713101 Hämeenlinna","","","","","","",""
"FI0316004","","","Pirkanmaan ympäristökeskus PL 29733101 TAMPERE","","","","","","",""
"FI0316005","","","Pirkanmaan ympäristökeskus PL 29733101 TAMPERE","","","","","","",""
"FI0316007","","","Pirkanmaan ympäristökeskus PL 29733101 Tampere","","","","","","",""
"FI0316008","","","Pirkanmaan ympäristökeskus PL 297, 33101 Tampere","","","","","","",""
"FI0317001","","","Metsähallitus/Länsi-Suomen puistoalue PL 14713101 Hämeenlinna","","","","","","",""
"FI0318001","","","Hämeen ympäristökeskus PL 29733101 TAMPERE","","","","","","",""
"FI0318002","","","Lounais-Suomen ympäristökeskus PL 47, 20801 Turku","","","","","","",""
"FI0319002","","","Pirkanmaan ympäristökeskus PL 29733101 TAMPERE","","","","","","",""
"FI0319003","","","Pirkanmaan ympäristökeskus PL 29733101 Tampere","","","","","","",""
"FI0319004","","","Pirkanmaan ympäristökeskus PL 29733101 Tampere","","","","","","",""
"FI0320001","","","Metsäntutkimuslaitos/Tutkimusmetsäpalvelut PL 1801301 Vantaa","","","","","","",""
"FI0320002","","","Keski-Suomen ymparistökeskus","","","","","","",""
"FI0321001","","","Metsähallitus/Länsi-Suomen puistoalue PL 14713101 Hämeenlinna","","","","","","",""
"FI0321002","","","Metsähallitus/Länsi-Suomen puistoalue PL 14713101 Hämeenlinna","","","","","","",""
"FI0321003","","","Metsähallitus/Länsi-Suomen puistoalue PL 14713101 Hämeenlinna","","","","","","",""
"FI0321004","","","Metsähallitus/Länsi-Suomen luontopalvelut PL 14713101 Hämeenlinna","","","","","","",""
"FI0321007","","","Metsähallitus/Länsi-Suomen puistoalue PL 14713101 Hämeenlinna","","","","","","",""
"FI0321008","","","Metsähallitus/Länsi-Suomen puistoalue PL 14713101 Hämeenlinna","","","","","","",""
"FI0321009","","","Metsähallitus, Länsi-Suomen luontopalvelut PL 14713101 Hämeenlinna","","","","","","",""
"FI0321010","","","Metsähallitus, Länsi-Suomen luontopalvelut PL 14713101 Hämeenlinna","","","","","","",""
"FI0323001","","","Metsähallitus/Etelärannikon puistoalue PL 9401301 Vantaa","","","","","","",""
"FI0324001","","","Hämeen ympäristökeskus PL 13113101 Hämeenlinna","","","","","","",""
"FI0324002","","","Hämeen ympäristökeskus Birger Jaarlin katu 13PL 13113101 Hämeenlinna","","","","","","",""
"FI0325001","","","Metsähallitus/Länsi-Suomen puistoalue PL 14713101 Hämeenlinna","","","","","","",""
"FI0325002","","","Hämeen ympäristökeskus PL 13113101 Hämeenlinna","","","","","","",""
"FI0325006","","","Hämeen ympäristökeskus PL 13113101 Hämeenlinna","","","","","","",""
"FI0325007","","","Hämeen ympäristökeskus Pl 13113101 Hämeenlinna","","","","","","",""
"FI0325008","","","Hämeen ympäristökeskus PL 13113101 Hämeenlinna","","","","","","",""
"FI0325009","","","Hämeen ympäristökeskus PL 13113101 Hämeenlinna","","","","","","",""
"FI0326001","","","Pirkanmaan ympäristökeskus PL 13133101 Tampere","","","","","","",""
"FI0326003","","","Pirkanmaan ympäristökeskus PL 29733101 TAMPERE","","","","","","",""
"FI0327002","","","Hämeen ympäristökeskus PL13113101 Hämeenlinna","","","","","","",""
"FI0327003","","","Hämeen ympäristökeskus PL 13113101 Hämeenlinna","","","","","","",""
"FI0327004","","","Hämeen ympäristökeskus PL 13113101 Hämeenlinna","","","","","","",""
"FI0327006","","","Hämeen ympäristökeskus PL 13113101 Hämeenlinna","","","","","","",""
"FI0327007","","","Hämeen ympäristökeskus Birger Jaarlin katu 13PL 13113100 Hämeenlinna","","","","","","",""
"FI0327008","","","Hämeen ympäristökeskus PL 131, 13101 Hämeenlinna","","","","","","",""
"FI0328001","","","Pirkanmaan ympäristökeskus PL 29733101 TAMPERE","","","","","","",""
"FI0328004","","","Pirkanmaan ympäristökeskus PL 29733101 TAMPERE","","","","","","",""
"FI0328005","","","Pirkanmaan ympäristökeskus PL 29733101 Tampere","","","","","","",""
"FI0329001","","","Metsähallitus/Länsi-Suomen puistoalue PL 14713101 Hämeenlinna","","","","","","",""
"FI0329002","","","Pirkanmaan ympäristökeskus PL 29733101 Tampere","","","","","","",""
"FI0331002","","","Pirkanmaan ympäristökeskus PL 29733101 TAMPERE","","","","","","",""
"FI0333001","","","Pirkanmaan ympäristökeskus PL 29733101 TAMPERE","","","","","","",""
"FI0333003","","","Pirkanmaan ympäristökeskus PL 29733101 TAMPERE","","","","","","",""
"FI0333004","","","Pirkanmaan ympäristökeskus PL 29733101 TAMPERE","","","","","","",""
"FI0333006","","","Pirkanmaan ympäristökeskus PL 29733101 TAMPERE","","","","","","",""
"FI0334001","","","Pirkanmaan ympäristökeskus PL 29733101 TAMPERE","","","","","","",""
"FI0334003","","","Pirkanmaan ympäristökeskus PL 29733101 TAMPERE","","","","","","",""
"FI0334004","","","Pirkanmaan ympäristökeskus PL 29733101 Tampere","","","","","","",""
"FI0335001","","","Hämeen ympäristökeskus PL 13113101 Hämeenlinna","","","","","","",""
"FI0335003","","","Metsähallitus/Länsi-Suomen puistoalue PL 14713101 Hämeenlinna","","","","","","",""
"FI0335004","","","Metsäntutkimuslaitos/Tutkimusmetsäpalvelut PL 1801301 Vantaa","","","","","","",""
"FI0335006","","","Hämeen ympäristökeskus PL 13113101 Hämeenlinna","","","","","","",""
"FI0335007","","","Hämeen ympäristökeskus PL 13113101 Hämeenlinna","","","","","","",""
"FI0335009","","","Hämeen ympäristökeskus Birger Jaarlin katu 13PL 13113100 Hämeenlinna","","","","","","",""
"FI0335010","","","Hämeen ympäristökeskus Birger Jaarlin katu 13PL 13113101 Hämeenlinna","","","","","","",""
"FI0336001","","","Metsähallitus/Länsi-Suomen puistoalue PL 14713101 Hämeenlinna","","","","","","",""
"FI0336002","","","Metsähallitus/Länsi-Suomen puistoalue PL 14713101 Hämeenlinna","","","","","","",""
"FI0336003","","","Metsähallitus/Länsi-Suomen puistoalue PL 14713101 Hämeenlinna","","","","","","",""
"FI0336004","","","Metsäntutkimuslaitos/Tutkimusmetsäpalvelut PL 1801301 Vantaa","","","","","","",""
"FI0336005","","","Metsähallitus/Länsi-Suomen puistoalue PL 14713101 Hämeenlinna","","","","","","",""
"FI0336006","","","Metsähallitus/Länsi-Suomen puistoalue PL 14713101 Hämeenlinna","","","","","","",""
"FI0336007","","","Pirkanmaan ympäristökeskus PL 29733101 Tampere","","","","","","",""
"FI0336008","","","Metsähallitus, Länsi-Suomen luontopalvelut PL 14713101 Hämeenlinna","","","","","","",""
"FI0337002","","","Pirkanmaan ympäristökeskus PL 29733101 TAMPERE","","","","","","",""
"FI0338003","","","Pirkanmaan ympäristökeskus PL 29733101 TAMPERE","","","","","","",""
"FI0338004","","","Pirkanmaan ympäristökeskus PL 29733101 TAMPERE","","","","","","",""
"FI0338005","","","Pirkanmaan ympäristökeskus PL 29733101 TAMPERE","","","","","","",""
"FI0339001","","","Hämeen ympäristökeskus PL 13113101 Hämeenlinna","","","","","","",""
"FI0339002","","","Hämeen ympäristökeskus PL 13113101 Hämeenlinna","","","","","","",""
"FI0339004","","","Metsähallitus/Etelärannikon puistoalue PL 9401301 Vantaa","","","","","","",""
"FI0339005","","","Hämeen ympäristökeskus PL 13113101 Hämeenlinna","","","","","","",""
"FI0339007","","","Hämeen ympäristökeskus Birger Jaarlin katu 13PL 13113101 Hämeenlinna","","","","","","",""
"FI0339008","","","Hämeen ympäristökeskus Birger Jaarlin katu 13PL 13113101 Hämeenlinna","","","","","","",""
"FI0339009","","","Hämeen ympäristökeskus PL 131, 13101 Hämeenlinna","","","","","","",""
"FI0341001","","","Metsähallitus/Länsi-Suomen puistoalue PL 29733101 TAMPERE","","","","","","",""
"FI0341002","","","Metsähallitus/Länsi-Suomen puistoalue PL 29733101 TAMPERE","","","","","","",""
"FI0341003","","","Metsähallitus/Länsi-Suomen luontopalvelut PL 14713101 Hämeenlinna","","","","","","",""
"FI0341004","","","Pirkanmaan ympäristökeskus PL 29733101 Tampere","","","","","","",""
"FI0341008","","","Metsähallitus/Länsi-Suomen puistoalue PL 29733101TAMPERE","","","","","","",""
"FI0341009","","","Pirkanmaan ympäristökeskus Pl 29733101 Tampere","","","","","","",""
"FI0341010","","","Metsähallitus, Länsi-Suomen luontopalvelut PL 14713101 Hämeenlinna","","","","","","",""
"FI0341011","","","Metsähallitus, Länsi-Suomen luontopalvelut PL 14713101 Hämeenlinna","","","","","","",""
"FI0341012","","","Metsähallitus, Länsi-Suomen luontopalvelut PL 14713101 Hämeenlinna","","","","","","",""
"FI0341015","","","Metsähallitus, Länsi-Suomen luontopalvelut PL 14713101 Hämeenlinna","","","","","","",""
"FI0341017","","","Pirkanmaan ympäristökeskus PL 29733101 TAMPERE","","","","","","",""
"FI0341018","","","Metsähallitus, Länsi-Suomen luontopalvelut PL 36, 40101 Jyväskylä","","","","","","",""
"FI0342001","","","Pirkanmaan ympäristökeskus PL 29733101 TAMPERE","","","","","","",""
"FI0344001","","","Metsähallitus/Etelärannikon puistoalue PL 9401301 Vantaa","","","","","","",""
"FI0344002","","","Metsähallitus/Etelärannikon puistoalue PL 9401301 Vantaa","","","","","","",""
"FI0344003","","","Hämeen ympäristökeskus PL 13113101 Hämeenlinna","","","","","","",""
"FI0344005","","","Hämeen ympäristökeskus PL 13113101 Hämeenlinna","","","","","","",""
"FI0344006","","","Hämeen ympäristökeskus PL 13113101 Hämeenlinna","","","","","","",""
"FI0344007","","","Hämeen ympäristökeskus PL 13113101 Hämeenlinna","","","","","","",""
"FI0344008","","","Metsähallitus/Etelärannikon puistoalue PL 9401301 Vantaa","","","","","","",""
"FI0345001","","","Tampereen ympäristökeskus PL 29733101 TAMPERE","","","","","","",""
"FI0345003","","","Pirkanmaan ympäristökeskus PL 29733101 TAMPERE","","","","","","",""
"FI0345004","","","Pirkanmaan ympäristökeskus PL 29733101 Tampere","","","","","","",""
"FI0345005","","","Pirkanmaan ympäristökeskus PL 29733101 Tampere","","","","","","",""
"FI0346001","","","Pirkanmaan ympäristökeskus PL 29733101 TAMPERE","","","","","","",""
"FI0347001","","","Hämeen ympäristökeskus Birger Jaarlin katu 13PL 13113101 Hämeenlinna","","","","","","",""
"FI0348001","","","Pirkanmaan ympäristökeskus PL 29733101 TAMPERE","","","","","","",""
"FI0348002","","","Pirkanmaan ympäristökeskus PL 29733101 TAMPERE","","","","","","",""
"FI0348003","","","Pirkanmaan ympäristökeskus PL 297, 33101 Tampere","","","","","","",""
"FI0349001","","","Pirkanmaan ympäristökeskus PL 29733101 TAMPERE","","","","","","",""
"FI0349004","","","Pirkanmaan ympäristökeskus PL 29733101 TAMPERE","","","","","","",""
"FI0349006","","","Pirkanmaan ympäristökeskus PL 29733101 TAMPERE","","","","","","",""
"FI0349007","","","Pirkanmaan ympäristökeskus PL 29733101 Tampere","","","","","","",""
"FI0349008","","","Pirkanmaan ympäristökeskus PL 29733101 Tampere","","","","","","",""
"FI0350001","","","Metsähallitus/Länsi-Suomen puistoalue PL 29733101 TAMPERE","","","","","","",""
"FI0350002","","","Pirkanmaan ympäristökeskus PL 29733101 TAMPERE","","","","","","",""
"FI0350004","","","Pirkanmaan ympäristökeskus PL 29733101 TAMPERE","","","","","","",""
"FI0350005","","","Pirkanmaan ympäristökeskus PL 29733101 Tampere","","","","","","",""
"FI0351001","","","Pirkanmaan ympäristökeskus PL 29733101 TAMPERE","","","","","","",""
"FI0351003","","","Pirkanmaan ympäristökeskus PL 29733101 TAMPERE","","","","","","",""
"FI0351004","","","Pirkanmaan ympäristökeskus PL 29733101 TAMPERE","","","","","","",""
"FI0351005","","","Pirkanmaan ympäristökeskus PL 29733101 Tampere","","","","","","",""
"FI0351006","","","Pirkanmaan ympäristökeskus PL 29733101 Tampere","","","","","","",""
"FI0353001","","","Pirkanmaan ympäristökeskus PL 29733101 TAMPERE","","","","","","",""
"FI0353002","","","Pirkanmaan ympäristökeskus PL 29733101 TAMPERE","","","","","","",""
"FI0354001","","","Metsäntutkimuslaitos/Tutkimusmetsäpalvelut PL 1801301 Vantaa","","","","","","",""
"FI0354002","","","Metsähallitus/Länsi-Suomen puistoalue PL 29733101 TAMPERE","","","","","","",""
"FI0354003","","","Pirkanmaan ympäristökeskus Pl 29733101 TAMPERE","","","","","","",""
"FI0354004","","","Pirkanmaan ympäristökeskus PL 29733101 TAMPERE","","","","","","",""
"FI0355001","","","Metsähallitus/Länsi-Suomen puistoalue PL 29733101 TAMPERE","","","","","","",""
"FI0355002","","","Metsähallitus/Länsi-Suomen puistoalue PL 29733101 TAMPERE","","","","","","",""
"FI0355004","","","Pirkanmaan ympäristökeskus PL 29733101 TAMPERE","","","","","","",""
"FI0355005","","","Metsähallitus/Länsi-Suomen puistoalue PL 29733101 TAMPERE","","","","","","",""
"FI0355006","","","Metsähallitus/Länsi-Suomen puistoalue PL 29733101 TAMPERE","","","","","","",""
"FI0355007","","","Metsähallitus/Länsi-Suomen puistoalue PL 29733101 TAMPERE","","","","","","",""
"FI0355008","","","Metsähallitus/Länsi-Suomen puistoalue PL 29733101 TAMPERE","","","","","","",""
"FI0355009","","","Pirkanmaan ympäristökeskus PL 29733101 Tampere","","","","","","",""
"FI0355010","","","Pirkanmaan ympäristökeskus PL 29733101 Tampere","","","","","","",""
"FI0355011","","","Pirkanmaan ympäristökeskus Pl 29733101 Tampere","","","","","","",""
"FI0356001","","","Pirkanmaan ympäristökeskus PL 29733101 TAMPERE","","","","","","",""
"FI0356002","","","Pirkanmaan ympäristökeskus PL 29733101 TAMPERE","","","","","","",""
"FI0356003","","","Pirkanmaan ympäristökeskus PL 29733101 TAMPERE","","","","","","",""
"FI0356004","","","Pirkanmaan ympäristökeskus PL 29733101 TAMPERE","","","","","","",""
"FI0356005","","","Pirkanmaan ympäristökeskus PL 29733101 TAMPERE","","","","","","",""
"FI0356006","","","Pirkanmaan ympäristökeskus PL 29733101 Tampere","","","","","","",""
"FI0357002","","","Hämeen ympäristökeskus PL 13113101 Hämeenlinna","","","","","","",""
"FI0358001","","","Pirkanmaan ympäristökeskus PL 2733101 Tampere","","","","","","",""
"FI0358002","","","Pirkanmaan ympäristökeskus PL 29733101 Tampere","","","","","","",""
"FI0358003","","","Pirkanmaan ympäristökeskus PL 29733101 Tampere","","","","","","",""
"FI0359001","","","Pirkanmaan ympäristökeskus PL 297, 33101 Tampere","","","","","","",""
"FI0361001","","","Hämeen ympäristökeskus Birger Jaarlin katu 13PL 13113100 Hämeenlinna","","","","","","",""
"FI0361002","","","Metsähallitus, Itä-Suomen luontopalvelut Akselinkatu 857130 SAVONLINNA","","","","","","",""
"FI0361003","","","Hämeen ympäristökeskus Birger Jaarlin katu 13PL 13113101 Hämeenlinna","","","","","","",""
"FI0362001","","","Hämeen ympäristökeskus Birger Jaarlin katu 13PL 13113101 Hämeenlinna","","","","","","",""
"FI0363001","","","Hämeen ympäristökeskus Birger Jaarlin katu 13PL 13113101 Hämeenlinna","","","","","","",""
"FI0400001","","","Metsähallitus","","","","","","",""
"FI0400002","","","Metsähallitus","","","","","","",""
"FI0401001","","","Kaakkois-Suomen ympäristökeskus PL 1023, 45101  Kouvola","","","","","","",""
"FI0401002","","","Kaakkois-Suomen ympäristökeskus PL 102345101  KOUVOLA","","","","","","",""
"FI0401003","","","Kaakkois-Suomen ympäristökeskus PL 102345101  KOUVOLA","","","","","","",""
"FI0401004","","","Kaakkois-Suomen ympäristökeskus PL 102345101  KOUVOLA","","","","","","",""
"FI0401005","","","Metsähallitus Etelä-Suomen luontopalvelutPL 9401301 VANTAA","","","","","","",""
"FI0401006","","","Metsähallitus Etelä-Suomen luontopalvelutPL 9401301 VANTAA","","","","","","",""
"FI0401008","","","Kaakkois-Suomen ympäristökeskus PL102345101 Kouvola","","","","","","",""
"FI0401009","","","Kaakkois-Suomen ympäristökeskus PL 102345101 KOUVOLA","","","","","","",""
"FI0401010","","","Kaakkois-Suomen ympäristökeskus PL 102345101 KOUVOLA","","","","","","",""
"FI0401011","","","Kaakois-Suomen ympäristökeskus PL 102345101 KOUVOLA","","","","","","",""
"FI0401012","","","Kaakkois-Suomen ympäristökeskus PL 1023, 45101 Kouvola","","","","","","",""
"FI0403001","","","Kaakkois-Suomen ympäristökeskus PL102345101 KOUVOLA","","","","","","",""
"FI0403002","","","Kaakois-Suomen ympäristökeskus PL 102345101 KOUVOLA","","","","","","",""
"FI0403003","","","Kaakkois-Suomen ympäristökeskus PL 1023, 45101 Kouvola","","","","","","",""
"FI0404001","","","Metsähallitus Etelä-Suomen luontopalvelutPL 9401301  VANTAA","","","","","","",""
"FI0404002","","","Kaakkois-Suomen ympäristökeskus PL 102345101 Kouvola","","","","","","",""
"FI0404004","","","Kaakkois-Suomen ympäristökeskus Pl 102345101 Kouvola","","","","","","",""
"FI0404006","","","Kaakkois-Suomen ympäristökeskus PL 102345101  KOUVOLA","","","","","","",""
"FI0404007","","","Kaakkois-Suomen ympäristökeskus  PL 102345101 Kouvola","","","","","","",""
"FI0404008","","","Kaakois-Suomen ympäristökeskus PL 102345101 KOUVOLA","","","","","","",""
"FI0404009","","","Metsähallitus Etelä-Suomen luontopalvelutPL 9401301 Vantaa","","","","","","",""
"FI0404011","","","Kaakkois-Suomen  ympäristökeskus PL 102345101 Kouvola","","","","","","",""
"FI0404012","","","Kaakkois-Suomen ympäristökeskus PL 102345101 KOUVOLA","","","","","","",""
"FI0406001","","","Kaakkois-Suomen ympäristökeskus PL 1023, 45101 Kouvola","","","","","","",""
"FI0406002","","","Kaakkois-Suomen ympäristökeskus PL 102345101 KOUVOLA","","","","","","",""
"FI0406003","","","Kaakkois-Suomen ympäristökeskus PL 102345101 Kouvola","","","","","","",""
"FI0406004","","","Kaakkois-Suomen ympäristökeskus PL 102345101 Kouvola","","","","","","",""
"FI0406007","","","Metsähallitus, Itä-Suomen Luontopalvelut Akselinkatu 857130 SAVONLINNA","","","","","","",""
"FI0406008","","","Metsähallitus, Itä-Suomen luontopalvelut Akselinkatu 857130 SAVONLINNA","","","","","","",""
"FI0406009","","","Kaakkois-Suomen ympäristökeskus PL 1023, 45101 Kouvola","","","","","","",""
"FI0407001","","","Kaakkois-Suomen ympäristökeskus PL 102345101 KOUVOLA","","","","","","",""
"FI0407004","","","Kaakkois-Somen ympäristökeskus PL 102345101 KOUVOLA","","","","","","",""
"FI0407006","","","Kaakkois-Suomen ympäristökeskus PL 102345101 Kouvola","","","","","","",""
"FI0407008","","","Kaakkois-Suomen ympäristökeskus PL 102345101 KOUVOLA","","","","","","",""
"FI0407009","","","Kaakkois-Suomen ympäristökeskus PL 102345101 KOUVOLA","","","","","","",""
"FI0407011","","","Kaakkois-Suomen ympäristökeskus PL 102345101 KOUVOLA","","","","","","",""
"FI0407012","","","Kaakkois-Suomen ympäristökeskus PL 102345101 KOUVOLA","","","","","","",""
"FI0407013","","","Kaakkois-Suomen ympäristökeskus PL 102345101 KOUVOLA","","","","","","",""
"FI0408001","","","Metsähallitus  Etelä-Suomen luontopalvelutPL 9401301 VANTAA","","","","","","",""
"FI0408003","","","Kaakkois-Suomen ympäristökeskus PL 102345101  KOUVOLA","","","","","","",""
"FI0408004","","","Kaakkois-Suomen ympäristökeskus PL 102345101  KOUVOLA","","","","","","",""
"FI0408005","","","Kaakkois-Suomen ympäristökeskus PL1023Kouvola 45101","","","","","","",""
"FI0408009","","","Kaakkois-Suomen ympäristökeskus PL 102345101 KOUVOLA","","","","","","",""
"FI0408010","","","Kaakkois-Suomen ympäristökeskus PL 102345101 KOUVOLA","","","","","","",""
"FI0408011","","","Kaakkois-Suomen ympäristökeskus PL 1023, 45101 Kouvola","","","","","","",""
"FI0409001","","","Kaakkois-Suomen ympäristökeskus PL1023, 45101 Kouvola","","","","","","",""
"FI0409003","","","Kaakkois- Suomen ympäristökeskus PL 1023, 45101 Kouvola","","","","","","",""
"FI0410001","","","Kaakkois-Suomen ympäristökeskus PL 1023, 45101 Kouvola","","","","","","",""
"FI0410002","","","Kaakkois-Suomen ympäristökeskus PL 102345101 KOUVOLA","","","","","","",""
"FI0411002","","","Kaakkois-Suomen ympäristökeskus PL 102345101  KOUVOLA","","","","","","",""
"FI0411003","","","Kaakkois-Suomen ympäristökeskus PL 102345101  KOUVOLA","","","","","","",""
"FI0411005","","","Kaakkois-Suomen ympäristökeskus PL 102345101 KOUVOLA","","","","","","",""
"FI0411006","","","Kaakois-Suomen ympäristökeskus PL102345101 Kouvola","","","","","","",""
"FI0411008","","","Kaakkois-Suomen ympäristökeskus PL 102345101 KOUVOLA","","","","","","",""
"FI0411009","","","Kaakkois-Suomen ympäristökeskus Pl 102345101 Kouvola","","","","","","",""
"FI0411012","","","Metsähallitus, Itä-Suomen Luontopalvelut Akselinkatu 857130 SAVONLINNA","","","","","","",""
"FI0412001","","","Kaakkois-Suomen ympäristökeskus PL 102345101 KOUVOLA","","","","","","",""
"FI0413003","","","Kaakkois-Suomen ympäristökeskus PL1023450101 Kouvola","","","","","","",""
"FI0413004","","","Kaakkois-Suomen ympäristökeskus PL 102345101 KOUVOLA","","","","","","",""
"FI0413005","","","Kaakkois-Suomen ympäristökeskus PL 102345101 KOUVOLA","","","","","","",""
"FI0414002","","","Kaakkois-Suomen ympäristökeskus PL 102345101 KOUVOLA","","","","","","",""
"FI0414004","","","Kaakkois-Suomen ympäristökeskus PL 102345101  KOUVOLA","","","","","","",""
"FI0414005","","","Kaakois-Suomen ympäristökeskus PL102345101 Kouvola","","","","","","",""
"FI0414006","","","Metsähallitus Etelä-Suomen luontopalvelutPL 9401301  VANTAA","","","","","","",""
"FI0414008","","","Kaakkois-Suomen ympäristökeskus PL 102345101  KOUVOLA","","","","","","",""
"FI0414009","","","Kaakkoi-Suomen ympäristökeskus PL 102345101 KOUVOLA","","","","","","",""
"FI0414010","","","Metsähallitus, Etelä-Suomen luontopalvelut PL 9401301 VANTAA","","","","","","",""
"FI0414012","","","Kaakkois-Suomen ympäristökeskus PL 102345101 KOUVOLA","","","","","","",""
"FI0414013","","","Kaakkois-Suomen ympäristökeskus PL 1023, 45101 Kouvola","","","","","","",""
"FI0415001","","","Metsähallitus Itä-Suomen luontopalvelutAkselinkatu 857130  SAVONLINNA","","","","","","",""
"FI0415002","","","Kaakkois-Suomen ympäristökeskus PL 102345101 Kouvola","","","","","","",""
"FI0415004","","","Metsähallitus, Itä-Suomen luontopalvelut Akselinkatu 857130 SAVONLINNA","","","","","","",""
"FI0415006","","","Kaakkois-Suomen ympäristökeskus PL 102345101 KOUVOLA","","","","","","",""
"FI0415007","","","Metsähallitus, Itä-Suomen Luontopalvelut Akselinkatu 8, 57130 Savonlinna","","","","","","",""
"FI0416001","","","Metsähallitus Etelä-Suomen luontopalvelutPL 9401301  VANTAA","","","","","","",""
"FI0416003","","","Kaakkois-Suomen ympäristökeskus PL 102345101 KOUVOLA","","","","","","",""
"FI0416005","","","Kaakkois-Suomen ympäristökeskus PL 102345101  KOUVOLA","","","","","","",""
"FI0416006","","","Kaakkois-Suomen ympäristökeskus PL 102345101  KOUVOLA","","","","","","",""
"FI0416007","","","Kaakkois-Suomen ympäristökeskus PL 102345101  KOUVOLA","","","","","","",""
"FI0416010","","","Kaakkois-Suomen ympäristökeskus PL 102345101  KOUVOLA","","","","","","",""
"FI0417002","","","Kaakkois-Suomen ympäristökeskus PL 102345101 Kouvola","","","","","","",""
"FI0417004","","","Kaakkois-Suomen ympäristökeskus PL 1023 45101 Kouvola","","","","","","",""
"FI0417006","","","Kaakkois-Suomen ympäristökeskus PL 102345101 KOUVOLA","","","","","","",""
"FI0417008","","","Kaakkois-Suomen ympäristökeskus PL 102345101 KOUVOLA","","","","","","",""
"FI0417009","","","Kaakkois-Suomen ympäristökeskus PL 1023, 45101 Kouvola","","","","","","",""
"FI0418001","","","Kaakkois-Suomen ympäristökeskus Pl 102345101 Kouvola","","","","","","",""
"FI0418006","","","Kaakkois-Suomen ympäristökeskus PL 102345101 Kouvola","","","","","","",""
"FI0418007","","","Kaakkois-Suomen ympäristökeskus PL 1023, 45101 Kouvola","","","","","","",""
"FI0419001","","","Kaakkois- Suomen ympäristökeskus PL 102345101 Kouvola","","","","","","",""
"FI0419003","","","Kaakkois-Suomen ympäristökeskus PL 102345101 Kouvola","","","","","","",""
"FI0419004","","","Kaakkois-Suomen ympäristökeskus PL 102345101 KOUVOLA","","","","","","",""
"FI0419005","","","Kaakkois-Suomen ympäristökeskus PL 1023, 45101 Kouvola","","","","","","",""
"FI0420001","","","Kaakkois-Suomen ympäristökeskus PL 102345101 Kouvola","","","","","","",""
"FI0420002","","","Kaakkois-Suomen ympäristökeskus PL 102345101  KOUVOLA","","","","","","",""
"FI0420004","","","Kaakkois-Suomen ympäristökeskus PL 102345101 Kouvola","","","","","","",""
"FI0420005","","","Kaakkois-Suomen ympäristökeskus PL 102345101 Kouvola","","","","","","",""
"FI0422001","","","Kaakkois-Suomen ympäristökeskus Pl 102345101 Kouvola","","","","","","",""
"FI0422003","","","Kaakkois-Suomen ympäristökeskus  PL 102345101 kouvola","","","","","","",""
"FI0422004","","","Kaakkois- Suomen ympäristökeskus PL 102345101 Kouvola","","","","","","",""
"FI0422005","","","Kaakkois-Suomen ympäristökeskus PL 102345101 Kouvola","","","","","","",""
"FI0423001","","","Kaakkois-Suomen ympäristökeskus PL 102345101 Kouvola","","","","","","",""
"FI0423003","","","Kaakkois-Suomen ympäristökeskus PL 102345101 Kouvola","","","","","","",""
"FI0423006","","","Kaakkois-Suomen ympäristökeskus PL 102345101 KOUVOLA","","","","","","",""
"FI0424001","","","Metsähallitus  Itä-Suomen luontopalvelutAkselinkatu 857130 SAVONLINNA","","","","","","",""
"FI0424002","","","Kaakkois-Suomen ympäristökeskus PL 102345101 KOUVOLA","","","","","","",""
"FI0424003","","","Kaakkois-Suomen ympäristökeskus PL102345101 Kouvola","","","","","","",""
"FI0424005","","","Kaakkois-Suomen ympäristökeskus PL 102345101 Kouvola","","","","","","",""
"FI0424006","","","Kaakkois-Suomen ympäristökeskus PL 102345101 KOUVOLA","","","","","","",""
"FI0424008","","","Kaakkois-Suomen ympäristökeskus PL 102345101 KOUVOLA","","","","","","",""
"FI0424010","","","Kaakkois-Suomen ympäristökeskus PL 102345101 KOUVOLA","","","","","","",""
"FI0424011","","","Kaakkois-Suomen ympäristökeskus PL 102345101 KOUVOLA","","","","","","",""
"FI0424012","","","Kaakkois-Suomen ympäristökeskus PL 1023, 45101 Kouvola","","","","","","",""
"FI0424013","","","Kaakkois-Suomen ympäristökeskus PL 1023, 45101 Kouvola","","","","","","",""
"FI0425001","","","Kaakkois-Suomen ympäristökeskus PL 102345101 Kouvola","","","","","","",""
"FI0425002","","","Kaakkois-Suomen ympäristökeskus PL 102345101  KOUVOLA","","","","","","",""
"FI0425003","","","Kaakkois-Suomen ympäristökeskus PL 102345101 KOUVOLA","","","","","","",""
"FI0425005","","","Kaakkois-Suomen ympäristökeskus PL 1023, 45101 Kouvola","","","","","","",""
"FI0425006","","","Kaakkois-Suomen ympäristökeskus PL 102345101 KOUVOLA","","","","","","",""
"FI0425007","","","Kaakkois-Suomen ympäristökeskus PL 1023, 45101 Kouvola","","","","","","",""
"FI0425009","","","Kaakkois-Suomen ympäristökeskus PL 102345101 KOUVOLA","","","","","","",""
"FI0426001","","","Kaakkois-Suomen ympäristökeskus PL 102345101 KOUVOLA","","","","","","",""
"FI0426003","","","Kaakkois-Suomen ympäristökeskus PL 102345101 KOUVOLA","","","","","","",""
"FI0426004","","","Kaakkois-Suomen ympäristökeskus PL 1023, 45101 Kouvola","","","","","","",""
"FI0426005","","","Kaakkois-Suomen ympäristökeskus PL 1023, 45101 Kouvola","","","","","","",""
"FI0427001","","","Metsähallitus  Itä-Suomen luontopalvelutAkselinkatu 857130 SAVONLINNA","","","","","","",""
"FI0427002","","","Kaakkois- Suomen ympäristökeskus PL 102345101 Kouvola","","","","","","",""
"FI0427003","","","Kaakkois-Suomen ympäristökeskus PL 102345101  KOUVOLA","","","","","","",""
"FI0427004","","","Kaakkois-Suomen ympäristökeskus PL 102345101 Kouvola","","","","","","",""
"FI0500001","","","Metsähallitus Itä-Suomen puistoaluePL 2857131  SAVONLINNA","","","","","","",""
"FI0500002","","","Metsähallitus Itä-Suomen luontopalvelutAkselinkatu 857130  SAVONLINNA","","","","","","",""
"FI0500003","","","Metsähallitus/Itä-Suomen puistoalue PL 2857131  SAVONLINNA","","","","","","",""
"FI0500004","","","Metsähallitus Itä-Suomen puistoaluePL 2857131  SAVONLINNAEtelä-Savon ympäristökeskusJääkärinkatu 1450100  MIKKELI","","","","","","",""
"FI0500005","","","Metsähallitus/Itä-Suomen puistoalue PL 2857131  SAVONLINNA","","","","","","",""
"FI0500006","","","Metsähallitus Itä-Suomen puistoaluePL 2857131  SAVONLINNAEtelä-Savon ympäristökeskusJääkärinkatu 1450100  MIKKELI","","","","","","",""
"FI0500007","","","Metsähallitus/ Itä-Suomen puistoalue PL 2857131  SAVONLINNA","","","","","","",""
"FI0500008","","","Metsähallitus/Itä-Suomen puistoalue PL 2857131  SAVONLINNA","","","","","","",""
"FI0500009","","","Metsähallitus Itä-Suomen puistoaluePL 2857131  SAVONLINNA","","","","","","",""
"FI0500010","","","Metsähallitus Itä-Suomen puistoaluePL 2857131  SAVONLINNA","","","","","","",""
"FI0500011","","","Metsähallitus Itä-Suomen puistoaluePL 2857131  SAVONLINNA","","","","","","",""
"FI0500012","","","Metsähallitus Itä-Suomen puistoaluePL 2857131  SAVONLINNA","","","","","","",""
"FI0500013","","","Metsähallitus Itä-Suomen puistoalueEtelä-Savon ympäristökeskusJääkärinkatu 1450100  MIKKELIPL 2857131  SAVONLINNA","","","","","","",""
"FI0500014","","","Etelä-Savon ympäristökeskus Jääkärinkatu 1450100  MIKKELI","","","","","","",""
"FI0500015","","","Metsähallitus Itä-Suomen puistoaluePL 2857131  SAVONLINNA","","","","","","",""
"FI0500016","","","Metsähallitus Itä-Suomen puistoaluePL 2857131  SAVONLINNA","","","","","","",""
"FI0500017","","","Etelä-Savon ympäristökeskus Jääkärinkatu 1450100  MIKKELIMetsähallitusItä-Suomen puistoaluePL 2857131  SAVONLINNA","","","","","","",""
"FI0500018","","","Etelä-Savon ympäristökeskus Jääkärinkatu 1450100  MIKKELI","","","","","","",""
"FI0500019","","","Metsäntutkimuslaitos Punkaharjun tutkimusasemaFinlandiantie 1858450  PUNKAHARJU","","","","","","",""
"FI0500020","","","Etelä-Savon ympäristökeskus Jääkärinkatu 1450100  MIKKELI","","","","","","",""
"FI0500021","","","Etelä-Savon ympäristökeskus Jääkärinkatu 1450100  MIKKELI","","","","","","",""
"FI0500022","","","Hämeen ympäristökeskus Birger Jaarlin katu 13PL 13113101 HÄMEENLINNA","","","","","","",""
"FI0500023","","","Etelä-Savon ympäristökeskus Jääkärinkatu 1450100  MIKKELI","","","","","","",""
"FI0500024","","","Etelä-Savon ympäristökeskus Jääkärinkatu 1450100  MIKKELI","","","","","","",""
"FI0500025","","","Etelä-Savon ympäristökeskus Jääkärinkatu 1450100  MIKKELI","","","","","","",""
"FI0500026","","","Etelä-Savon ympäristökeskus Jääkärinkatu 1450100  MIKKELI","","","","","","",""
"FI0500029","","","Etelä-Savon ympäristökeskus Jääkärinkatu 1450100 MIKKELI","","","","","","",""
"FI0500030","","","Etelä-Savon ympäristökeskus Jääkärinkatu 1450100  MIKKELI","","","","","","",""
"FI0500031","","","Etelä-Savon ympäristökeskus Jääkärinkatu 1450100  MIKKELI","","","","","","",""
"FI0500033","","","Hämeen ympäristökeskus Birger Jaarlin katu 13PL 13113101 HÄMEENLINNA","","","","","","",""
"FI0500035","","","Etelä-Savon ympäristökeskus Jääkärinkatu 1450100  MIKKELI","","","","","","",""
"FI0500036","","","Etelä-Savon ympäristökeskus Jääkärinkatu 1450100  MIKKELI","","","","","","",""
"FI0500037","","","Etelä-Savon ympäristökeskus Jääkärinkatu 1450100  MIKKELI","","","","","","",""
"FI0500038","","","Etelä-Savon ympäristökeskus Jääkärinkatu 1450100  MIKKELI","","","","","","",""
"FI0500041","","","Etelä-Savon ympäristökeskus Jääkärinkatu 1450100  MIKKELI","","","","","","",""
"FI0500042","","","Etelä-Savon ympäristökeskus Jääkärinkatu 1450100  MIKKELI","","","","","","",""
"FI0500043","","","Etelä-Savon ympäristökeskus Jääkärinkatu 1450100  MIKKELI","","","","","","",""
"FI0500044","","","Etelä-Savon ympäristökeskus Jääkärinkatu 1450100  MIKKELI","","","","","","",""
"FI0500045","","","Etelä-Savon ympäristökeskus Jääkärinkatu 1450100  MIKKELI","","","","","","",""
"FI0500046","","","Hämeen ympäristökeskus Birger Jaarlin katu 13PL 13113101 HÄMEENLINNA","","","","","","",""
"FI0500047","","","Etelä-Savon ympäristökeskus Jääkärinkatu 1450100  MIKKELI","","","","","","",""
"FI0500048","","","Etelä-Savon ympäristökeskus Jääkärinkatu 1450100  MIKKELI","","","","","","",""
"FI0500049","","","Etelä -Savon ympäristökeskus Jääkärinkatu 1450100  MIKKELI","","","","","","",""
"FI0500052","","","Metsähallitus/Itä-Suomen puistoalue PL 2857131  SAVONLINNA","","","","","","",""
"FI0500053","","","Etelä-Savon ympäristökeskus Jääkärinkatu 1450100  MIKKELI","","","","","","",""
"FI0500056","","","Etelä-Savon ympäristökeskus Jääkärinkatu 1450100  MIKKELI","","","","","","",""
"FI0500057","","","Hämeen ympäristökeskus Birger Jaarlin katu 13PL 13113101 HÄMEENLINNA","","","","","","",""
"FI0500058","","","Etelä-Savon ympäristökeskus Jääkärinkatu 1450100  MIKKELI","","","","","","",""
"FI0500060","","","Etelä-Savon ympäristökeskus Jääkärinkatu 1450100  MIKKELI","","","","","","",""
"FI0500062","","","Etelä-Savon ympäristökeskus Jääkärinkatu 1450100  MIKKELI","","","","","","",""
"FI0500063","","","Etelä-Savon ympäristökeskus Jääkärinkatu 1450100  MIKKELI","","","","","","",""
"FI0500065","","","Hämeen ympäristökeskus Birger Jaarlin katu 13PL 13113101 HÄMEENLINNA","","","","","","",""
"FI0500066","","","Hämeen ympäristökeskus Birger Jaarlin katu 13PL 13113101 HÄMEENLINNA","","","","","","",""
"FI0500068","","","Etelä-Savon ympäristökeskus Jääkärinkatu 1450100  MIKKELI","","","","","","",""
"FI0500073","","","Etelä-Savon ympäristökeskus Jääkärinkatu 1450100  MIKKELI","","","","","","",""
"FI0500074","","","Etelä-Savon ympäristökeskus Jääkärinkatu 1450100  MIKKELI","","","","","","",""
"FI0500077","","","Metsähallitus Itä-Suomen puistoaluePL 28 57131  SAVONLINNA","","","","","","",""
"FI0500081","","","Etelä-Savon ympäristökeskus Jääkärinkatu 1450100  MIKKELI","","","","","","",""
"FI0500082","","","Etelä-Savon ympäristökeskus Jääkärinkatu 1450100  MIKKELI","","","","","","",""
"FI0500084","","","Etelä-Savon ympäristökeskus Jääkärinkatu 1450100  MIKKELI","","","","","","",""
"FI0500086","","","Hämeen ympäristökeskus Birger Jaarlin katu 13PL 13113101 HÄMEENLINNA","","","","","","",""
"FI0500087","","","Hämeen ympäristökeskus Birger Jaarlin katu 13PL 13113101 HÄMEENLINNA","","","","","","",""
"FI0500088","","","Hämeen ympäristökeskus Birger Jaarlin katu 13PL 13113101 HÄMEENLINNA","","","","","","",""
"FI0500089","","","Hämeen ympäristökeskus Birger Jaarlin katu 13PL 13113101 HÄMEENLINNA","","","","","","",""
"FI0500090","","","Hämeen ympäristökeskus Birger Jaarlin katu 13PL 13113101 HÄMEENLINNA","","","","","","",""
"FI0500092","","","Hämeen ympäristökeskus Birger Jaarlin katu 13PL 13113101 HÄMEENLINNA","","","","","","",""
"FI0500093","","","Etelä-Savon ympäristökeskus Jääkärinkatu 1450100  MIKKELI","","","","","","",""
"FI0500094","","","Etelä-Savon ympäristökeskus Jääkärinkatu 1450100  MIKKELI","","","","","","",""
"FI0500096","","","Etelä-Savon ympäristökeskus Jääkärinkatu 1450100  MIKKELI","","","","","","",""
"FI0500097","","","Etelä-Savon ympäristökeskus Jääkärinkatu 1450100  MIKKELI","","","","","","",""
"FI0500099","","","Etelä-Savon ympäristökeskus Jääkärinkatu 1450100  MIKKELI","","","","","","",""
"FI0500104","","","Etelä-Savon ympäristökeskus Jääkärinkatu 1450100  MIKKELI","","","","","","",""
"FI0500105","","","Hämeen ympäristökeskus Birger Jaarlin katu 13PL 13113101 HÄMEENLINNA","","","","","","",""
"FI0500106","","","Hämeen ympäristökeskus Birger Jaarlin katu 13PL 13113101 HÄMEENLINNA","","","","","","",""
"FI0500108","","","Etelä-Savon ympäristökeskus Jääkärinkatu 1450100  MIKKELI","","","","","","",""
"FI0500109","","","Etelä-Savon ympäristökeskus Jääkärinkatu 1450100  MIKKELI","","","","","","",""
"FI0500110","","","Etelä-Savon ympäristökeskus Jääkärinkatu 1450100  MIKKELI","","","","","","",""
"FI0500111","","","Etelä-Savon ympäristökeskus Jääkärinkatu 1450100  MIKKELI","","","","","","",""
"FI0500113","","","Etelä-Savon ympäristökeskus Jääkärinkatu 1450100  MIKKELI","","","","","","",""
"FI0500114","","","Etelä-Savon ympäristökeskus Jääkärinkatu 1450100  MIKKELI","","","","","","",""
"FI0500115","","","Etelä-Savon ympäristökeskus Jääkärinkatu 1450100  MIKKELI","","","","","","",""
"FI0500116","","","Hämeen ympäristökeskus Birger Jaarlin katu 13PL 13113101 HÄMEENLINNA","","","","","","",""
"FI0500128","","","Hämeen ympäristökeskus Birger Jaarlin katu 13PL 13113101 HÄMEENLINNA","","","","","","",""
"FI0500129","","","Etelä-Savon ympäristökeskus Jääkärinkatu 1450100  MIKKELI","","","","","","",""
"FI0500130","","","Etelä-Savon ympäristökeskus Jääkärinkatu 1450100  MIKKELI","","","","","","",""
"FI0500131","","","Etelä-Savon ympäristökeskus Jääkärinkatu 1450100  MIKKELI","","","","","","",""
"FI0500133","","","Etelä-Savon ympäristökeskus Jääkärinkatu 14 50100  MIKKELI","","","","","","",""
"FI0500135","","","Hämeen ympäristökeskus Birger Jaarlin katu 13PL 13113101 HÄMEENLINNA","","","","","","",""
"FI0500137","","","Etelä-Savon ympäristökeskus Jääkärinkatu 1450100  MIKKELI","","","","","","",""
"FI0500138","","","Hämeen ympäristökeskus Birger Jaarlin katu 13PL 13113101 HÄMEENLINNA","","","","","","",""
"FI0500140","","","Etelä-Savon ympäristökeskus Jääkärinkatu 1450100  MIKKELI","","","","","","",""
"FI0500143","","","Etelä-Savon ympäristökeskus Jääkärinkatu 1450100  MIKKELI","","","","","","",""
"FI0500144","","","Etelä-Savon ympäristökeskus Jääkärinkatu 1450100  MIKKELI","","","","","","",""
"FI0500145","","","Etelä-Savon ympäristökeskus Jääkärinkatu 1450100  MIKKELI","","","","","","",""
"FI0500149","","","Metsähallitus/Itä-Suomen puistoalue PL 2857131  SAVONLINNA","","","","","","",""
"FI0500152","","","Etelä-Savon ympäristökeskus Jääkärinkatu 1450100  MIKKELI","","","","","","",""
"FI0500154","","","Etelä-Savon ympäristökeskus Jääkärinkatu 1450100  MIKKELI","","","","","","",""
"FI0500155","","","Etelä-Savon ympäristökeskus Jääkärinkatu 1450100  MIKKELI","","","","","","",""
"FI0500156","","","Etelä-Savon ympäristökeskus Jääkärinkatu 1450100  MIKKELI","","","","","","",""
"FI0500158","","","Etelä-Savon ympäristökeskus Jääkärinkatu 1450100  MIKKELI","","","","","","",""
"FI0500161","","","Metsähallitus Itä-Suomen puistoaluePL 2857131  SAVONLINNA","","","","","","",""
"FI0500162","","","Hämeen ympäristökeskus Birger Jaarlin katu 13PL 13113101 HÄMEENLINNA","","","","","","",""
"FI0500163","","","Hämeen ympäristökeskus Birger Jaarlin katu 13PL 13113101 HÄMEENLINNA","","","","","","",""
"FI0500164","","","Etelä-Savon ympäristökeskus Jääkärinkatu 1450100  MIKKELI","","","","","","",""
"FI0500165","","","Etelä-Savon ympäristökeskus Jääkärinkatu 1450100  MIKKELI","","","","","","",""
"FI0500166","","","Etelä-Savon ympäristökeskus Jääkärinkatu 1450100  MIKKELI","","","","","","",""
"FI0500169","","","Etelä-Savon ympäristökeskus Jääkärinkatu 1450100  MIKKELI","","","","","","",""
"FI0500170","","","Etelä-Savon ympäristökeskus Jääkärinkatu 1450100  MIKKELI","","","","","","",""
"FI0500171","","","Etelä-Savon ympäristökeskus Jääkärinkatu 1450100  MIKKELI","","","","","","",""
"FI0500172","","","Etelä-Savon ympäristökeskus Jääkärinkatu 1450100  MIKKELI","","","","","","",""
"FI0500174","","","Etelä-Savon ympäristökeskus Jääkärinkatu 1450100 Mikkeli","","","","","","",""
"FI0500175","","","Etelä-Savon ympäristökeskus Jääkärinkatu 1450100 MIKKELI","","","","","","",""
"FI0500176","","","Etelä-Savon ympäristökeskus Jääkärinkatu 1450100  MIKKELIMetsähallitusItä-Suomen puistoaluePL 2857131  SAVONLINNA","","","","","","",""
"FI0500201","","","Etelä-Savon ympäristökeskus Jääkärinkatu 1450100 Mikkeli","","","","","","",""
"FI0500202","","","Etelä-Savon ympäristökeskus Jääkärinkatu 1450100 Mikkeli","","","","","","",""
"FI0500203","","","Etelä-Savon ympäristökeskus Jääkärinkatu 1450100 Mikkeli","","","","","","",""
"FI0500204","","","Etelä-Savon ympäristökeskus Jääkärinkatu 1450100 Mikkeli","","","","","","",""
"FI0500205","","","Etelä-Savon ympäristökeskus Jääkärinkatu 1450100 Mikkeli","","","","","","",""
"FI0500206","","","Etelä-Savon ympäristökeskus Jääkärinkatu 1450100 Mikkeli","","","","","","",""
"FI0500211","","","Metsähallitus Itä-Suomen luontopalvelutAkselinkatu 857130 Savonlinna","","","","","","",""
"FI0500220","","","Etelä-Savon ympäristökeskus Jääkärinkatu 1450100 Mikkeli","","","","","","",""
"FI0500221","","","Etelä-Savon ympäristökeskus Jääkärinkatu 1450100 Mikkeli","","","","","","",""
"FI0500222","","","Etelä-Savon ympäristökeskus Jääkärinkatu 1450100 Mikkeli","","","","","","",""
"FI0500230","","","Etelä-Savon ympäristökeskus Jääkärinkatu 1450100 Mikkeli","","","","","","",""
"FI0500231","","","Etelä-Savon ympäristökeskus Jääkärinkatu 1450100 Mikkeli","","","","","","",""
"FI0500236","","","Etelä-Savon ympäristökeskus Jääkärinkatu 14, 50100 Mikkeli","","","","","","",""
"FI0600001","","","Pohjois-Savon ympäristökeskus1997","","","","","","",""
"FI0600002","","","Pohjois-Savon ympäristökeskus","","","","","","",""
"FI0600003","","","Pohjois-Savon ympäristökeskus","","","","","","",""
"FI0600004","","","Pohjois-Savon ympäristökeskus","","","","","","",""
"FI0600005","","","Pohjois-Savon ympäristökeskus","","","","","","",""
"FI0600006","","","Pohjois-Savon ympäristökeskus","","","","","","",""
"FI0600007","","","Pohjois-Savon ympäristökeskus","","","","","","",""
"FI0600008","","","Pohjois-Savon ympäristökeskus","","","","","","",""
"FI0600009","","","Pohjois-Savon ympäristökeskus PL 1049, 70101 Kuopio","","","","","","",""
"FI0600010","","","Pohjois-Savon ympäristökeskus","","","","","","",""
"FI0600011","","","Pohjois-Savon ympäristökeskus","","","","","","",""
"FI0600012","","","Pohjois-Savon ympäristökeskus","","","","","","",""
"FI0600013","","","Pohjois-Savon ympäristökeskus","","","","","","",""
"FI0600014","","","Pohjois-Savon ympäristökeskus","","","","","","",""
"FI0600015","","","Pohjois-Savon ympäristökeskus","","","","","","",""
"FI0600016","","","Pohjois-Savon ympäristökeskus","","","","","","",""
"FI0600018","","","Pohjois-Savon ympäristökeskus","","","","","","",""
"FI0600019","","","Pohjois-Savon ympäristökeskus","","","","","","",""
"FI0600020","","","Metsähallitus, Itä-Suomen puistoalue PL 28 57131 Savonlinna","","","","","","",""
"FI0600021","","","Pohjois-Savon ympäristökeskus","","","","","","",""
"FI0600022","","","Pohjois-Savon ympäristökeskus","","","","","","",""
"FI0600023","","","Pohjois-Savon ympäristökeskus","","","","","","",""
"FI0600024","","","Pohjois-Savon ympäristökeskus","","","","","","",""
"FI0600025","","","Pohjois-Savon ympäristökeskus","","","","","","",""
"FI0600026","","","Metsähallitus, Itä-Suomen puistoalue PL 28  57131 Savonlinna","","","","","","",""
"FI0600027","","","Pohjois-Savon ympäristökeskus","","","","","","",""
"FI0600028","","","Pohjois-Savon ympäristökeskus","","","","","","",""
"FI0600029","","","Pohjois-Savon ympäristökeskus","","","","","","",""
"FI0600030","","","Pohjois-Savon ympäristökeskus","","","","","","",""
"FI0600031","","","Pohjois-Savon ympäristökeskus","","","","","","",""
"FI0600032","","","Pohjois-Savon ympäristökeskus","","","","","","",""
"FI0600033","","","Pohjois-Savon ympäristökeskus","","","","","","",""
"FI0600034","","","Pohjois-Savon ympäristökeskus","","","","","","",""
"FI0600035","","","Pohjois-Savon ympäristökeskus","","","","","","",""
"FI0600036","","","Pohjois-Savon ympäristökeskus","","","","","","",""
"FI0600039","","","Pohjois-Savon ympäristökeskus","","","","","","",""
"FI0600040","","","Pohjois-Savon ympäristökeskus","","","","","","",""
"FI0600042","","","Pohjois-Savon ympäristökeskus","","","","","","",""
"FI0600043","","","Pohjois-Savon ympäristökeskus","","","","","","",""
"FI0600049","","","Pohjois-Savon ympäristökeskus","","","","","","",""
"FI0600051","","","Pohjois-Savon ympäristökeskus","","","","","","",""
"FI0600052","","","Pohjois-Savon ympäristökeskus","","","","","","",""
"FI0600053","","","Pohjois-Savon ympäristökeskus","","","","","","",""
"FI0600054","","","Pohjois-Savon ympäristökeskus","","","","","","",""
"FI0600055","","","Pohjois-Savon ympäristökeskus","","","","","","",""
"FI0600056","","","Pohjois-Savon ympäristökeskus","","","","","","",""
"FI0600057","","","Metsähallitus, Itä-Suomen puistoalue PL 28 57131 Savonlinna","","","","","","",""
"FI0600059","","","Pohjois-Savon ympäristökeskus","","","","","","",""
"FI0600060","","","Pohjois-Savon ympäristökeskus","","","","","","",""
"FI0600061","","","Pohjois-Savon ympäristökeskus","","","","","","",""
"FI0600062","","","Pohjois-Savon ympäristökeskus","","","","","","",""
"FI0600063","","","Pohjois-Savon ympäristökeskus","","","","","","",""
"FI0600066","","","Pohjois-Savon ympäristökeskus","","","","","","",""
"FI0600067","","","Pohjois-Savon ympäristökeskus","","","","","","",""
"FI0600068","","","Metsähallitus, Itä-Suomen luontopalvelut Urheilukatu 3 A, 81700 Lieksa","","","","","","",""
"FI0600069","","","Pohjois-Savon ympäristökeskus","","","","","","",""
"FI0600070","","","Pohjois-Savon ympäristökeskus","","","","","","",""
"FI0600071","","","Metsähallitus, Itä-Suomen luontopalvelut Urheilukatu 3 A, 81700 Lieksa","","","","","","",""
"FI0600072","","","Pohjois-Savon ympäristökeskus","","","","","","",""
"FI0600073","","","Metsähallitus, Itä-Suomen puistoalue PL 28 57131 Savonlinna","","","","","","",""
"FI0600074","","","Pohjois-Savon ympäristökeskus","","","","","","",""
"FI0600075","","","Pohjois-Savon ympäristökeskus","","","","","","",""
"FI0600076","","","Metsähallitus, Itä-Suomen puistoalue PL 28 57131 Savonlinna","","","","","","",""
"FI0600077","","","Metsähallitus, Itä-Suomen puistoalue PL 28 57131 Savonlinna","","","","","","",""
"FI0600078","","","Metsähallitus, Itä-Suomen puistoalue PL 28 57131 Savonlinna","","","","","","",""
"FI0600079","","","Pohjois-Savon ympäristökeskus","","","","","","",""
"FI0600080","","","Pohjois-Savon ympäristökeskus","","","","","","",""
"FI0600081","","","Pohjois-Savon ympäristökeskus","","","","","","",""
"FI0600082","","","Pohjois-Savon ympäristökeskus","","","","","","",""
"FI0600084","","","Pohjois-Savon ympäristökeskus","","","","","","",""
"FI0600086","","","Pohjois-Savon ympäristökeskus","","","","","","",""
"FI0600087","","","Pohjois-Savon ympäristökeskus","","","","","","",""
"FI0600088","","","Pohjois-Savon ympäristökeskus","","","","","","",""
"FI0600089","","","Metsähallitus, Itä-Suomen puistoalue PL 28 57131 Savonlinna","","","","","","",""
"FI0600096","","","Pohjois-Savon ympäristökeskus","","","","","","",""
"FI0600099","","","Pohjois-Savon ympäristökeskus","","","","","","",""
"FI0600101","","","Pohjois-Savon ympäristökeskus PL 104970101 Kuopio","","","","","","",""
"FI0600102","","","Pohjois-Savon ympäristökeskus PL 104970101 Kuopio","","","","","","",""
"FI0600103","","","Pohjois-Savon ympäristökeskus PL 104970101 Kuopio","","","","","","",""
"FI0600104","","","Pohjois-Savon ympäristökeskus PL 104970101 Kuopio","","","","","","",""
"FI0600105","","","Pohjois-Savon ympäristökeskus PL 104970101 Kuopio","","","","","","",""
"FI0600106","","","Pohjois-Savon ympäristökeskus PL 104970101 Kuopio","","","","","","",""
"FI0600107","","","Pohjois-Savon ympäristökeskus PL 104970101 Kuopio","","","","","","",""
"FI0600108","","","Metsähallitus, Itä-Suomen luontopalvelut Urheilukatu 3 A81700  LIEKSA","","","","","","",""
"FI0600109","","","Metsähallitus, Itä-Suomen luontopalvelut Urheilukatu 3 A81700  LIEKSA","","","","","","",""
"FI0600110","","","Metsähallitus, Itä-Suomen luontopalvelut Urheilukatu 3 A81700  LIEKSA","","","","","","",""
"FI0600111","","","Pohjois-Savon ympäristökeskus","","","","","","",""
"FI0600112","","","Pohjois-Savon ympäristökeskus","","","","","","",""
"FI0600113","","","Pohjois-Savon ympäristökeskus","","","","","","",""
"FI0600114","","","Pohjois-Savon ympäristökeskus","","","","","","",""
"FI0700001","","","Pohjois-Karjalan ympäristökeskus PL  69, 80101 Joensuu","","","","","","",""
"FI0700002","","","Pohjois-Karjalan ympäristökeskus PL 69, 80101 Joensuu","","","","","","",""
"FI0700003","","","Pohjois-Karjalan ympäristökeskus PL 69, 80101 Joensuu","","","","","","",""
"FI0700004","","","Pohjois-Karjalan ympäristökeskus PL 69, 80101 Joensuu","","","","","","",""
"FI0700005","","","Pohjois-Karjalan ympäristökeskus PL 69, 80101 Joensuu","","","","","","",""
"FI0700006","","","Pohjois-Karjalan ympäristökeskus PL 69, 80101 Joensuu","","","","","","",""
"FI0700007","","","Pohjois-Karjalan ympäristökeskus PL 69, 80101 JoensuuPL 69, 80101 Joensuu","","","","","","",""
"FI0700008","","","Pohjois-Karjalan ympäristökeskus PL 69, 80101 Joensuu","","","","","","",""
"FI0700009","","","Pohjois-Karjalan ympäristökeskus PL 69, 80101 Joensuu","","","","","","",""
"FI0700010","","","Pohjois-Karjalan ympäristökeskus PL 69, 80101 Joensuu","","","","","","",""
"FI0700011","","","Pohjois-Karjalan ympäristökeskus PL 69, 80101 Joensuu","","","","","","",""
"FI0700012","","","Pohjois-Karjalan ympäristökeskus PL 69, 80101 Joensuu","","","","","","",""
"FI0700013","","","Pohjois-Karjalan ympäristökeskus PL 69, 80101 Joensuu","","","","","","",""
"FI0700014","","","Pohjois-Karjalan ympäristökeskus PL 69, 80101 Joensuu","","","","","","",""
"FI0700015","","","Pohjois-Karjalan ympäristökeskus PL 69, 80101 Joensuu","","","","","","",""
"FI0700016","","","Pohjois-Karjalan ympäristökeskus PL 69, 80101 Joensuu","","","","","","",""
"FI0700017","","","Pohjois-Karjalan ympäristökeskus PL 69, 80101 Joensuu","","","","","","",""
"FI0700018","","","Pohjois-Karjalan ympäristökeskus Pl 69, 80101 JOENSUU","","","","","","",""
"FI0700019","","","Pohjois-Karjalan ympäristökeskus PL 69, 80101 Joensuu","","","","","","",""
"FI0700020","","","Pohjois-Karjalan ympäristökeskus        PL 69, 80101 JoensuuMetsähallitus, Itä-Suomen puistoaluePL 28, 57131 Savonlinna","","","","","","",""
"FI0700021","","","Pohjois-Karjalan ympäristökeskus PL 69, 80101 Joensuu","","","","","","",""
"FI0700022","","","Pohjois-Karjalan ympäristökeskus PL 69, 80101 Joensuu","","","","","","",""
"FI0700023","","","Pohjois-Karjalan ympäristökeskus PL 69, 80101 Joensuu","","","","","","",""
"FI0700024","","","Pohjois-Karjalan ympäristökeskus PL 69, 80101 Joensuu","","","","","","",""
"FI0700025","","","Pohjois-Karjalan ympäristökeskus PL 69, 80101 Joensuu","","","","","","",""
"FI0700028","","","Pohjois-Karjalan ympäristökeskus PL 69, 80101 Joensuu","","","","","","",""
"FI0700029","","","Pohjois-Karjalan ympäristökeskus PL 69, 80101 Joensuu","","","","","","",""
"FI0700030","","","Pohjois-Karjalan ympäristökeskus PL 69, 80101 Joensuu","","","","","","",""
"FI0700031","","","Pohjois-Karjalan ympäristökeskus PL 69, 80101 Joensuu","","","","","","",""
"FI0700032","","","Pohjois-Karjalan ympäristökeskus PL 69, 80101 Joensuu","","","","","","",""
"FI0700033","","","Pohjois-Karjalan ympäristökeskus PL 69, 80101 Joensuu","","","","","","",""
"FI0700034","","","Pohjois-Karjalan ympäristökeskus PL 69, 80101 Joensuu","","","","","","",""
"FI0700035","","","Pohjois-Karjalan ympäristökeskus PL 69, 80101 Joensuu","","","","","","",""
"FI0700036","","","Pohjois-Karjalan ympäristökeskus PL 69, 80101 Joensuu","","","","","","",""
"FI0700037","","","Pohjois-Karjalan ympäristökeskus PL 69, 80101 Joensuu","","","","","","",""
"FI0700038","","","Pohjois-Karjalan ympäristökeskus PL 69, 80101 Joensuu","","","","","","",""
"FI0700039","","","Pohjois-Karjalan ympäristökeskus PL 69, 80101 Joensuu","","","","","","",""
"FI0700040","","","Pohjois-Karjalan ympäristökeskus PL 69, 80101 Joensuu","","","","","","",""
"FI0700041","","","Pohjois-Karjalan ympäristökeskus PL 69, 80101 Joensuu","","","","","","",""
"FI0700042","","","Pohjois-Karjalan ympäristökeskus PL 69, 80101 Joensuu","","","","","","",""
"FI0700043","","","Metsähallitus, Itä-Suomen luontopalvelut Urheilukatu 3 A, 81700 Lieksa","","","","","","",""
"FI0700044","","","Metsähallitus, Itä-Suomen puistoalue PL 28, 57131 Savonlinna","","","","","","",""
"FI0700045","","","Metsähallitus Itä-Suomen luontopalvelut Urheilukatu 3 A, 81700 Lieksa","","","","","","",""
"FI0700046","","","Metsähallitus, Itä-Suomen puistoalue       Metsähallitus PL 28, 57131 Savonlinna                             Virkistyspalvelut, Itä-Suomen alue                                                                       PL 1058, 70101 Kuopio","","","","","","",""
"FI0700047","","","Metsähallitus, Itä-Suomen puistoalue PL 28, 57131 Savonlinna","","","","","","",""
"FI0700048","","","Metsähallitus, Itä-Suomen puistoalue PL 28, 57131 Savonlinna","","","","","","",""
"FI0700049","","","Metsähallitus, Itä-Suomen puistoalue PL 28, 57131 Savonlinna","","","","","","",""
"FI0700050","","","Metsähallitus, Itä-Suomen luontopalvelut Urheilukatu 3 A, 81700 Lieksa","","","","","","",""
"FI0700051","","","Metsähallitus, Itä-Suomen puistoalue PL 28, 57131 Savonlinna","","","","","","",""
"FI0700052","","","Metsähallitus, Itä-Suomen puistoalue PL 28, 57131 Savonlinna","","","","","","",""
"FI0700053","","","Metsähallitus, Virkistyspalvelut, Itä-Suomen alue ja MH, Itä-Suomen puistoalue PL 1058, 70101 Kuopio                             PL 28, 57131 Savonlinna","","","","","","",""
"FI0700054","","","Metsähallitus, Itä-Suomen puistoalue PL 28, 57131 Savonlinna","","","","","","",""
"FI0700055","","","Metsähallitus, Itä-Suomen puistoalue PL 28, 57131 Savonlinna","","","","","","",""
"FI0700056","","","Metsähallitus, Itä-Suomen puistoalue PL 28, 57131 Savonlinna","","","","","","",""
"FI0700057","","","Metsähallitus, Itä-Suomen puistoalue PL 28, 57131 Savonlinna","","","","","","",""
"FI0700058","","","Metsähallitus, Itä-Suomen puistoalue PL 28, 57131 Savonlinna","","","","","","",""
"FI0700059","","","Metsähallitus, Itä-Suomen puistoalue PL 28, 57131 Savonlinna","","","","","","",""
"FI0700060","","","Metsähallitus, Itä-Suomen puistoalue PL 28, 57131 Savonlinna","","","","","","",""
"FI0700061","","","Metsähallitus, Itä-Suomen puistoalue           Pohjois-Karjalan ympäristökeskus PL 28, 57131 Savonlinna                                 PL 69, 80101 JoensuuPohjois-Karjalan ympäristökeskusPL 69, 80101 Joensuu","","","","","","",""
"FI0700063","","","Metsähallitus, Itä-Suomen puistoalue PL 28, 57131 Savonlinna","","","","","","",""
"FI0700064","","","Metsähallitus, Itä-Suomen puistoalue PL 28, 57131 SavonlinnaMetsähallitusVirkistyspalvelut, Itä-Suomen aluePL 1058, 70101 Kuopio","","","","","","",""
"FI0700065","","","Metsähallitus, Itä-Suomen puistoalue  PL 28, 57131 Savonlinna     Itä-Suomen Metsäkone- ja Maaseutuopetuskeskus Metsurintie 2 A, 75700 Valtimo","","","","","","",""
"FI0700066","","","Metsähallitus, Itä-Suomen puistoalue PL 28, 57131 Savonlinna","","","","","","",""
"FI0700067","","","Metsähallitus, Itä-Suomen puistoalue PL 28, 57131 Savonlinna","","","","","","",""
"FI0700068","","","Metsähallitus, Itä-Suomen puistoalue PL 28, 57131 Savonlinna","","","","","","",""
"FI0700069","","","Metsähallitus, Itä-Suomen puistoalue PL 28, 57131 Savonlinna","","","","","","",""
"FI0700070","","","Metsähallitus, Itä-Suomen puistoalue PL 28, 57131 Savonlinna","","","","","","",""
"FI0700071","","","Metsähallitus, Itä-Suomen puistoalue PL 28, 57131 Savonlinna","","","","","","",""
"FI0700072","","","Metsähallitus, Itä-Suomen puistoalue PL 28, 57131 Savonlinna","","","","","","",""
"FI0700073","","","Pohjois-Karjalan ympäristökeskus PL 69, 80101 Joensuu","","","","","","",""
"FI0700074","","","Pohjois-Karjalan ympäristökeskus PL 69, 80101 Joensuu","","","","","","",""
"FI0700075","","","Pohjois-Karjalan ympäristökeskus PL 69, 80101 Joensuu","","","","","","",""
"FI0700076","","","Pohjois-Karjalan ympäristökeskus PL 69, 80101 Joensuu","","","","","","",""
"FI0700077","","","Pohjois-Karjalan ympäristökeskus PL 69, 80101 Joensuu","","","","","","",""
"FI0700078","","","Pohjois-Karjalan ympäristökeskus PL 69, 80101 Joensuu","","","","","","",""
"FI0700079","","","Metsähallitus, Itä-Suomen puistoalue PL 28, 57131 Savonlinna","","","","","","",""
"FI0700080","","","Metsähallitus, Itä-Suomen puistoalue PL 28, 57131 Savonlinna","","","","","","",""
"FI0700081","","","Metsähallitus, Itä-Suomen puistoalue PL 28, 57131 Savonlinna","","","","","","",""
"FI0700082","","","Metsähallitus Metsätalous, Lieksan yksikköUrheilukatu 3 A, 81700 Lieksa013-5205700","","","","","","",""
"FI0700083","","","Pohjois-Karjalan ympäristökeskus PL 69, 80101 Joensuu","","","","","","",""
"FI0700084","","","Pohjois-Karjalan ympäristökeskus PL 69, 80101 Joensuu","","","","","","",""
"FI0700085","","","Pohjois-Karjalan ympäristökeskus PL 69, 80101 Joensuu","","","","","","",""
"FI0700088","","","Pohjois-Karjalan ympäristökeskus PL 69, 80101 JOENSUU","","","","","","",""
"FI0700089","","","Pohjois-Karjalan ympäristökeskus PL 69, 80101 JOENSUU","","","","","","",""
"FI0700090","","","Pohjois-Karjalan ympäristökeskus PL 69, 80101 JOENSUU","","","","","","",""
"FI0700091","","","Pohjois-Karjalan ympäristökeskus PL 69, 80101 JOENSUU","","","","","","",""
"FI0700092","","","Pohjois-Karjalan ympäristökeskus PL 69, 80101 JOENSUU","","","","","","",""
"FI0700093","","","Pohjois-Karjalan ympäristökeskus PL 6980101 Joensuu","","","","","","",""
"FI0700094","","","Pohjois-Karjalan ympäristökeskus PL 6980101 Joensuu","","","","","","",""
"FI0700095","","","Pohjois-Karjalan ympäristökeskus PL 6980101 Joensuu","","","","","","",""
"FI0700097","","","Pohjois-Karjalan ympäristökeskus PL 6980101 Joensuu","","","","","","",""
"FI0700098","","","Pohjois-Karjalan ympäristökeskus PL 6980101 Joensuu","","","","","","",""
"FI0700100","","","Pohjois-Karjalan ympäristökeskus PL 6980101 Joensuu","","","","","","",""
"FI0700102","","","Pohjois-Karjalan ympäristökeskus PL 6980101 Joensuu","","","","","","",""
"FI0700103","","","Pohjois-Karjalan ympäristökeskus PL 6980101 Joensuu","","","","","","",""
"FI0700106","","","Pohjois-Karjalan ympäristökeskus PL 6980101 Joensuu","","","","","","",""
"FI0700107","","","Pohjois-Karjalan ympäristökeskus PL 6980101 Joensuu","","","","","","",""
"FI0700108","","","Pohjois-Karjalan ympäristökeskus PL 6980101 Joensuu","","","","","","",""
"FI0700109","","","Pohjois-Karjalan ympäristökeskus PL 6980101 Joensuu","","","","","","",""
"FI0700110","","","Pohjois-Karjalan ympäristökeskus PL 6980101 Joensuu","","","","","","",""
"FI0700111","","","Pohjois-Karjalan ympäristökeskus PL 6980101 Joensuu","","","","","","",""
"FI0700113","","","Metsähallitus, Itä-Suomen luontopalvelut Urheilukatu 3 A81700  LIEKSA","","","","","","",""
"FI0700115","","","Metsähallitus, Itä-Suomen luontopalvelut Akselinkatu 857130 SAVONLINNA","","","","","","",""
"FI0700116","","","Metsähallitus, Itä-Suomen luontopalvelut Urheilukatu 3 A81700  LIEKSA","","","","","","",""
"FI0700117","","","Metsähallitus, Itä-Suomen luontopalvelut Urheilukatu 3 A81700  LIEKSA","","","","","","",""
"FI0700118","","","Metsähallitus, Itä-Suomen luontopalvelut Urheilukatu 3 A81700  LIEKSA","","","","","","",""
"FI0700119","","","Metsähallitus, Itä-Suomen luontopalvelut Urheilukatu 3 A81700  LIEKSA","","","","","","",""
"FI0700125","","","Metsähallitus, Itä-Suomen luontopalvelut Urheilukatu 3 A81700  LIEKSA","","","","","","",""
"FI0700126","","","Metsähallitus, Itä-Suomen luontopalvelut Urheilukatu 3 A81700  LIEKSA","","","","","","",""
"FI0700128","","","Metsähallitus, Itä-Suomen luontopalvelut Urheilukatu 3 A81700  LIEKSA","","","","","","",""
"FI0700129","","","Metsähallitus, Itä-Suomen luontopalvelut Urheilukatu 3 A81700  LIEKSA","","","","","","",""
"FI0700130","","","Metsähallitus, Itä-Suomen luontopalvelut Urheilukatu 3 A81700  LIEKSA","","","","","","",""
"FI0700131","","","Metsähallitus, Itä-Suomen luontopalvelut Urheilukatu 3 A81700  LIEKSA","","","","","","",""
"FI0700132","","","Pohjois-Karjalan ympäristökeskus PL 6980101 Joensuu","","","","","","",""
"FI0700134","","","Metsähallitus, Itä-Suomen luontopalvelut Urheilukatu 3 A81700  LIEKSA","","","","","","",""
"FI0700135","","","Metsähallitus, Itä-Suomen luontopalvelut Urheilukatu 3 A81700  LIEKSA","","","","","","",""
"FI0700136","","","Metsähallitus, Itä-Suomen luontopalvelut Urheilukatu 3 A81700  LIEKSA","","","","","","",""
"FI0700137","","","Metsähallitus, Itä-Suomen luontopalvelut Urheilukatu 3 A81700  LIEKSA","","","","","","",""
"FI0700138","","","Metsähallitus, Itä-Suomen luontopalvelut Urheilukatu 3 A81700  LIEKSA","","","","","","",""
"FI0700139","","","Metsähallitus, Itä-Suomen luontopalvelut Urheilukatu 3 A81700  LIEKSA","","","","","","",""
"FI0700140","","","Metsähallitus, Itä-Suomen luontopalvelut Urheilukatu 3 A81700  LIEKSA","","","","","","",""
"FI0700141","","","Metsähallitus, Itä-Suomen luontopalvelut Urheilukatu 3 A81700  LIEKSA","","","","","","",""
"FI0700142","","","Metsähallitus, Itä-Suomen luontopalvelut Urheilukatu 3 A81700  LIEKSA","","","","","","",""
"FI0700143","","","Metsähallitus, Itä-Suomen luontopalvelut Urheilukatu 3 A81700  LIEKSA","","","","","","",""
"FI0700145","","","Metsähallitus, Itä-Suomen luontopalvelut Urheilukatu 3 A81700  LIEKSA","","","","","","",""
"FI0700146","","","Pohjois-Karjalan ympäristökeskus PL 69, 80101 Joensuu","","","","","","",""
"FI0700147","","","Pohjois-Karjalan ympäristökeskus PL 69, 80101 Joensuu","","","","","","",""
"FI0700148","","","Pohjois-Karjalan ympäristökeskus PL 69, 80101 Joensuu","","","","","","",""
"FI0700149","","","Pohjois-Karjalan ympäristökeskus PL 69, 80101 Joensuu","","","","","","",""
"FI0800001","","","Länsi-Suomen ympäristökeskus Länsi-Suomen puistoalue, Metsähallitus","","","","","","",""
"FI0800002","","","Länsi-Suomen ympäristökeskus, PL 262, 65101 VAASA","","","","","","",""
"FI0800003","","","Länsi-Suomen ympäristökeskus PL 262, 65101 Vaasa","","","","","","",""
"FI0800010","","","Länsi-Suomen ympäristökeskus, PL 262, 65101 VAASA","","","","","","",""
"FI0800012","","","Länsi-Suomen ympäristökeskus, PL 262, 65101 VAASA","","","","","","",""
"FI0800013","","","Länsi-Suomen ympäristökeskus, PL 262, 65101 VAASA","","","","","","",""
"FI0800014","","","Länsi-Suomen ympäristökeskus, PL 262, 65101 VAASA","","","","","","",""
"FI0800015","","","Länsi-Suomen ympäristökeskus, PL 262, 65101 VAASA","","","","","","",""
"FI0800016","","","Länsi-Suomen ympäristökeskus, PL 262, 65101 VAASA","","","","","","",""
"FI0800017","","","Länsi-Suomen ympäristökeskus, PL 262, 65101 VAASA","","","","","","",""
"FI0800018","","","Länsi-Suomen ympäristökeskus, PL 262, 65101 VAASA","","","","","","",""
"FI0800019","","","Länsi-Suomen ympäristökeskus, PL 262, 65101 VAASA","","","","","","",""
"FI0800020","","","Länsi-Suomen ympäristökeskus, Pl 262, 65101 VAASA","","","","","","",""
"FI0800021","","","Länsi-Suomen ympäristökeskus, PL 262 65100 VAASA","","","","","","",""
"FI0800022","","","Länsi-Suomen ympäristökeskus, PL 262, 65101 VAASA","","","","","","",""
"FI0800023","","","Länsi-Suomen ympäristökeskus, PL 262; 65101 VAASA","","","","","","",""
"FI0800024","","","Länsi-Suomen ympäristökeskus, PL 262, 65101 VAASA","","","","","","",""
"FI0800025","","","Länsi-Suomen ympäristökeskus, PL 262, 65101 VAASA","","","","","","",""
"FI0800026","","","Länsi-Suomen ympäristökeskus, PL 262, 65101 VAASA","","","","","","",""
"FI0800027","","","Länsi-Suomen ympäristökeskus, PL 262, 65101 Vaasa","","","","","","",""
"FI0800028","","","Länsi-Suomen ympäristökeskus, PL 262, 65101 Vaasa","","","","","","",""
"FI0800030","","","Länsi-Suomen ympäristökeskus, PL 262, 65101 VAASA","","","","","","",""
"FI0800032","","","Länsi-Suomen ympäristökeskus, PL 262, 65101 VAASA","","","","","","",""
"FI0800033","","","Länsi-Suomen ympäristökeskus, PL 262, 65101 VAASA","","","","","","",""
"FI0800034","","","Länsi-Suomen ympäristökeskus PL 262, 65101 Vaasa","","","","","","",""
"FI0800035","","","Länsi-Suomen ympäristökeskus, PL 262, 65101 VAASA","","","","","","",""
"FI0800036","","","Länsi-Suomen ympäristökeskus, PL 262, 65101 VAASA","","","","","","",""
"FI0800037","","","Länsi-Suomen ympäristökeskus, PL 262, 65101 Vaasa","","","","","","",""
"FI0800038","","","Länsi-Suomen ympäristökeskus, PL 262, 65101 Vaasa","","","","","","",""
"FI0800039","","","Länsi-Suomen ympäristökeskus, PL 262, 65101 Vaasa","","","","","","",""
"FI0800041","","","Länsi-Suomen ympäristökeskus, PL 262, 65101 Vaasa","","","","","","",""
"FI0800042","","","Länsi-Suomen ympäristökeskus, PL 262, 65101 Vaasa","","","","","","",""
"FI0800044","","","Länsi-Suomen ympäristökeskus, PL 262, 65101 Vaasa","","","","","","",""
"FI0800045","","","Länsi-Suomen ympäristökeskus, PL 262, 65101 Vaasa","","","","","","",""
"FI0800046","","","Länsi-Suomen ympäristökeskus, PL 262, 65101 Vaasa","","","","","","",""
"FI0800047","","","Länsi-Suomen ympäristökeskus,Pl 262, 65101 Vaasa","","","","","","",""
"FI0800050","","","Länsi-Suomen ympäristökeskus, PL 262, Vaasa","","","","","","",""
"FI0800052","","","Länsi-Suomen ympäristökeskus,PL 262, 65101 VAASA","","","","","","",""
"FI0800054","","","Länsi-Suomen ympäristökeskus, PL 262, 65101 VAASA","","","","","","",""
"FI0800056","","","Länsi-Suomen ympäristökeskus,PL 262, 65101 VAASA","","","","","","",""
"FI0800057","","","Länsi-Suomen ympäristökeskus, PL 262, 65101 VAASA","","","","","","",""
"FI0800059","","","Länsi-Suomen ympäristökeskus,PL 262, 65101 VAASA","","","","","","",""
"FI0800060","","","Länsi-Suomen ympäristökeskus, PL 262, 65101 Vaasa","","","","","","",""
"FI0800061","","","Länsi-Suomen ympäristökeskus, PL 262, 65101 VAASA","","","","","","",""
"FI0800062","","","Länsi-Suomen ympäristökeskus, PL 262, 65101 VAASA","","","","","","",""
"FI1200106","","","Kainuun ympäristökeskus PL 11587500 KAJAANI","","","","","","",""
"FI1200200","","","Metsähallitus, Kainuun puistoalue Tönölä88900 KUHMO","","","","","","",""
"FI1200201","","","Metsähallitus, Kainuun puistoalue Tönölä88900 KUHMO","","","","","","",""
"FI1200202","","","Metsähallitus, Kainuun puistoalue Tönölä88900 KUHMO","","","","","","",""
"FI1200203","","","Metsähallitus, Kainuun puistoalue Tönölä88900 KUHMO","","","","","","",""
"FI1200204","","","Metsähallitus, Kainuun puistoalue Tönölä88900 KUHMO","","","","","","",""
"FI1200205","","","Metsähallitus, Kainuun puistoalue Tönölä88900 KUHMO","","","","","","",""
"FI1200206","","","Metsähallitus, Kainuun puistoalue Tönölä88900 KUHMO","","","","","","",""
"FI1200207","","","yst Metsähallitus, Kainuun puistoalueTönölä88900 KUHMO","","","","","","",""
"FI1200208","","","Metsähallitus, Kainuun puistoalue Tönölä88900 KUHMO","","","","","","",""
"FI1200209","","","Metsähallitus, Kainuun puistoalue Tönölä88900 KUHMO","","","","","","",""
"FI1200210","","","Metsähallitus, Kainuun puistoalue Tönölä88900 KUHMO","","","","","","",""
"FI1200212","","","Metsähallitus, Kainuun puistoalue Tönölä88900 KUHMO","","","","","","",""
"FI1200213","","","yst Metsähallitus, Kainuun puistoalueTönölä88900 KUHMO","","","","","","",""
"FI1200214","","","yst Metsähallitus, Kainuun puistoalueTönölä88900 KUHMO","","","","","","",""
"FI1200215","","","Metsähallitus, Kainuun puistoalue Tönölä88900 KUHMO","","","","","","",""
"FI1200216","","","Metsähallitus, Kainuun puistoalue Tönölä88900 KUHMO","","","","","","",""
"FI1200217","","","yst Metsähallitus, Kainuun puistoalueTönölä88900 KUHMO","","","","","","",""
"FI1200218","","","yst Metsähallitus, Kainuun puistoalueTönölä88900 KUHMO","","","","","","",""
"FI1200219","","","yst Metsähallitus, Kainuun puistoalueTönölä88900 KUHMO","","","","","","",""
"FI1200220","","","Metsähallitus, Kainuun puistoalue Tönölä88900 KUHMO","","","","","","",""
"FI1200221","","","Metsähallitus, Kainuun puistoalue Tönölä88900 KUHMO","","","","","","",""
"FI1200222","","","Metsähallitus, Kainuun puistoalue Tönölä88900 KUHMO","","","","","","",""
"FI1200223","","","Metsähallitus, Kainuun puistoalue Tönölä88900 KUHMO","","","","","","",""
"FI1200224","","","Metsähallitus, Kainuun puistoalue Tönölä88900 KUHMO","","","","","","",""
"FI1200225","","","Metsähallitus, Kainuun puistoalue Tönölä88900 KUHMO","","","","","","",""
"FI1200251","","","Kainuun ympäristökeskus PL 11587101 KAJAANI","","","","","","",""
"FI1200252","","","Kainuun ympäristökeskus PL 11587101 KAJAANI","","","","","","",""
"FI1200253","","","Kainuun ympäristökeskus PL 11587101 Kajaani","","","","","","",""
"FI1200257","","","Kainuun ympäristökeskus PL 11587101 KAJAANI","","","","","","",""
"FI1200258","","","Kainuun ympäristökeskus PL 11587101 KAJAANI","","","","","","",""
"FI1200259","","","Kainuun ympäristökeskus PL 11587101 KAJAANI","","","","","","",""
"FI1200260","","","Kainuun ympäristökeskus PL 11587500 KAJAANIMetsähallitus, Kainuun puistoalueTönölä 88900 KUHMO","","","","","","",""
"FI1200261","","","Kainuun ympäristökeskus PL 11587500 KAJAANIMetsähallitus, Kainuun puistoalueTönölä88900 KUHMO","","","","","","",""
"FI1200300","","","Kainuun ympäristökeskus PL 11587101 KAJAANI","","","","","","",""
"FI1200301","","","Kainuun ympäristökeskus PL 11587101 KAJAANI","","","","","","",""
"FI1200302","","","Kainuun ympäristökeskus PL 11587101 KAJAANI","","","","","","",""
"FI1200303","","","Kainuun ympäristökeskus PL 11587101 KAJAANI","","","","","","",""
"FI1200304","","","Kainuun ympäristökeskus PL 11587101 KAJAANI","","","","","","",""
"FI1200306","","","Kainuun ympäristökeskus PL 11587101 KAJAANI","","","","","","",""
"FI1200400","","","Metsähallitus, Kainuun puistoalue Tönölä88900 KUHMO","","","","","","",""
"FI1200401","","","Metsähallitus, Kainuun puistoalue Tönölä88900 KUHMO","","","","","","",""
"FI1200402","","","Metsähallitus, Kainuun puistoalue Tönölä88900 KUHMO","","","","","","",""
"FI1200403","","","Metsähallitus, Kainuun puistoalue Tönölä88900 KUHMO","","","","","","",""
"FI1200404","","","Metsähallitus, Kainuun puistoalue Tönölä88900 KUHMO","","","","","","",""
"FI1200405","","","Metsähallitus, Kainuun puistoalue Tönölä88900 KUHMO","","","","","","",""
"FI1200406","","","Metsähallitus, Kainuun puistoalue Tönölä88900 KUHMO","","","","","","",""
"FI1200407","","","Metsähallitus, Kainuun puistoalue Tönölä88900 KUHMO","","","","","","",""
"FI1200408","","","Metsähallitus, Kainuun puistoalue Tönölä88900 KUHMO","","","","","","",""
"FI1200409","","","yst Metsähallitus, Kainuun puistoalueTönölä88900 KUHMO","","","","","","",""
"FI1200410","","","yst Metsähallitus, Kainuun puistoalueTönölä88900 KUHMO","","","","","","",""
"FI1200411","","","Metsähallitus, Kainuun puistoalue Tönölä88900 KUHMOMaarit VainioKainuun ympäristökeskusPL 11587500 KAJAANI","","","","","","",""
"FI1200451","","","Kainuun ympäristökeskus PL 11587101 KAJAANI","","","","","","",""
"FI1200452","","","Kainuun ympäristökeskus PL 11587101 KAJAANI","","","","","","",""
"FI1200453","","","Kainuun ympäristökeskus PL 11587101 KAJAANI","","","","","","",""
"FI1200454","","","Kainuun ympäristökeskus PL 11587101KAJAANI","","","","","","",""
"FI1200455","","","Kainuun ympäristökeskus PL 11587101 KAJAANI","","","","","","",""
"FI1200457","","","Kainuun ympäristökeskus PL 11587101 KAJAANI","","","","","","",""
"FI1200459","","","Kainuun ympäristökeskus PL 11587101 KAJAANI","","","","","","",""
"FI1200460","","","Kainuun ympäristökeskus PL 11587101 KAJAANI","","","","","","",""
"FI1200462","","","Kainuun ympäristökeskus PL 11587101 KAJAANI","","","","","","",""
"FI1200463","","","Pohjanmaan puistoalue Torangintaival 293600 KuusamoKainuun ympäristökeskusPl 11587101 KAJAANI","","","","","","",""
"FI1200464","","","Metsähallitus Pohjanmaan puistoalueTorangintaival 293600 KuusamoKainuun ympäristökeskusPL 11587101 KAJAANI","","","","","","",""
"FI1200465","","","Kainuun ympäristökeskus PL 11587101 KAJAANI","","","","","","",""
"FI1200466","","","Metsähallitus Pohjanmaan puistoalueTorangintaival 293600 KuusamoMaarit VainioKainuun ympäristökeskusPL 11587101 KAJAANI","","","","","","",""
"FI0800063","","","Länsi-Suomen ympäristökeskus, PL 262, 65101 VAASA","","","","","","",""
"FI0800064","","","Länsi-Suomen ympäristökeskus,PL 262, 65101 VAASA","","","","","","",""
"FI0800065","","","Länsi-Suomen ympäristökeskus, PL 262, 65101 VAASA","","","","","","",""
"FI0800066","","","Länsi-Suomen ympäristökeskus, PL 262, 65101 VAASA","","","","","","",""
"FI0800067","","","Länsi-Suomen ympäristökeskus, PL 262 Vaasa 65101","","","","","","",""
"FI0800070","","","Länsi-Suomen ympäristökeskus PL 262, 65101 VAASA","","","","","","",""
"FI0800071","","","Länsi-Suomen ympäristökeskus, PL 262, 65101 VAASA","","","","","","",""
"FI0800077","","","Länsi-Suomen ympäristökeskus PL 262, 65101 VAASA","","","","","","",""
"FI0800079","","","Länsi-Suomen ympäristökeskus, PL 262, 65101 VAASA","","","","","","",""
"FI0800082","","","Länsi-Suomen ympäristökeskus, Pl 262, 65101 VAASA","","","","","","",""
"FI0800084","","","Länsi-Suomen ympäristökeskus, PL 262, 65101 VAASA","","","","","","",""
"FI0800085","","","Länsi-Suomen ympäristökeskus,PL 262, 65101 VAASA","","","","","","",""
"FI0800086","","","Länsi-Suomen ympäristökeskus,PL 262, 65101 VAASA","","","","","","",""
"FI0800087","","","Länsi-Suomen ympäristökeskus, PL 262, 65101 VAASA","","","","","","",""
"FI0800089","","","LÄnsi-Suomen ympäristökeskus, PL 262, 65101 VAASA","","","","","","",""
"FI0800091","","","Länsi-Suomen ympäristökeskus, PL 262, 65101 VAASA","","","","","","",""
"FI0800092","","","Länsi-Suomen ympäristökeskus, PL 262, 65101 VAASA","","","","","","",""
"FI0800093","","","Länsi-Suomen ympäristökeskus PL 262, 65101 VAASA","","","","","","",""
"FI0800095","","","Länsi-Suomen ympäristökeskus, PL 262, 65101 VAASA","","","","","","",""
"FI0800096","","","Länsi-Suomen ympäristökeskus, PL 262, 65101 VAASA","","","","","","",""
"FI0800097","","","Länsi-Suomen ympäristökeskus, PL 262, 65101 VAASA","","","","","","",""
"FI0800098","","","Länsi-Suomen ympäristökeskus, PL 262, 65101 VAASA","","","","","","",""
"FI0800099","","","Länsi-Suomen ympäristökeskus PL 262, 65101 VAASA","","","","","","",""
"FI0800100","","","Länsi-Suomen ympäristökeskus, PL 262, 65101 VAASA","","","","","","",""
"FI0800101","","","Länsi-Suomen ympäristökeskus, PL 262, 65101 VAASA","","","","","","",""
"FI0800103","","","Länsi-Suomen ympäristökeskus, PL 262, 65101 VAASA","","","","","","",""
"FI0800104","","","Länsi-Suomen ympäristökeskus, PL 262, 65101 VAASA","","","","","","",""
"FI0800105","","","Länsi-Suomen ympäristökeskus, PL 262, 65101 VAASA","","","","","","",""
"FI0800106","","","Länsi-Suomen ympäristökeskus, PL 262, 65100 VAASA","","","","","","",""
"FI0800107","","","Länsi-Suomen ympäristökeskus, PL 262, 65101 Vaasa","","","","","","",""
"FI0800110","","","Länsi-Suomen ympäristökeskus, PL 262, 65101 Vaasa","","","","","","",""
"FI0800111","","","Länsi-Suomen ympäristökeskus, PL 262, 65101 Vaasa","","","","","","",""
"FI0800112","","","Länsi-Suomen ympäristökeskus, PL 262, 65101 VAASA","","","","","","",""
"FI0800120","","","Länsi-Suomen ympäristökeskus, PL 262, 65101 Vaasa","","","","","","",""
"FI0800130","","","Länsi-Suomen ympäristökeskus, PL 262, 65101 VAASA","","","","","","",""
"FI0800132","","","Länsi-Suomen ympäristökeskus, PL 262, 65101 Vaasa","","","","","","",""
"FI0800133","","","Länsi-Suomen ympäristökeskus, PL 262 , 65101 Vaasa","","","","","","",""
"FI0800134","","","Länsi-Suomen ympäristökeskus, PL 262, 65101 VAASA","","","","","","",""
"FI0800135","","","Länsi-Suomen ympäristökeskus PL 262, 65101 Vaasa","","","","","","",""
"FI0800136","","","Länsi-Suomen ympäristökeskus Kokkolan toimipaikkaTorikatu 40 B67100 KOKKOLA","","","","","","",""
"FI0800140","","","Länsi-Suomen ympäristökeskus, PL 262, Vaasa 65101","","","","","","",""
"FI0800141","","","Länsi-Suomen ympäristökeskus PL 26265101 Vaasa","","","","","","",""
"FI0800142","","","Länsi-Suomen ympäristökeskus PL 26265101 Vaasa","","","","","","",""
"FI0800143","","","Länsi-Suomen ympäristökeskus PL 26265101 Vaasa","","","","","","",""
"FI0800144","","","Länsi-Suomen ympäristökeskus PL 26265101 Vaasa","","","","","","",""
"FI0800145","","","Metsähallitus, Länsi-Suomen luontopalvelut PL 265101 Vaasa","","","","","","",""
"FI0800146","","","Länsi-Suomen ympäristökeskus PL 26265101 Vaasa","","","","","","",""
"FI0800147","","","Länsi-Suomen ympäristökeskus PL 26265101 Vaasa","","","","","","",""
"FI0800148","","","Metsähallitus, Länsi-Suomen luontopalvelut PL 3640101 Jyväskylä","","","","","","",""
"FI0800150","","","Metsähallitus, Länsi-Suomen luontopalvelut PL 3640101 Jyväskylä","","","","","","",""
"FI0800151","","","Länsi-Suomen ympäristökeskus PL 26265101 Vaasa","","","","","","",""
"FI0800152","","","Länsi-Suomen ympäristökeskus PL 26265101 Vaasa","","","","","","",""
"FI0800153","","","Länsi-Suomen ympäristökeskus PL 26265101 Vaasa","","","","","","",""
"FI0800154","","","Metsähallitus, Länsi-Suomen luontopalvelut PL 265101 Vaasa","","","","","","",""
"FI0800155","","","Metsähallitus, Länsi-Suomen luontopalvelut PL 3839701 Parkano","","","","","","",""
"FI0800156","","","Länsi-Suomen ympäristökeskus PL 26265101 Vaasa","","","","","","",""
"FI0800157","","","Länsi-Suomen ympäristökeskus PL 26265101 Vaasa","","","","","","",""
"FI0800158","","","Länsi-Suomen ympäristökeskus PL 26265101 Vaasa","","","","","","",""
"FI0800159","","","Länsi-Suomen ympäristökeskus PL 26265101 Vaasa","","","","","","",""
"FI0800160","","","Metsähallitus, Länsi-Suomen luontopalvelut PL 265101 VaasaLänsi-Suomen ympäristökeskusPL 26265101 Vaasa","","","","","","",""
"FI0800161","","","Länsi-Suomen ympäristökeskus PL 262, 65101 Vaasa","","","","","","",""
"FI0800162","","","Länsi-Suomen ympäristökeskus PL 26265101 Vaasa","","","","","","",""
"FI0900001","","","Keski-Suomen ympäristökeskus PL 11040101 Jyväskylä","","","","","","",""
"FI0900002","","","Keski-Suomen ympäristökeskus PL 11040101 Jyväskylä","","","","","","",""
"FI0900003","","","Keski-Suomen ympäristökeskus PL 11040101 Jyväskylä","","","","","","",""
"FI0900004","","","Metsähallitus, Länsi-Suomen luontopalvelut PL 3640101 Jyväskylä","","","","","","",""
"FI0900005","","","Metsähallitus, Länsi-Suomen luontopalvelut, PL 36, 40101 Jyväskylä Keski-Suomen ympäristökeskus, PL 110, 40101 Jyväskylä","","","","","","",""
"FI0900006","","","Keski-Suomen ympäristökeskus PL 11040101 JYVÄSKYLÄ","","","","","","",""
"FI0900007","","","Metsähallitus, Länsi-Suomen luontopalvelut PL 3640101 Jyväskylä","","","","","","",""
"FI0900008","","","Keski-Suomen ympäristökeskus PL 11040101 Jyväskylä","","","","","","",""
"FI0900009","","","Keski-Suomen ympäristökeskus PL 11040101 Jyväskylä","","","","","","",""
"FI0900010","","","Keski-Suomen ympäristökeskus PL11040101 Jyväskylä","","","","","","",""
"FI0900011","","","Keski-Suomen ympäristökeskus PL 11040101 Jyväskylä","","","","","","",""
"FI0900012","","","Keski-Suomen ympäristökeskus PL 11040101 Jyväskylä","","","","","","",""
"FI0900013","","","Keski-Suomen ympäristökeskus PL11040101 Jyväskylä","","","","","","",""
"FI0900014","","","Keski-Suomen ympäristökeskus PL 11040101 Jyväskylä","","","","","","",""
"FI0900015","","","Keski-Suomen ympäristökeskus PL 110 40101 Jyväskylä","","","","","","",""
"FI0900016","","","Keski-Suomen ympäristökeskus PL 11040101 Jyväskylä","","","","","","",""
"FI0900017","","","Keski-Suomen ympäristökeskus PL 11040101 Jyväskylä","","","","","","",""
"FI0900018","","","Keski-Suomen ympäristökeskus PL 11040101 Jyväskylä","","","","","","",""
"FI0900019","","","Keski-Suomen ympäristökeskus PL 11040101 Jyväskylä","","","","","","",""
"FI0900020","","","Keski-Suomen ympäristökeskus PL 11040101 Jyväskylä","","","","","","",""
"FI0900021","","","Keski-Suomen ympäristökeskus PL 11040 101 JYVÄSKYLÄ","","","","","","",""
"FI0900022","","","Keski-Suomen ympäristökeskus PL 11040101 Jyväskylä","","","","","","",""
"FI0900023","","","Keski-Suomen ympäristökeskus PL 11040101 Jyväskylä","","","","","","",""
"FI0900024","","","Keski-Suomen ympäristökeskus PL 11040101 Jyväskylä","","","","","","",""
"FI0900025","","","Keski-Suomen ympäristökeskus PL 11040101 Jyväskylä","","","","","","",""
"FI0900026","","","Keski-Suomen ympäristökeskus  PL 11040101 Jyväskylä","","","","","","",""
"FI0900027","","","Keski-Suomen ympäristökeskus PL 11040101 Jyväskylä","","","","","","",""
"FI0900028","","","Kseki-Suomen ympäristökeskus PL 11040101 Jyväskylä","","","","","","",""
"FI0900029","","","Keski-Suomen ympäristökeskus PL 11040101 Jyväskylä","","","","","","",""
"FI0900030","","","Keski-Suomen ympäristökeskus PL 11040101 Jyväskylä","","","","","","",""
"FI0900031","","","Keski-Suomen ympäristökeskus PL 11040101 Jyväskylä","","","","","","",""
"FI0900032","","","Keski-Suomen ympäristökeskus PL 11040101 Jyväskylä","","","","","","",""
"FI0900033","","","Keski-Suomen ympäristökeskus PL 11040101 Jyväskylä","","","","","","",""
"FI0900034","","","Keski-Suomen ympäristökeskus PL 11040101 Jyväskylä","","","","","","",""
"FI0900035","","","Keski-Suomen ympäristökeskus PL 11040101 Jyväskylä","","","","","","",""
"FI0900036","","","Keski-Suomen ympäristökeskus PL 11040101 Jyväskylä","","","","","","",""
"FI0900037","","","Keski-Suomen ympäristökeskus  PL 11040101 Jyväskylä","","","","","","",""
"FI0900038","","","Keski-Suomen ympäristökeskus PL11040101 Jyväskylä","","","","","","",""
"FI0900039","","","Keski-Suomen ympäristökeskus PL 11040101 Jyväskylä","","","","","","",""
"FI0900040","","","Keski-Suomen ympäristökeskus PL 11040101 Jyväskylä","","","","","","",""
"FI0900041","","","Keski-Suomen ympäristökeskus PL 11040101 Jyväskylä","","","","","","",""
"FI0900042","","","Keski-Suomen ympäristökeskus PL 11040101 Jyväskylä","","","","","","",""
"FI0900043","","","Keski-Suomen ympäristökeskus PL 11040101 Jyväskylä","","","","","","",""
"FI0900044","","","Keski-Suomen ympäristökeskus PL 11040101 Jyväskylä","","","","","","",""
"FI0900045","","","Keski-Suomen ympäristökeskus PL 110401401 Jyväskylä","","","","","","",""
"FI0900046","","","Keski-Suomen ympäristökeskus PL 11040101 Jyväskylä","","","","","","",""
"FI0900047","","","Keski-Suomen ympäristökeskus PL 11040101 Jyväskylä","","","","","","",""
"FI0900049","","","Keski-Suomen ympäristökeskus PL 11040101 Jyväskylä","","","","","","",""
"FI0900050","","","Keski-Suomen ympäristökeskus PL 11040101 Jyväskylä","","","","","","",""
"FI0900051","","","Keski-Suomen ympäristökeskus PL 11040101 Jyväskylä","","","","","","",""
"FI0900052","","","Keski-Suomen ympäristökeskus PL 11040101 Jyväskylä","","","","","","",""
"FI0900053","","","Keski-Suomen ympäristökeskus PL 11040101 Jyväskylä","","","","","","",""
"FI0900054","","","Keski-Suomen ympäristökeskus PL 11040101 JYVÄSKYLÄ","","","","","","",""
"FI0900055","","","Keski-Suomen ympäristökeskus PL 11040101 Jyväskylä","","","","","","",""
"FI0900056","","","Keski-Suomen ympäristökeskus PL 11040101 Jyväskylä","","","","","","",""
"FI0900057","","","Keski-Suomen ympäristökeskus PL 11040101 JyväskyläMetsähallitus, Länsi-Suomen luontopalvelut, PL 36, 40101 Jyväskylä","","","","","","",""
"FI0900058","","","Keski-Suomen ympäristökeskus PL 11040101 JyväskyläMetsähallitus, Länsi-Suomen luontopalvelutPL 3640101 Jyväskylä","","","","","","",""
"FI0900059","","","Keski-Suomen ympäristökeskus  PL 11040101 Jyväskylä","","","","","","",""
"FI0900060","","","Keski-Suomen ympäristökeskus PL 11040101 Jyväskylä","","","","","","",""
"FI0900061","","","Keski-Suomen ympäristökeskus PL 11040101 JyväskyläMetsähallitus, Länsi-Suomen ympäristökeskus, PL 36, 40101 JyväskyläPohjois-Savon ympäristökeskus, PL 1049, 70101 Kuopio","","","","","","",""
"FI0900062","","","Keski-Suomen ympäristökeskus PL 11040101 Jyväskylä","","","","","","",""
"FI0900063","","","Keski-Suomen ympäristökeskus PL 11040101 Jyväskylä","","","","","","",""
"FI0900064","","","Keski-Suomen ympäristökeskus PL 11040101 Jyväskylä","","","","","","",""
"FI0900065","","","Keski-Suomen ympäristökeskus PL 11040101 Jyväskylä","","","","","","",""
"FI0900066","","","Keski-Suomen ympäristökeskus PL 11040101 Jyväskylä","","","","","","",""
"FI0900067","","","Keski-Suomen ympäristökeskus PL 11040101 Jyväskylä","","","","","","",""
"FI0900068","","","Keski-Suomen ympäristökeskus PL 11040101 Jyväskylä","","","","","","",""
"FI0900069","","","Metsähallitus, Länsi-Suomen puistoalue, Pl 36, 40101 Jyväskylä Keski-Suomen ympäristökeskusPL 11040101 Jyväskylä","","","","","","",""
"FI0900070","","","Keski-Suomen ympäristökeskus PL 11040101 Jyväskylä","","","","","","",""
"FI0900072","","","Keski-Suomen ympäristökeskus  PL 11040101 Jyväskylä","","","","","","",""
"FI0900073","","","Keski-Suomen ympäristökeskus PL 11040101 Jyväskylä","","","","","","",""
"FI0900074","","","Keski-Suomen ympäristökeskus, PL 110, 40101 Jyväskylä Metsähallitus, Länsi-Suomen puistoalue, PL 36, 40101 Jyväskylä","","","","","","",""
"FI0900075","","","Keski-Suomen ympäristökeskus PL 11040101 Jyväskylä","","","","","","",""
"FI0900076","","","Keski-Suomen ympäristökeskus PL 11040101 Jyväskylä","","","","","","",""
"FI0900077","","","Keski-Suomen ympäristökeskus PL 11040101 Jyväskylä","","","","","","",""
"FI0900078","","","Keski-Suomen ympäristökeskus PL 11040101 Jyväskylä","","","","","","",""
"FI0900079","","","Keski-Suomen ympäristökeskus PL 11040101 Jyväskylä","","","","","","",""
"FI0900080","","","Keski-Suomen ympäristökeskus PL 11040101 Jyväskylä","","","","","","",""
"FI0900081","","","Keski-Suomen ympäristökeskus PL 11040101 Jyväskylä","","","","","","",""
"FI0900082","","","Keski-Suomen ympäristökeskus PL 110, 40101 Jyväskylä","","","","","","",""
"FI0900083","","","Keski-Suomen ympäristökeskus PL 11040101 JyväskyläMetsähallitus, Länsi-Suomen luontopalvelutPL 3640101 Jyväskylä","","","","","","",""
"FI0900084","","","Keski-Suomen ympäristökeskus  PL 11040101 Jyväskylä","","","","","","",""
"FI0900085","","","Keski-Suomen ympäristökeskus PL 11040101 Jyväskylä","","","","","","",""
"FI0900086","","","Keski-Suomen ympäristökeskus PL 11040101 Jyväskylä","","","","","","",""
"FI0900087","","","Keski-Suomen ympäristökeskus PL 11040101 Jyväskylä","","","","","","",""
"FI0900088","","","Keski-Suomen ympäristökeskus PL 11040101 JyväskyläMetsähallitus, Länsi-Suomen luontopalvelutPL 3640101 Jyväskylä","","","","","","",""
"FI0900089","","","Metsähallitus, Länsi-Suomen puistoalue, Pl 36, 40101 Jyväskylä","","","","","","",""
"FI0900090","","","Keski-Suomen ympäristökeskus PL 11040101 Jyväskylä","","","","","","",""
"FI0900091","","","Metsähallitus, Länsi-Suomen luontopalvelut, PL 36, 40101 Jyväskylä Keski-Suomen ympäristökeskus, PL 110, 40101 Jyväskylä","","","","","","",""
"FI0900092","","","Metsähallitus, Länsi-Suomen puistoalue, PL 26, 40101 Jyväskylä Keski-Suomen ympäristökeskus, PL 110, 40101 Jyväskylä","","","","","","",""
"FI0900093","","","Keski-Suomen ympäristökeskus PL 11040101 Jyväskylä","","","","","","",""
"FI0900095","","","Keski-Suomen ympäristökeskus PL 11040101 Jyväskylä","","","","","","",""
"FI0900096","","","Metsähallitus, Länsi-Suomen puistoalue, PL 36, 40101 Jyväskylä Keski-Suomen ympäristökeskus, PL 110, 40101 Jyväskylä","","","","","","",""
"FI0900097","","","Keski-Suomen ympäristökeskus PL 11040101 Jyväskylä","","","","","","",""
"FI0900098","","","Keski-Suomen ympäristökeskus PL 11040101 Jyväskylä","","","","","","",""
"FI0900099","","","Metsähallitus, Länsi-Suomen puistoalue, PL 36, 40101 Jyväskylä Keski-Suomen ympäristökeskus, PL 110, 40101 Jyväskylä","","","","","","",""
"FI0900100","","","Keski-Suomen ympäristökeskus PL 11040101 Jyväskylä","","","","","","",""
"FI0900101","","","Keski-Suomen ympäristökeskus PL 11040101 Jyväskylä","","","","","","",""
"FI0900102","","","Keski-Suomen ympäristökeskus PL 11040101 Jyväskylä","","","","","","",""
"FI0900103","","","Keski-Suomen ympäristökeskus PL 11040101 Jyväskylä","","","","","","",""
"FI0900104","","","Keski-Suomen ympäristökeskus PL 11040101 Jyväskylä","","","","","","",""
"FI0900105","","","Keski-Suomen ympäristökeskus PL 11040101 Jyväskylä","","","","","","",""
"FI0900106","","","Metsähallitus, Länsi-Suomen puistoaluePL 36, 40101 Jyväskylä Keski-Suomen ympäristökeskusPL 11040101 Jyväskylä","","","","","","",""
"FI0900107","","","Keski-Suomen ympäristökeskus PL 11040101 Jyväskylä","","","","","","",""
"FI0900108","","","Keski-Suomen ympäristökeskus PL 11040101 JYVÄSKYLÄ","","","","","","",""
"FI0900109","","","Keski-Suomen ympäristökeskus, PL 110, 40101 Jyväskylä Metsähallitus, Länsi-Suomen puistoalue, PL 36, 40101 Jyväskylä","","","","","","",""
"FI0900110","","","Metsähallitus, Länsi-Suomen puistoalue, PL 36, 40101 Jyväskylä","","","","","","",""
"FI0900111","","","Metsähallitus, Länsi-Suomen puistoalue, PL 36, 40101 Jyväskylä Keski-Suomen ympäristökeskus, PL 110, 40101 Jyväskylä","","","","","","",""
"FI0900112","","","Metsähallitus, Länsi-Suomen puistoalue, PL 36, 40101 Jyväskylä Keski-Suomen ympäristökeskus, PL 110, 40101 Jyväskylä","","","","","","",""
"FI0900113","","","Keski-Suomen ympäristökeskus PL 11040101 Jyväskylä","","","","","","",""
"FI0900114","","","Metsähallitus, Länsi-Suomen puistoalue, PL 36 , 40101 Jyväskylä","","","","","","",""
"FI0900115","","","Metsähallitus, Länsi-Suomen ympäristökeskus, PL 36, 40101 Jyväskylä Keski-Suomen ympäristökeskusPL 11040101 Jyväskylä","","","","","","",""
"FI0900116","","","Metsähallitus, Länsi-Suomen puistoalue, PL 36, 40101 Jyväskylä Keski-Suomen ympäristökeskus, PL 110, 40101 Jyväskylä","","","","","","",""
"FI0900117","","","Metsähallitus, Länsi-Suomen puistoalue, PL 36, 40101 Jyväskylä","","","","","","",""
"FI0900118","","","Metsähallitus, Länsi-Suomen puistoalue, PL 36, 40101 Jyväskylä","","","","","","",""
"FI0900119","","","Keski-Suomen ympäristökeskus PL 11040101 Jyväskylä","","","","","","",""
"FI0900120","","","Keski-Suomen ympäristökeskus PL 11040101 Jyväskylä","","","","","","",""
"FI0900121","","","Metsähallitus, Länsi-Suomen puistoalue, PL 36, 40101 Jyväskylä Keski-Suomen ympäristökeskus, PL 110, 40101 Jyväskylä","","","","","","",""
"FI0900122","","","Metsähallitus, Länsi-Suomen puistoalue, PL 36, 40101 Jyväskylä Keski-Suomen ympäristökeskus, PL 110, 40101 Jyväskylä","","","","","","",""
"FI0900123","","","Keski-Suomen ympäristökeskus PL 11040101 Jyväskylä","","","","","","",""
"FI0900124","","","Keski-Suomen ympäristökeskus PL 11040101 Jyväskylä","","","","","","",""
"FI0900125","","","Keski-Suomen ympäristökeskus  PL 11040101 Jyväskylä","","","","","","",""
"FI0900126","","","Metsähallitus, Länsi-Suomen puistoalue, PL 36, 40101 Jyväskylä","","","","","","",""
"FI0900127","","","Metsähallitus, Länsi-Suomen puistoalue, PL 36, 40101 Jyväskylä Keski-Suomen ympäristökeskus, PL 110 , 40101 Jyväskylä","","","","","","",""
"FI0900128","","","Metsähallitus, Länsi-Suomen puistoalue, PL 36, 40101 Jyväskylä","","","","","","",""
"FI0900129","","","Metsähallitus, Länsi-Suomen puistoalue, PL 36, 40101 Jyväskylä","","","","","","",""
"FI0900130","","","Keski-Suomen ympäristökeskus PL 11040101 Jyväskylä","","","","","","",""
"FI0900131","","","Keski-Suomen ympäristökeskus	 PL 11040101 JYVÄSKYLÄ","","","","","","",""
"FI0900132","","","Keski-Suomen ympäristökeskus PL 11040101 JYVÄSKYLÄ","","","","","","",""
"FI0900133","","","Keski-Suomen ympäristökeskus PL 11040101 JYVÄSKYLÄ","","","","","","",""
"FI0900134","","","Keski-Suomen ympäristökeskus PL 11040101 Jyväskylä","","","","","","",""
"FI0900135","","","Keski-Suomen ympäristökeskus PL 110 40101 Jyväskylä","","","","","","",""
"FI0900136","","","Keski-Suomen ympäristökeskus PL 11040101 Jyväskylä","","","","","","",""
"FI0900137","","","Keski-Suomen ympäristökeskus PL 11040101 JYVÄSKYLÄ","","","","","","",""
"FI0900139","","","Keski-Suomen ympäristökeskus PL 11040101 Jyväskylä","","","","","","",""
"FI0900140","","","Keski-Suomen ympäristökeskus PL 110 40101 Jyväskylä","","","","","","",""
"FI0900141","","","Keski-Suomen ympäristökeskus PL 110 40101 Jyväskylä","","","","","","",""
"FI0900143","","","Keski-Suomen ympäristökeskus PL 110 40101 Jyväskylä","","","","","","",""
"FI0900144","","","Keski-Suomen ympäristökeskus PL 11040101 Jyväskylä","","","","","","",""
"FI0900145","","","Keski-Suomen ympäristökeskus PL 11040101 JYVÄSKYLÄ","","","","","","",""
"FI0900146","","","Keski-Suomen ympäristökeskus PL 11040101 Jyväskylä","","","","","","",""
"FI0900148","","","Metsähallitus, Länsi-Suomen luontopalvelut PL 3640101 Jyväskylä","","","","","","",""
"FI1000001","","","Länsi-Suomen ympäristökeskus Torikatu 40 B67100 KOKKOLA","","","","","","",""
"FI1000003","","","Länsi-Suomen ympäristökeskus Torikatu 40 B67100 KOKKOLA","","","","","","",""
"FI1000004","","","Länsi-Suomen ympäristökeskus Torikatu 40 B67100 KOKKOLA","","","","","","",""
"FI1000005","","","Länsi-Suomen ympäristökeskus Torikatu 40 B67100 KOKKOLA","","","","","","",""
"FI1000006","","","Metsähallitus Pohjanmaan-Kainuun luontopalvelutPL 8190101 OULU","","","","","","",""
"FI1000007","","","Pohjois-Pohjanmaan ympäristökeskus Torikatu 40 B67100 KOKKOLA","","","","","","",""
"FI1000008","","","Pohjois-Pohjanmaan ympäristökeskus Torikatu 40 B67100 KOKKOLA","","","","","","",""
"FI1000009","","","Pohjois-Pohjanmaan ympäristökeskus Torikatu 40 B67100 KOKKOLA","","","","","","",""
"FI1000010","","","Länsi-Suomen ympäristökeskus Torikatu 40 B67100 KOKKOLA","","","","","","",""
"FI1000011","","","Pohjois-Pohjanmaan ympäristökeskus Torikatu 40 B67100 KOKKOLA","","","","","","",""
"FI1000012","","","Pohjois-Pohjanmaan ympäristökeskus Torikatu 40 B67100 KOKKOLA","","","","","","",""
"FI1000013","","","Länsi-Suomen ympäristökeskus Torikatu 40 B67100 KOKKOLA","","","","","","",""
"FI1000014","","","Länsi-Suomen ympäristökeskus Torikatu 40 B67100 KOKKOLA","","","","","","",""
"FI1000015","","","Länsi-Suomen ympäristökeskus Torikatu 40 B67100 KOKKOLA","","","","","","",""
"FI1000016","","","Länsi-Suomen ympäristökeskus Torikatu 40 B67100 KOKKOLA","","","","","","",""
"FI1000017","","","Etelä-Pohjanmaan elinkeino-, liikenne- ja ympäristökeskus","","","","","","",""
"FI1000018","","","Pohjois-Pohjanmaan ympäristökeskus PL 12490101 OULU","","","","","","",""
"FI1000019","","","Länsi-Suomen ympäristökeskus Torikatu 40 B67100 KOKKOLA","","","","","","",""
"FI1000022","","","Pohjois-Pohjanmaan ympäristökeskus Torikatu 40 B67100 KOKKOLA","","","","","","",""
"FI1000025","","","Länsi-Suomen ympäristökeskus Torikatu 40 B67100 KOKKOLA","","","","","","",""
"FI1000026","","","Länsi-Suomen ympäristökeskus Torikatu 40 B67100 KOKKOLA","","","","","","",""
"FI1000028","","","Länsi-Suomen ympäristökeskus Torikatu 40 B67100 KOKKOLA","","","","","","",""
"FI1000029","","","Länsi-Suomen ympäristökeskus Torikatu 40 B67100 KOKKOLA","","","","","","",""
"FI1000031","","","Länsi-Suomen ympäristökeskus Torikatu 40 B67100 KOKKOLA","","","","","","",""
"FI1000033","","","Länsi-Suomen ympäristökeskus Torikatu 40 B67100 KOKKOLA","","","","","","",""
"FI1000034","","","Länsi-Suomen ympäristökeskus Torikatu 40 B67100 KOKKOLA","","","","","","",""
"FI1000036","","","Länsi-Suomen ympäristökeskus Torikatu 40 B67100 KOKKOLA","","","","","","",""
"FI1000040","","","Pohjois-Pohjanmaan ympäristökeskus Torikatu 40 B67100 KOKKOLA","","","","","","",""
"FI1000047","","","Länsi-Suomen ympäristökeskus Torikatu 40 B67100 KOKKOLA","","","","","","",""
"FI1000056","","","Pohjois-Pohjanmaan ympäristökeskus Torikatu 40B67100 Kokkola","","","","","","",""
"FI1000057","","","Länsi-Suomen ympäristökeskus Torikatu 40 B67100 KOKKOLA","","","","","","",""
"FI1000058","","","Pohjois-Pohjanmaan ympäristökeskus","","","","","","",""
"FI1000059","","","Länsi-Suomen ympäristökeskus Torikatu 40 B67100 Kokkola","","","","","","",""
"FI1001001","","","Länsi-Suomen ympäristökeskus Torikatu 40 B67100 KokkolaMetsähallitus, Länsi-Suomen puistoaluePl 14713101 Hämeenlinna","","","","","","",""
"FI1001002","","","Länsi-Suomen ympäristökeskus Torikatu 40 B67100 KokkolaMetsähallitus, Länsi-Suomen puistoaluePl 14713101 Hämeenlinna","","","","","","",""
"FI1001003","","","Länsi-Suomen ympäristökeskus Torikatu 40 B67100 KokkolaMetsähallitus, Länsi-Suomen puistoaluePl 14713101 Hämeenlinna","","","","","","",""
"FI1001004","","","Pohjois-Pohjanmaan ympäristökeskus Torikatu 40 B67100 KokkolaLänsi-Suomen ympäristökeskusTorikatu 40 B67100 KokkolaMetsähallitus, Länsi-Suomen puistoaluePl 14713101 Hämeenlinna","","","","","","",""
"FI1001005","","","Länsi-Suomen ympäristökeskus Torikatu 40 B67100 KokkolaMetsähallitus, Länsi-Suomen puistoaluePl 14713101 Hämeenlinna","","","","","","",""
"FI1001006","","","Länsi-Suomen ympäristökeskus Torikatu 40 B67100 KokkolaMetsähallitus, Länsi-Suomen puistoaluePl 14713101 Hämeenlinna","","","","","","",""
"FI1001007","","","Länsi-Suomen ympäristökeskus Toriktu 40 B67100 KokkolaMetsähallitus, Länsi-Suomen puistoaluePl 14713101 Hämeenlinna","","","","","","",""
"FI1001008","","","Länsi-Suomen ympäristökeskus Torikatu 40 B67100 KokkolaMetsähallitus, Länsi-Suomen puistoaluePl 14713101 Hämeenlinna","","","","","","",""
"FI1001009","","","Länsi-Suomen ympäristökeskus Torikatu 40 B67100 KokkolaMetsähallitus, Länsi-Suomen puistoaluePL 14713101 Hämeenlinna","","","","","","",""
"FI1001010","","","Länsi-Suomen ympäristökeskus Torikatu 40 B67100 KokkolaMetsähallitus, Länsi-Suomen puistoaluePL 14713101 Hämeenlinna","","","","","","",""
"FI1001011","","","Länsi-Suomen ympäristökeskus Torikatu 40 B67100 KokkolaMetsähallitus, Länsi-Suomen puistoaluePL 14713101 Hämeenlinna","","","","","","",""
"FI1001012","","","Länsi-Suomen ympäristökeskus Torikatu 40 B67100 KokkolaMetsähallitus, Länsi-Suomen puistoaluePL 14713101 Hämeenlinna","","","","","","",""
"FI1001013","","","Länsi-Suomen ympäristökeskus Torikatu 40 B67100 KokkolaKeski-Suomen ympäristökeskusPL 11040101 JyväskyläMetsähallitus, Länsi-Suomen puistoaluePL 3640101 Jyväskylä","","","","","","",""
"FI1001014","","","Länsi-Suomen ympäristökeskus Torikatu 40 B67100 KokkolaMetsähallitus, Länsi-Suomen puistoalue","","","","","","",""
"FI1002001","","","Pohjois-Pohjanmaan ympäristökeskus Torikatu 40 B67100 KokkolaMetsähallitus, Pohjanmaan puistoaluePL 8190101 OULU","","","","","","",""
"FI1002002","","","Pohjois-Pohjanmaan ympäristökeskus Torikatu 40 B67100 KokkolaMetsähallitus, Pohjanmaan puistoaluePL 8190101 OULU","","","","","","",""
"FI1002003","","","Pohjois-Pohjanmaan ympäristökeskus Torikatu 40 B67100 KokkolaMetsähallitus, Pohjanmaan puistoaluePL 8190101 OULU","","","","","","",""
"FI1002004","","","Pohjois-Pohjanmaan ympäristökeskus Torikatu 40 B67100 KokkolaMetsähallitus, Pohjanmaan puistoaluePL 8190101 OULU","","","","","","",""
"FI1002005","","","Pohjois-Pohjanmaan ympäristökeskus Torikatu 40 B67100 KokkolaMetsähallitus, Pohjanmaan puistoaluePL 8190101 OULU","","","","","","",""
"FI1002006","","","Pohjois-Pohjanmaan ympäristökeskus Torikatu 40 B67100 KokkolaMetsähallitus, Pohjanmaan puistoaluePL 8190101 OULU","","","","","","",""
"FI1002007","","","Pohjois-Pohjanmaan ympäristökeskus Torikatu 40 B67100 KokkolaMetsähallitus, Pohjanmaan puistoaluePL 8190101 OULU","","","","","","",""
"FI1002008","","","Pohjois-Pohjanmaan ympäristökeskus Torikatu 40 B67100 KokkolaMetsähallitus, Pohjanmaan puistoaluePL 8190101 OULU","","","","","","",""
"FI1002009","","","Pohjois-Pohjanmaan ympäristökeskus Torikatu 40 B67100 KokkolaMetsähallitus, Pohjanmaan puistoaluePL 8190101 OULU","","","","","","",""
"FI1002010","","","Pohjois-Pohjanmaan ympäristökeskus Torikatu 40 B67100 KokkolaMetsähallitus, Pohjanmaan puistoaluePL 8190101 OULU","","","","","","",""
"FI1002011","","","Pohjois-Pohjanmaan ympäristökeskus Torikatu 40 B67100 KokkolaMetsähallitus, Pohjanmaan puistoaluePL 8190101 OULU","","","","","","",""
"FI1002012","","","Pohjois-Pohjanmaan ympäristökeskus Torikatu 40 B67100 KokkolaMetsähallitus, Pohjanmaan puistoaluePL 8190101 OULU","","","","","","",""
"FI1002013","","","Pohjois-Pohjanmaan ympäristökeskus Torikatu 40 B67100 KokkolaMetsähallitus, Pohjanmaan puistoaluePL 8190101 OULU","","","","","","",""
"FI1002014","","","Pohjois-Pohjanmaan ympäristökeskus Torikatu 40 B67100 KokkolaMetsähallitus, Pohjanmaan puistoaluePL 8190101 OULU","","","","","","",""
"FI1002015","","","Pohjois-Pohjanmaan ympäristökeskus Torikatu 4067100 KokkolaMetsähallitus, Pohjanmaan puistoalue","","","","","","",""
"FI1002016","","","Pohjois-Pohjanmaan ympäristökeskus Torikatu 4067100 KokkolaMetsähallitus, Pohjanmaan puistoalue","","","","","","",""
"FI1002017","","","Metsähallitus Pohjanmaan-Kainuun luontopalvelutPL 8190101 OULU","","","","","","",""
"FI1002018","","","Metsähallitus Pohjanmaan-Kainuun luontopalvelutPL 8190101 OULU","","","","","","",""
"FI1002019","","","Pohjois-Pohjanmaan ympäristökeskus PL 12490101 OULU","","","","","","",""
"FI1002021","","","Metsähallitus Pohjanmaan-Kainuun luontopalvelutPL 8190101 OULU","","","","","","",""
"FI1100001","","","Pohjois-Pohjanmaan ympäristökeskus PL 12490101 Oulu","","","","","","",""
"FI1100002","","","Metsähallitus Pohjanmaan puistoalueTorangintaival 293600 Kuusamo","","","","","","",""
"FI1100006","","","Metsähallitus Pohjanmaan puistoalueTorangintaival 293600 Kuusamo","","","","","","",""
"FI1100201","","","Pohjois-Pohjanmaan ympäristökeskus PL 12490101 Oulu","","","","","","",""
"FI1100202","","","Pohjois-Pohjanmaan ympäristökeskus PL 12490101 Oulu","","","","","","",""
"FI1100203","","","Pohjois-Pohjanmaan ympäristökeskus PL 12490101 Oulu","","","","","","",""
"FI1100204","","","Pohjois-Pohjanmaan ympäristökeskus PL 12490101 Oulu","","","","","","",""
"FI1100206","","","Pohjois-Pohjanmaan ympäristökeskus PL 12490101 Oulu","","","","","","",""
"FI1100207","","","Metsähallitus","","","","","","",""
"FI1100400","","","Pohjois-Pohjanmaan ympäristökeskus, PL 124, 90101 Oulu","","","","","","",""
"FI1100402","","","Pohjois-Pohjanmaan ympäristökeskus, PL 124, 90101 Oulu","","","","","","",""
"FI1100403","","","Pohjois-Pohjanmaan ympäristökeskus PL 12490101 Oulu","","","","","","",""
"FI1100404","","","Pohjois-Pohjanmaan ympäristökeskus, PL 124, 90101 Oulu","","","","","","",""
"FI1100405","","","Pohjois-Pohjanmaan ympäristökeskus, Pl 124, 90101 Oulu","","","","","","",""
"FI1100600","","","Pohjois-Pohjanmaan ympäristökeskus, PL 124, 90101 Oulu","","","","","","",""
"FI1100601","","","Pohjois-Pohjanmaan ympäristökeskus PL 12490101 OULU","","","","","","",""
"FI1100602","","","Metsähallitus Pohjanmaan-Kainuun luontopalvelutPL 8190101 OULU","","","","","","",""
"FI1101002","","","Metsähallitus Pohjanmaan puistoalueTorangintaival 293600 Kuusamo","","","","","","",""
"FI1101201","","","Metsähallitus Pohjanmaan puistoalueTorangintaival 293600 Kuusamo","","","","","","",""
"FI1101202","","","Pohjois-Pohjanmaan ympäristökeskus PL 12490101 Oulu","","","","","","",""
"FI1101203","","","Pohjois-Pohjanmaan ympäristökeskus PL 12490101 OULU","","","","","","",""
"FI1101204","","","Pohjois-Pohjanmaan ympäristökeskus PL 12490101 OULU","","","","","","",""
"FI1101205","","","Pohjois-Pohjanmaan ympäristökeskus PL 12490101 OULU","","","","","","",""
"FI1101400","","","Metsähallitus Pohjanmaan puistoalueTorangintaival 293600 Kuusamo","","","","","","",""
"FI1101401","","","Metsähallitus Pohjanmaan-Kainuun luontopalvelut PL 8190101 Oulu","","","","","","",""
"FI1101402","","","Metsähallitus Pohjanmaan puistoalueTorangintaival 293600 Kuusamo","","","","","","",""
"FI1101403","","","Metsähallitus Pohjanmaan puistoalueTorangintaival 293600 Kuusamo","","","","","","",""
"FI1101404","","","Pohjois-Pohjanmaan ympäristökeskus, PL 124, 90101 Oulu","","","","","","",""
"FI1101405","","","Metsähallitus Pohjanmaan puistoalueTorangintaival 293600 Kuusamo","","","","","","",""
"FI1101406","","","Pohjois-Pohjanmaan ympäristökeskus PL 12490101 OULU","","","","","","",""
"FI1101600","","","Metsähallitus, Pohjanmaan puistoalue Torangintaival 293600  Kuusamo","","","","","","",""
"FI1101601","","","Metsähallitus, Pohjanmaan puistoalue Torngintaival 293600  Kuusamo","","","","","","",""
"FI1101602","","","Metsähallitus, Pohjanmaan-Kainuun luontopalvelut Torangintaival 2, 93600 Kuusamo","","","","","","",""
"FI1101603","","","Metsähallitus, Pohjanmaan puistoalue Torangintaival 293600  Kuusamo","","","","","","",""
"FI1101611","","","Metsähallitus, Pohjanmaan puistoalue Torangintaival 293600  Kusuamo","","","","","","",""
"FI1101612","","","Metsähallitus, Pohjanmaan puistoalue Torangintaival 293600  Kuusamo","","","","","","",""
"FI1101614","","","Metsähallitus, Pohjanmaan puistoalue Torangintaival 293600  Kuusamo","","","","","","",""
"FI1101615","","","Metsähallitus, Pohjanmaan puistoalue Torangintaival 293600  Kuusamo","","","","","","",""
"FI1101616","","","Metsähallitus, Pohjanmaan puistoalue Torangintaival 293600  Kuusamo","","","","","","",""
"FI1101617","","","Metsähallitus, Pohjanmaan puistoalue Torangintaival 293600  Kuusamo","","","","","","",""
"FI1101618","","","Metsähallitus, Pohjanmaan puistoalue Torangintaival 293600  Kuusamo","","","","","","",""
"FI1101619","","","Metsähallitus, Pohjanmaan puistoalue Torangintaival 293600  Kuusamo","","","","","","",""
"FI1101620","","","Metsähallitus, Pohjanmaan pustoalue Torangintaival 293600  Kuusamo","","","","","","",""
"FI1101622","","","Metsähallitus, Pohjanmaan puistoalue Torangintaival 293600  Kuusamo","","","","","","",""
"FI1101625","","","Metsähallitus, Pohjanmaan puistoalue Torangintaival 293600  Kuusamo","","","","","","",""
"FI1101626","","","Metsähallitus, Pohjanmaan puistoalue Torangintaival 293600  Kuusamo","","","","","","",""
"FI1101627","","","Metsähallitus, Pohjanmaan puistoalue Torangintaival 293600  Kuusamo","","","","","","",""
"FI1101628","","","Metsähallitus, Pohjanmaan puistoalue Torangintaival 293600  Kuusamo","","","","","","",""
"FI1101629","","","Metsähallitus, Pohjanmaan puistoalue Torangintaival 293600  Kuusamo","","","","","","",""
"FI1101630","","","Metsähallitus, Pohjanmaan puistoalue Torangintaival 293600  Kuusamo","","","","","","",""
"FI1101631","","","Metsähallitus, Pohjanmaan puistoalue Torangintaival 293600  Kuusamo","","","","","","",""
"FI1101632","","","Metsähallitus, Pohjanmaan puistoalue Torangintaival 293600  Kuusamo","","","","","","",""
"FI1101633","","","Metsähallitus, Pohjanmaan puistoalue Torangintaival 293600  Kuusamo","","","","","","",""
"FI1101635","","","Metsähallitus, Pohjanmaan puistoalue Torangintaival 293600  Kuusamo","","","","","","",""
"FI1101638","","","Metsähallitus, Pohjanmaan puistoalue Torangintaival 2, 93600 Kuusamo","","","","","","",""
"FI1101639","","","Metsähallitus, Pohjanmaan Puistoalue Torangintaival 293600 Kuusamo","","","","","","",""
"FI1101640","","","Metsähallitus Pohjanmaan puistoalueTorangintaival 293600  Kuusamo","","","","","","",""
"FI1101641","","","Metsähallitus, Pohjanmaan puistoalue Torangintaival 293600  Kuusamo","","","","","","",""
"FI1101642","","","Metsähalllitus, Pohjanmaan puistoalue Torangintaival 293600  Kuusamo","","","","","","",""
"FI1101645","","","Metsähallitus, Pohjanmaan puistoalue Torangintaival 293600  Kuusamo","","","","","","",""
"FI1101800","","","Metsähallitus Pohjanmaan puistoalueTorangintaival 293600 Kuusamo","","","","","","",""
"FI1101801","","","Pohjois-Pohjanmaan ympäristökeskus PL 12490101 OULU","","","","","","",""
"FI1101802","","","Pohjois-Pohjanmaan ympäristökeskus, PL 124, 90101 Oulu","","","","","","",""
"FI1101803","","","Pohjois-Pohjanmaan ympäristökeskus, PL 124, 90101 Oulu","","","","","","",""
"FI1101804","","","Pohjois-Pohjnamaan ympäristökeskus PL 12490101 Oulu","","","","","","",""
"FI1102000","","","Metsähallitus Pohjanmaan puistoalueTorangintaival 293600 Kuusamo","","","","","","",""
"FI1102200","","","Pohjois-Pohjanmaan ympäristökeskus PL 124, 90101 Oulu","","","","","","",""
"FI1102201","","","Metsähallitus Pohjanmaan puistoalueTorangintaival 293600 Kuusamo","","","","","","",""
"FI1102601","","","Pohjois-Pohjanmaan ympäristökeskus, PL 124, 90101 OULU","","","","","","",""
"FI1102602","","","Pohjois-Pohjanmaan ympäristökeskus PL 12490101 OULU","","","","","","",""
"FI1102605","","","Pohjois-Pohjanmaan ympäristökeskus, PL 124, 10101 OULU","","","","","","",""
"FI1102606","","","Pohjois-Pohjanmaan ympäristökeskus, PL 124, 90101 OULU","","","","","","",""
"FI1102607","","","Pohjois-Pohjanmaan ympäristökeskus, PL 124, 90101 OULU","","","","","","",""
"FI1102608","","","Metsähallitus Pohjanmaan puistoalueTorangintaival 293600 Kuusamo","","","","","","",""
"FI1102800","","","Metsähallitus Pohjanmaan puistoalueTorangintaival 293600 Kuusamo","","","","","","",""
"FI1102801","","","Metsähallitus Pohjanmaan puistoalueTorangintaival 293600 Kuusamo","","","","","","",""
"FI1102802","","","Metsähallitus Pohjanmaan-Kainuun luontopalvelutPL 8190101 Oulu","","","","","","",""
"FI1102803","","","Metsähallitus Pohjanmaan-Kainuun luontopalvelutPL 8190101 Oulu","","","","","","",""
"FI1103000","","","Pohjois-Pohjanmaan ympäristökeskus, PL 124, 90101 Oulu","","","","","","",""
"FI1103001","","","Pohjois-Pohjanmaan ympäristökeskus, PL 124, 90101 Oulu","","","","","","",""
"FI1103002","","","Pohjois-Pohjanmaan ympäristökeskus PL 12490101 Oulu","","","","","","",""
"FI1103004","","","Pohjois-Pohjanmaan ympäristökeskus PL 12490101 Oulu","","","","","","",""
"FI1103200","","","Pohjois-Pohjanmaan ympäristökeskus PL 12490101 Oulu","","","","","","",""
"FI1103400","","","Pohjois-Pohjanmaan ympäristökeskus, PL 124, 90101 Oulu","","","","","","",""
"FI1103401","","","Pohjois-Pohjanmaan ympäristökeskus, PL 124, 90101 Oulu","","","","","","",""
"FI1103402","","","Pohjois-Pohjanmaan ympäristökeskus","","","","","","",""
"FI1103600","","","Pohjois-Pohjanmaan ympäristökeskus, PL 124, 90101 Oulu","","","","","","",""
"FI1103602","","","Pohjois-Pohjanmaan ympäristökeskus, PL 124, 90101 Oulu","","","","","","",""
"FI1103800","","","Metsähallitus Pohjanmaan puistoalueTorangintaival 2 93600 Kuusamo","","","","","","",""
"FI1103801","","","Metsähallitus Pohjanmaan puistoalueTorangintaival 293600 Kuusamo","","","","","","",""
"FI1103802","","","Metsähallitus Pohjanmaan puistolaueTorangintaival 293600 Kuusamo","","","","","","",""
"FI1103803","","","Metsähallitus Pohjanmaan puistoalueTorangintaival 293600 Kuusamo","","","","","","",""
"FI1103804","","","Metsähallitus Pohjanmaan puistoalueTorangintaival 293600 Kuusamo","","","","","","",""
"FI1103805","","","Metsähallitus Pohjanmaan puistoalueTorangintaival 293600 Kuusamo","","","","","","",""
"FI1103806","","","Metsähallitus Pohjanmaan puistoalueTorangintaival 293600 Kuusamo","","","","","","",""
"FI1103807","","","Metsähallitus Pohjanmaan puistoalueTorangintaival 293600 Kuusamo","","","","","","",""
"FI1103808","","","Metsähallitus  Pohjanmaan puistoalueTorangintaival 293600 Kuusamo","","","","","","",""
"FI1103809","","","Metsähallitus Pohjanmaan puistoalueTorangintaival 293600 Kuusamo","","","","","","",""
"FI1103810","","","Metsähallitus Pohjanmaan-Kainuun luontopalvelutPudasjärviPL 793101 Pudasjärvi","","","","","","",""
"FI1103811","","","Metsähallitus Pohjanmaan-Kainuun luontopalvelutPL 793101 Pudasjärvi","","","","","","",""
"FI1103813","","","Metsähallitus, Pohjanmaan puistoalue Torangintaival 293600  Kuusamo","","","","","","",""
"FI1103814","","","Metsähallitus Pohjanmaan puistoalueTorangintaival 293600 Kuusamo","","","","","","",""
"FI1103815","","","Metsähallitus, Pohjanmaan puistoalue Torangintaival 293600  Kuusamo","","","","","","",""
"FI1103816","","","Metsähallitus, Pohjanmaan puistoalue Torangintaival 293600  Kuusamo","","","","","","",""
"FI1103817","","","Pohjois-Pohjanmaan ympäristökeskus, PL 124, 90101 Oulu","","","","","","",""
"FI1103818","","","Pohjois-Pohjanmaan ympäristökeskus, PL 124, 90101 Oulu","","","","","","",""
"FI1103819","","","Pohjois-Pohjanmaan ympäristökeskus, Pl 124, 90101 Oulu","","","","","","",""
"FI1103820","","","Pohjois-Pohjanmaan ympäristökeskus, PL 124, 90101 Oulu","","","","","","",""
"FI1103821","","","Metsähallitus Pohjanmaan-Kainuun luontopalvelutPL 793101 Pudasjärvi","","","","","","",""
"FI1103822","","","Metsähallitus Pohjanmaan-Kainuun luontopalvelutPL 793101 Pudasjärvi","","","","","","",""
"FI1103823","","","Pohjois-Pohjanmaan ympäristökeskus, PL 124, 90101 Oulu","","","","","","",""
"FI1103824","","","Pohjois-Pohjanmaan ympäristökeskus, PL 124, 90101 Oulu","","","","","","",""
"FI1103827","","","Metsähallitus Pohjanmaan puistoalueTorangintaival 293600 Kuusamo","","","","","","",""
"FI1103828","","","Metsähallitus, Pohjanmaan-Kainuun luontopalvelut PL 793101 Pudasjärvi","","","","","","",""
"FI1103829","","","Metsähallitus Pohjanmaan puistoalueTorangintaival 293600 Kuusamo","","","","","","",""
"FI1103830","","","Metsähallitus Pohjanmaan puistoalueTorangintaival 293600 Kuusamo","","","","","","",""
"FI1104200","","","Metsähallitus Pohjanmaan puistoalueTorangintaival 293600 Kuusamo","","","","","","",""
"FI1104201","","","Pohjois-Pohjanmaan ympäristökeskus, PL 124, 90101 Oulu","","","","","","",""
"FI1104202","","","Pohjois-Pohjanmaan ympäristökeskus, Pl 124, 90101 Oulu","","","","","","",""
"FI1104203","","","Pohjois-Pohjanmaan ympäristökeskus, PL 124, 90101 Oulu","","","","","","",""
"FI1104401","","","Metsähallitus Pohjanmaan puistoalueTorangintaival 293600 Kuusamo","","","","","","",""
"FI1104402","","","Metsähallitus  Pohjanmaan puistoalueTorangintaival 293600 Kuusamo","","","","","","",""
"FI1104404","","","Metsähallitus Pohjanmaan puistoalueTorangintaival 293600 Kuusamo","","","","","","",""
"FI1104405","","","Pohjois-Pohjanmaan ympäristökeskus, PL 124, 90101 Oulu","","","","","","",""
"FI1104406","","","Pohjois-Pohjanmaan ympäristökeskus, Pl 124,90101 Oulu","","","","","","",""
"FI1104407","","","Pohjois-Pohjanmaan ympäristökeskus, PL 124, 90101 Oulu","","","","","","",""
"FI1104408","","","Metsähallitus Pohjanmaan puistoalueTorangintaival 293600 Kuusamo","","","","","","",""
"FI1104600","","","Pohjois-Pohjanmaan ympäristökeskus, Pl 124, 90101 Oulu","","","","","","",""
"FI1104601","","","Pohjois-Pohjanmaan ympäristökeskus, PL 124, 90101 OULU","","","","","","",""
"FI1104602","","","Pohjois-Pohjanmaan ympäristökeskus PL 12490101 Oulu","","","","","","",""
"FI1104603","","","Pohjois-Pohjanmaan ympäristökeskus PL 12490101 Oulu","","","","","","",""
"FI1104604","","","Pohjois-Pohjanmaan ympäristökeskus, PL 124, 90101 OULU","","","","","","",""
"FI1104605","","","Pohjois-Pohjanmaan ympäristökeskus, PL 124, 90101 OULU","","","","","","",""
"FI1104800","","","Pohjois-Pohjanmaan ympäristökeskus, Pl 124, 90101 Oulu","","","","","","",""
"FI1104801","","","Pohjois-Pohjanmaan ympäristökeskus PL 12490101 Oulu","","","","","","",""
"FI1105000","","","Pohjois-Pohjanmaan ympäristökeskus, Pl 124, 90101 Oulu","","","","","","",""
"FI1105001","","","Pohjois-Pohjanmaan ympäristökeskus, Pl 124, 90101 Oulu","","","","","","",""
"FI1105200","","","Pohjois-Pohjanmaan ympäristökeskus, PL 124, 90101 OULU","","","","","","",""
"FI1105201","","","Pohjois-Pohjanmaan ympäristökeskus, PL 124, 90101 Oulu","","","","","","",""
"FI1105202","","","Pohjois-Pohjanmaan ympäristökeskus, PL 124, 90101 Oulu","","","","","","",""
"FI1105401","","","Metsähallitus Pohjanmaan-Kainuun luontopalvelutPL 793101 Pudasjärvi","","","","","","",""
"FI1105402","","","Metsähallitus, Pohjanmaan puistoalue Torangintaival 293600  Kuusamo","","","","","","",""
"FI1105403","","","Metsähallitus, Pohjanmaan puistoalue Torangintaival 293600  Kuusamo","","","","","","",""
"FI1105404","","","Metsähallitus, Pohjanmaan puistoalue Torangintaival 293600  Kuusamo-t","","","","","","",""
"FI1105405","","","Metsähallitus, Pohjanmaan-Kainuun luontopalvelut  PL 793101 Pudasjärvi","","","","","","",""
"FI1105406","","","Metsähallitus, Pohjanmaan puistoalue Torangintaival 293600  Kuusamo","","","","","","",""
"FI1105407","","","Metsähallitus, Pohjanmaan-Kainuun luontopalvelut PL 793101 Pudasjärvi","","","","","","",""
"FI1105408","","","Metsähallitus, Pohjanmaan puistoalue Torangintaival 293600  Kuusamo","","","","","","",""
"FI1105409","","","Metsähallitus, Pohjanmaan puistoalue Torangintaival 293600  Kuusamo","","","","","","",""
"FI1105410","","","Metsähallitus, Pohjanmaan puistoalue Torangintaival 293600  Kuusamo","","","","","","",""
"FI1105411","","","Pohjois-Pohjanmaan ympäristökeskus, PL 124, 90101 Oulu","","","","","","",""
"FI1105412","","","Pohjois-Pohjanmaan ympäristökeskus PL 12490101 Oulu","","","","","","",""
"FI1105413","","","Metsähallitus Pohjanmaan-Kainuun luontopalvelutPL 793101 Pudasjärvi","","","","","","",""
"FI1106000","","","Metsähallitus Pohjanmaan puistoalueTorangintaival 293600 Kuusamo","","","","","","",""
"FI1106001","","","Metsähallitus Pohjanmaan puistoalueTorangintaival 293600 Kuusamo","","","","","","",""
"FI1106002","","","Pohjois-Pohjanmaan ympäristökeskus, Pl 124, 90101 Oulu","","","","","","",""
"FI1106003","","","Metsähallitus Pohjanmaan-Kainuun luontopalvelutPL 8190101 Oulu","","","","","","",""
"FI1106004","","","Metsähallitus  Pohjanmaan puistoalueTorangintaival 293600 Kuusamo","","","","","","",""
"FI1106005","","","Pohjois-Pohjanmaan ympäristökeskus, PL 124, 90101 Oulu","","","","","","",""
"FI1106200","","","Pohjois-Pohjanmaan ympäristökeskus PL 12490101 Oulu","","","","","","",""
"FI1106201","","","Pohjois-Pohjanmaan ympäristökeskus, Pl 124, 90101 Oulu","","","","","","",""
"FI1106400","","","Pohjois-Pohjanmaan ympäristökeskus, PL 124, 90101 Oulu","","","","","","",""
"FI1106401","","","Pohjois-Pohjanmaan ympäristökeskus, Pl 124, 90101 Oulu","","","","","","",""
"FI1106600","","","Pohjois-Pohjanmaan ympäristökeskus, Pl 124, 90101 Oulu","","","","","","",""
"FI1106602","","","Pohjois-Pohjanmaan ympäristökeskus, PL 124, 90101 Oulu","","","","","","",""
"FI1106603","","","Pohjois-Pohjanmaan ympäristökeskus, Pl 124, 90101 Oulu","","","","","","",""
"FI1106604","","","Metsähallitus Pohjanmaan puistoalueTorangintaival 293600 Kuusamo","","","","","","",""
"FI1106605","","","Pohjois-Pohjanmaan ympäristökeskus PL 12490101 Oulu","","","","","","",""
"FI1200002","","","Kainuun ympäristökeskus PL 11587101 KAJAANI","","","","","","",""
"FI1200003","","","Kainuun ympäristökeskus PL 115, 87101 Kajaani","","","","","","",""
"FI1200051","","","Metsähallitus, Kainuun puistoalue Tönölä88900 KUHMO","","","","","","",""
"FI1200052","","","Metsähallitus, Kainuun puistoalue Tönölä, 88900 Kuhmo","","","","","","",""
"FI1200053","","","Metsähallitus, Kainuun puistoalue Tönölä88900 KUHMO","","","","","","",""
"FI1200054","","","Metsähallitus, Kainuun puistoalue Tönölä88900 KUHMO","","","","","","",""
"FI1200055","","","Metsähallitus, Kainuun puistoalue Tönölä88900 KUHMO","","","","","","",""
"FI1200056","","","Metsähallitus, Kainuun puistoalue Tönölä88900 KUHMO","","","","","","",""
"FI1200057","","","Metsähallitus, Kainuun puistoalue Tönölä88900 KUHMO","","","","","","",""
"FI1200058","","","Metsähallitus, Kainuun puistoalue Tönölä88900 KUHMO","","","","","","",""
"FI1200059","","","Metsähallitus, Kainuun puistoalue Tönölä88900 KUHMO","","","","","","",""
"FI1200100","","","Kainuun ympäristökeskus PL 11587101 KAJAANI","","","","","","",""
"FI1200101","","","Kainuun ympäristökeskus PL 11587101 KAJAANI","","","","","","",""
"FI1200102","","","Kainuun ympäristökeskus PL 11587101 KAJAANI","","","","","","",""
"FI1200104","","","Kainuun ympäristökeskus PL 11587101 KAJAANI","","","","","","",""
"FI1200105","","","Kainuun ympäristökeskus PL 11587101 KAJAANI","","","","","","",""
"FI1200467","","","Kainuun ympäristökeskus PL 11587101 KAJAANI","","","","","","",""
"FI1200500","","","Kainuun ympäristökeskus PL 11587101 KAJAANI","","","","","","",""
"FI1200502","","","Kainuun ympäristökeskus PL 11587101 KAJAANI","","","","","","",""
"FI1200511","","","Metsähallitus, Kainuun puistoalue Tönölä88900 KUHMO","","","","","","",""
"FI1200600","","","Kainuun ympäristökeskus PL 11587101 KAJAANI","","","","","","",""
"FI1200602","","","Kainuun ympäristökeskus PL 11587101 KAJAANI","","","","","","",""
"FI1200604","","","Kainuun ympäristökeskus PL 115 87101 KAJAANI","","","","","","",""
"FI1200605","","","Kainuun ympäristökeskus PL 11587101 KAJAANI","","","","","","",""
"FI1200606","","","Kainuun ympäristökeskus PL 11587101 KAJAANI","","","","","","",""
"FI1200607","","","Kainuun ympäristökeskus PL 11587101 KAJAANI","","","","","","",""
"FI1200608","","","Kainuun ympäristökeskus PL 11587101 KAJAANI","","","","","","",""
"FI1200609","","","Kainuun ympäristökeskus PL 11587101 KAJAANI","","","","","","",""
"FI1200621","","","Metsähallitus, Kainuun puistoalue Tönölä88900 KUHMO","","","","","","",""
"FI1200622","","","Metsähallitus, Kainuun puistoalue Tönölä88900 KUHMO","","","","","","",""
"FI1200623","","","Metsähallitus, Kainuun puistoalue Tönölä88900 KUHMO","","","","","","",""
"FI1200624","","","Metsähallitus, Kainuun puistoalue Tönölä88900 KUHMO","","","","","","",""
"FI1200625","","","Metsähallitus, Itä-Suomen luontopalvelut, Urheilukatu 3 A, 81700 Lieksa 88900 KUHMO","","","","","","",""
"FI1200700","","","Metsähallitus Kainuun puistoalue","","","","","","",""
"FI1200701","","","Metsähallitus, Kainuun puistoalue","","","","","","",""
"FI1200702","","","Kainuun ympäristökeskus","","","","","","",""
"FI1200703","","","Metsähallitus, Kainuun puistoalue","","","","","","",""
"FI1200704","","","Metsähallitus, Kainuun puistoalue","","","","","","",""
"FI1200706","","","Metsähallitus,  Kainuun puistoalue","","","","","","",""
"FI1200707","","","Metsähallitus,  Kainuun puistoalue","","","","","","",""
"FI1200708","","","MH, Kainuun puistoalue","","","","","","",""
"FI1200710","","","MH, Kainuun puistoalue","","","","","","",""
"FI1200711","","","MH, Kainuun puistoalue","","","","","","",""
"FI1200712","","","MH, Kainuun puistoalue","","","","","","",""
"FI1200713","","","MH, Kainuun puistoalue","","","","","","",""
"FI1200714","","","MH, Kainuun puistoalue","","","","","","",""
"FI1200715","","","MH, Kainuun puistoalue","","","","","","",""
"FI1200716","","","Metsähallitus, Kainuun puistoalue Tönölä89000 KUHMO","","","","","","",""
"FI1200717","","","yst Metsähallitus, Kainuun puistoalueTönölä88900 KUHMO","","","","","","",""
"FI1200718","","","Metsähallitus, Kainuun puistoalue Tönölä88900 KUHMO","","","","","","",""
"FI1200719","","","Metsähallitus, Kainuun puistoalue Tönölä88900 KUHMO","","","","","","",""
"FI1200720","","","Metsähallitus, Kainuun puistoalue Tönölä88900 KUHMO","","","","","","",""
"FI1200721","","","Metsähallitus, Kainuun puistoalue Tönölä88900 KUHMO","","","","","","",""
"FI1200722","","","Metsähallitus, Kainuun puistoalue Tönölä88900 KUHMO","","","","","","",""
"FI1200723","","","Metsähallitus, Kainuun puistoalue Tönölä88900 KUHMO","","","","","","",""
"FI1200724","","","Metsähallitus, Kainuun puistoalue Tönölä88900 KUHMO","","","","","","",""
"FI1200725","","","Metsähallitus, Kainuun puistoalue Tönölä88900 KUHMO","","","","","","",""
"FI1200726","","","Metsähallitus, Kainuun puistoalue Tönölä88900 KUHMO","","","","","","",""
"FI1200727","","","Metsähallitus, Kainuun puistoalue Tönölä88900 KUHMO","","","","","","",""
"FI1200728","","","Metsähallitus, Kainuun puistoalue Tönölä88900 KUHMO","","","","","","",""
"FI1200729","","","Metsähallitus, Kainuun puistoalue Tönölä88900 KUHMO","","","","","","",""
"FI1200730","","","Metsähallitus, Kainuun puistoalue Tönölä88900 KUHMO","","","","","","",""
"FI1200731","","","Metsähallitus, Kainuun puistoalue Tönölä88900 KUHMO","","","","","","",""
"FI1200732","","","Metsähallitus, Kainuun puistoalue Tönölä88900 KUHMO","","","","","","",""
"FI1200733","","","Metsähallitus, Kainuun puistoalue Tönölä88900 KUHMO","","","","","","",""
"FI1200734","","","Metsähallitus, Kainuun puistoalue Tönölä88900 KUHMO","","","","","","",""
"FI1200735","","","Metsähallitus, Kainuun puistoalue Tönölä88900 KUHMO","","","","","","",""
"FI1200736","","","Metsähallitus, Kainuun puistoalue Tönölä88900 KUHMO","","","","","","",""
"FI1200737","","","Metsähallitus, Kainuun puistoalue Tönölä88900 KUHMO","","","","","","",""
"FI1200738","","","Metsähallitus, Kainuun puistoalue Tönölä88900 KUHMO","","","","","","",""
"FI1200739","","","Metsähallitus, Kainuun puistoalue Tönölä88900 KUHMO","","","","","","",""
"FI1200740","","","Metsähallitus, Kainuun puistoalue Tönölä88900 KUHMO","","","","","","",""
"FI1200741","","","Metsähallitus, Kainuun puistoalue Tönölä88900 KUHMO","","","","","","",""
"FI1200742","","","Metsähallitus, Kainuun puistoalue Tönölä88900 KUHMO","","","","","","",""
"FI1200743","","","Metsähallitus, Kainuun puistoalue Tönölä88900 KUHMO","","","","","","",""
"FI1200744","","","Metsähallitus, Kainuun puistoalue Tönölä88900 KUHMO","","","","","","",""
"FI1200745","","","Metsähallitus, Kainuun puistoalue Tönölä88900 KUHMO","","","","","","",""
"FI1200762","","","Kainuun ympäristökeskus PL 11587101 KAJAANI","","","","","","",""
"FI1200763","","","Kainuun ympäristökeskus PL 11587101 KAJAANI","","","","","","",""
"FI1200764","","","Kainuun ympäristökeskus PL 11587101 Kajaani","","","","","","",""
"FI1200800","","","Metsähallitus  Pohjanmaan puistoalueTorangintaival 293600 KuusamoMaarit VainioKainuun ympäristökeskusPL 15587101 KAJAANI","","","","","","",""
"FI1200801","","","Kainuun ympäristökeskus PL 11587101 KAJAANI","","","","","","",""
"FI1200802","","","Kainuun ympäristökeskus PL 11587101 KAJAANI","","","","","","",""
"FI1200804","","","Kainuun ympäristökeskus PL 11587101 KAJAANI","","","","","","",""
"FI1200805","","","Metsähallitus Pohjanmaan puistoalueTorangintaival 293600 KuusamoMaarit VainioKainuun ympäristökeskusPL 11587101 KAJAANI","","","","","","",""
"FI1200901","","","Metsähallitus, Pohjois-Pohjanmaan luontopalvelut Tönölä, 88900 KUHMO","","","","","","",""
"FI1200902","","","Metsähallitus, Kainuun puistoalue Tönölä88900 KUHMO","","","","","","",""
"FI1200921","","","Kainuun ympäristökeskus PL 11587101 KAJAANI","","","","","","",""
"FI1200922","","","Kainuun ympäristökeskus PL 11587101 KAJAANI","","","","","","",""
"FI1200923","","","Kainuun ympäristökeskus PL 11587101 KAJAANI","","","","","","",""
"FI1201001","","","Metsähallitus Pohjanmaan - Kainuun luontopalvelutLentiirantie 342 D88900 KUHMO","","","","","","",""
"FI1201002","","","Metsähallitus, luontopalvelut Lentiirantie 342 D88900 Kuhmo","","","","","","",""
"FI1201003","","","Metsähallitus, Pohjanmaan-Kainuun luontopalvelut, Lentiirantie 342 D, 88900 KUHMO / Metsähallitus, Itä-Suomen luontopalvelut, Urheilukatu 3 A, 81700  LIEKSA","","","","","","",""
"FI1201005","","","Kainuun ympäristökeskus PL 11587101 KAJAANI","","","","","","",""
"FI1201006","","","Kainuun ympäristökeskus PL 11587101 KAJAANI","","","","","","",""
"FI1201007","","","Metsähallitus, luontopalvelut Lentiirantie 342 D88900 Kuhmo","","","","","","",""
"FI1201009","","","Kainuun ympäristökeskus PL 11587101 KAJAANI","","","","","","",""
"FI1201010","","","Kainuun ympäristökeskus PL 11587101 KAJAANI","","","","","","",""
"FI1201011","","","Metsähallitus Pohjanmaan - Kainuun luontopalvelutLentiirantie 342 D88900 KUHMO","","","","","","",""
"FI1201012","","","Metsähallitus, luontopalvelut Syväyksenkatu 2289600 Suomussalmi","","","","","","",""
"FI1201013","","","Metsähallitus, luontopalvelut Syväyksenkatu 2289600 Suomussalmi","","","","","","",""
"FI1202001","","","Kainuun ympäristökeskus PL 115, 87101 Kajaani","","","","","","",""
"FI1202002","","","Kainuun ympäristökeskus PL 115, 87101 Kajaani","","","","","","",""
"FI1202003","","","Metsähallitus, Pohjanmaan-Kainuun luontopalvelut Torangintaival 2, 93600 Kuusamo","","","","","","",""
"FI1202004","","","Metsähallitus, Pohjanmaan-Kainuun luontopalvelut Torangintaival 2, 93600 Kuusamo","","","","","","",""
"FI1300101","","","Metsähallitus, Ylä-Lapin luonnonhoitoalue","","","","","","",""
"FI1300102","","","Metsäntutkimuslaitos, Kolarin tutkimusasema, 95900 Kolari","","","","","","",""
"FI1300103","","","Metsähallitus, Ylä-Lapin luonnonhoitoalue PL 36,  99801  IVALO","","","","","","",""
"FI1300105","","","Metsähallitus, Ylä-Lapin luonnonhoitoalue PL 36,  99801  IVALO","","","","","","",""
"FI1300107","","","Metsähalllitus, Ylä-Lapin luonnonhoitoalue PL 36,  99801  IVALO","","","","","","",""
"FI1300108","","","Metsähallitus, Ylä-Lapin luonnonhoitoalue PL 36,  99801  IVALO","","","","","","",""
"FI1300111","","","Metsähallitus, Ylä-Lapin luonnonhoitoalue PL 36,  99801  IVALO","","","","","","",""
"FI1300112","","","Metsäntutkimuslaitos, Kolarin tutkimusasema, 95900 Kolari","","","","","","",""
"FI1300113","","","Metsähallitus, Ylä-Lapin luonnonhoitoalue PL 36,  99801  IVALO","","","","","","",""
"FI1300117","","","Metsähallitus, Ylä-Lapin luonnonhoitoalue PL 36,  99801  IVALO","","","","","","",""
"FI1300118","","","Metsähallitus, Ylä-Lapin luonnonhoitoalue PL 36,  99801  IVALO","","","","","","",""
"FI1300201","","","Metsähallitus, Ylä-Lapin luonnonhoitoalue PL 36,  99801  IVALO","","","","","","",""
"FI1300202","","","Metsähallitus, Ylä-Lapin luonnonhoitoalue PL 36,  99801  IVALO","","","","","","",""
"FI1300203","","","Metsähallitus, Ylä-Lapin luonnonhoitoalue PL 36,  99801  IVALO","","","","","","",""
"FI1300204","","","Metsähallitus, Ylä-Lapin luonnonhoitoalue PL 36,  99801  IVALO","","","","","","",""
"FI1300205","","","Metsähallitus, Ylä-Lapin luonnonhoitoalue PL 36,  99801 IVALO","","","","","","",""
"FI1300206","","","Metsähallitus, Ylä-Lapin luonnonhoitoalue PL 36,  99801  IVALO","","","","","","",""
"FI1300207","","","Metsähallitus, Ylä-Lapin luonnonhoitoalue PL 36,  99801  IVALO","","","","","","",""
"FI1300210","","","Lapin ympäristökeskus, PL 8060, 96101 Rovaniemi","","","","","","",""
"FI1300211","","","Lapin ympäristökeskus PL 8060,  96101  Rovaniemi","","","","","","",""
"FI1300212","","","Lapin ympäristökeskus PL 8060, 96101  ROVANIEMI","","","","","","",""
"FI1300301","","","Metsähallitus, Pohjanmaan puistoalue Torangintaival 2, 93600 Kuusamo","","","","","","",""
"FI1300302","","","Lapin ympäristökeskus PL 8060,  96101  Rovaniemi","","","","","","",""
"FI1300401","","","Metsähallitus, Perä-Pohjolan puistoalue PL 57,  99601  SODANKYLÄ","","","","","","",""
"FI1300402","","","Lapin ympäristökeskus PL  8060,  96101  ROVANIEMI","","","","","","",""
"FI1300405","","","Metsähallitus, Perä-Pohjolan puistoalue PL 57,  99601   SODANKYLÄ","","","","","","",""
"FI1300406","","","Metsähallitus, Perä-Pohjolan puistoalue PL 57,  99601  SODANKYLÄ","","","","","","",""
"FI1300407","","","Lapin ympäristökeskus PL 8060, 96101 Rovaniemi","","","","","","",""
"FI1300501","","","Lapin ympäristökeskus PL 8060,  96101  ROVANIEMI","","","","","","",""
"FI1300503","","","Lapin ympäristökeskus PL 8060,  96101  Rovaniemi","","","","","","",""
"FI1300504","","","Lapin ympäristökeskus PL 8060,  96101  Rovaniemi","","","","","","",""
"FI1300505","","","Lapin ympäristökeskus Pl 8060,  96101  ROVANIEMI","","","","","","",""
"FI1300507","","","Lapin ympäristökeskus PL 8060,  96101  ROVANIEMI","","","","","","",""
"FI1300601","","","Metsähallitus, Ylä-Lapin luonnonhoitoalue PL 36,  99801  IVALO","","","","","","",""
"FI1300602","","","Metsähallitus Perä-Pohjolan puistoalue PL 57, 99601 Sodankylä99601  SODANKYLÄ","","","","","","",""
"FI1300603","","","Metsähallitus Perä-Pohjolan puistoalue PL 57, 99601 Sodankylä99601  SODANKYLÄ","","","","","","",""
"FI1300604","","","Metsähallitus, Perä-Pohjolan luontopalvelut PL 8016, 96101 Rovaniemi","","","","","","",""
"FI1300605","","","Metsähallitus Perä-Pohjolan puistoalue PL 57, 99601 Sodankylä99601  SODANKYLÄ","","","","","","",""
"FI1300606","","","Metsähallitus Perä-Pohjolan puistoalue PL 57, 99601 Sodankylä99601  SODANKYLÄ","","","","","","",""
"FI1300607","","","Metsähallitus, Perä-Pohjolan puistoalue PL 57,  99601  SODANKYLÄ","","","","","","",""
"FI1300608","","","Metsähallitus, Perä-Pohjolan puistoalue PL 57,  99601  SODANKYLÄ","","","","","","",""
"FI1300611","","","Metsähallitus, Perä-Pohjolan puistoalue PL 57,  99601  SODANKYLÄ","","","","","","",""
"FI1300615","","","Lapin ympäristökeskus PL 8060,  96101  ROVANIEMI","","","","","","",""
"FI1300616","","","Lapin ympäristökeskus PL 8060,  96101  ROVANIEMI","","","","","","",""
"FI1300618","","","Metsähallitus, Perä-Pohjolan luontopalvelut PL 8016, 96101 Rovaniemi","","","","","","",""
"FI1300619","","","Metsähallitus, Perä-Pohjolan puistoalue PL 57,  99601  SODANKYLÄ","","","","","","",""
"FI1300701","","","Metsähallitus, Perä-Pohjolan luontopalvelut PL 8016, 96101 Rovaniemi","","","","","","",""
"FI1300702","","","Metsähallitus, Perä-Pohjolan puistoalue PL 57,  99601  SODANKYLÄ","","","","","","",""
"FI1300704","","","Metsähallitus Perä-Pohjolan puistoalue PL 57, 99601 Sodankylä99601  SODANKYLÄ","","","","","","",""
"FI1300705","","","Metsähallitus, Perä-Pohjolan puistoalue PL 57,  99601  SODANKYLÄ","","","","","","",""
"FI1300706","","","Metsähallitus, Perä-Pohjolan puistoalue PL 57,  99601  SODANKYLÄ","","","","","","",""
"FI1300801","","","Lapin ympäristökeskus PL 8060,  96101  ROVANIEMI","","","","","","",""
"FI1300901","","","Metsähallitus, Perä-Pohjolan luontopalvelut PL 8016, 96101 Rovaniemi","","","","","","",""
"FI1300902","","","Lapin ympäristökeskus PL 8060,  96101  Rovaniemi","","","","","","",""
"FI1300904","","","Metsähallitus, Perä-Pohjolan luontopalvelut PL 8016, 96101 Rovaniemi","","","","","","",""
"FI1300905","","","Metsähallitus, Perä-Pohjolan puistoalue PL 57,  99601  Sodankylä","","","","","","",""
"FI1300906","","","Metsähallitus Perä-Pohjolan puistoalue PL 57, 99601 Sodankylä99601  SODANKYLÄ","","","","","","",""
"FI1300907","","","Lapin ympäristökeskus PL 806096101 Rovaniemi","","","","","","",""
"FI1300908","","","Metsähallitus, Perä-Pohjolan luontopalvelut PL 8016, 96101 Rovaniemi","","","","","","",""
"FI1301001","","","Metsähallitus, Perä-Pohjolan puistoalue PL 57,  99601  SODANKYLÄ","","","","","","",""
"FI1301002","","","Lapin ympäristökeskus PL 8060,  96101  Rovaniemi","","","","","","",""
"FI1301003","","","Metsähallius, Perä-Pohjolan puistoalue PL 57,  99601  Sodankylä","","","","","","",""
"FI1301004","","","Lapin ympäristökeskus PL 8060,  96101  ROVANIEMI","","","","","","",""
"FI1301005","","","Lapin ympäristökeskus PL 8060,  96101  ROVANIEMI","","","","","","",""
"FI1301101","","","Metsähallitus, Pohjanmaan puistoalue Torangintaival 2,  93600  KUUSAMO","","","","","","",""
"FI1301102","","","Metsähallitus, Pohjanmaan puistoalue Torangintaival 2,  93600  KUUSAMO","","","","","","",""
"FI1301103","","","Metsähallitus, Pohjanmaan puistoalue Torangintaival 2,  93600  KUUSAMO","","","","","","",""
"FI1301104","","","Metsähallitus, Pohjanmaan puistoalue Torangintaival 2,  93600  KUUSAMO","","","","","","",""
"FI1301106","","","Metsähallitus, Pohjanmaan puistoalue Torangintaival 2,  93600  KUUSAMO","","","","","","",""
"FI1301202","","","Metsähallitus, Pohjanmaan puistoalue Torangintaival 2,  93600  KUUSAMO","","","","","","",""
"FI1301203","","","Metsähallitus, Pohjanmaan puistoalue Torangintaival 2,  93600  KUUSAMO","","","","","","",""
"FI1301205","","","Metsähallitus, Pohjanmaan puistoalue Torangintaival 2,  93600  KUUSAMO","","","","","","",""
"FI1301206","","","Lapin ympäristökeskus PL 8060,  96101  ROVANIEMI","","","","","","",""
"FI1301207","","","Metsähallitus, Pohjanmaan puistoalue Torangintaival 2,  93600  KUUSAMO","","","","","","",""
"FI1301208","","","Metsähallitus, Pohjanmaan puistoalue Torangintaival 2,  93600   KUUSAMO","","","","","","",""
"FI1301209","","","Lapin ympäristökeskus PL 8060, 96101 Rovaniemi96101  ROVANIEMI","","","","","","",""
"FI1301301","","","Metsähallitus, Perä-Pohjolan puistoalue PL 57,  99601  SODANKYLÄ","","","","","","",""
"FI1301302","","","Lapin ympäristökeskus PL 8060,  96101  ROVANIEMI","","","","","","",""
"FI1301304","","","Metsäntutkimuslaitos, Rovaniemen tutkimusasema PL 16,  96301  ROVANIEMI","","","","","","",""
"FI1301306","","","Metsähallitus, Perä-Pohjolan puistoalue PL 57,  99601  SODANKYLÄ","","","","","","",""
"FI1301312","","","Metsäntutkimuslaitos, Rovaniemen tutkimusasema PL 16,  96301  ROVANIEMI","","","","","","",""
"FI1301313","","","Metsähallitus Perä-Pohjolan puistoalue PL 57, 99601 Sodankylä99601  ROVANIEMI","","","","","","",""
"FI1301314","","","Metsähallitus, Perä-Pohjolan puistoalue PL 57,  99601  SODANKYLÄ","","","","","","",""
"FI1301315","","","Metsähallitus, Perä-Pohjolan luontopalvelut PL 8016, 96101 Rovaniemi","","","","","","",""
"FI1301316","","","Metsähallitus, Perä-Pohjolan luontopalvelut PL 8016, 96101 Rovaniemi","","","","","","",""
"FI1301317","","","Metsähallitus, Perä-Pohjolan luontopalvelut PL 8016, 96101 Rovaniemi","","","","","","",""
"FI1301318","","","Lapin ympäristökeskus PL 8060,  96101  ROVANIEMI","","","","","","",""
"FI1301319","","","Lapin ympäristökeskus PL 8060, 96101 Rovaniemi","","","","","","",""
"FI1301401","","","Metsähallitus, Perä-Pohjolan luontopalvelut PL 8016, 96101 Rovaniemi","","","","","","",""
"FI1301402","","","Metsähallitus Perä-Pohjolan puistoalue PL 57,  99601  Sodankylä","","","","","","",""
"FI1301403","","","Metsähallitus, Perä-Pohjolan puistoalue PL 57,  99601  SODANKYLÄ","","","","","","",""
"FI1301404","","","Metsähallitus, Perä-Pohjolan luontopalvelut PL 8016, 96101 Rovaniemi","","","","","","",""
"FI1301405","","","Metsähallitus, Perä-Pohjolan puistoalue PL 57,  99601  SODANKYLÄ","","","","","","",""
"FI1301409","","","Metsähallitus Perä-Pohjolan puistoalue PL 57, 99601 Sodankylä99601  SODANKYLÄ","","","","","","",""
"FI1301410","","","Metsähallitus, Perä-Pohjolan puistoalue PL 57, 99601 Sodankylä99601  ROVANIEMI","","","","","","",""
"FI1301411","","","Metsähallitus Perä-Pohjolan luontopalvelut PL 801696101 Rovaniemi","","","","","","",""
"FI1301502","","","Metsähallitus Perä-Pohjolan puistoalue PL 57, 99601 Sodankylä99601  SODANKYLÄ","","","","","","",""
"FI1301504","","","Lapin ympäristökeskus PL 8060,  96101  ROVANIEMI","","","","","","",""
"FI1301505","","","Metsähallitus Perä-Pohjolan puistoalue PL 57, 99601 Sodankylä99601  SODANKYLÄ","","","","","","",""
"FI1301506","","","Lapin ympäristökeskus PL 8060,  96101  ROVANIEMI","","","","","","",""
"FI1301507","","","Lapin ympärsitökeskus PL 8060,  96101  ROVANIEMI","","","","","","",""
"FI1301510","","","Metsähallitus, Perä-Pohjolan puistoalue PL 57,  99601  SODANKYLÄ","","","","","","",""
"FI1301511","","","Metsähallitus, Perä-Pohjolan puistoalue PL 57,  99601  Sodankylä","","","","","","",""
"FI1301512","","","Metsähallitus Perä-Pohjolan luontopalvelut PL 801696101 Rovaniemi","","","","","","",""
"FI1301513","","","Metsähallitus Perä-Pohjolan luontopalvelut PL 801696101 Rovaniemi","","","","","","",""
"FI1301601","","","Metsähallitus Perä-Pohjolan puistoalue PL 57, 99601 Sodankylä99601  SODANKYLÄ","","","","","","",""
"FI1301602","","","Metsähallitus, Pohjanmaan puistoalue Torangintaival 2,  93600  KUUSAMO","","","","","","",""
"FI1301603","","","Metsähallitus, Pohjanmaan puistoalue Torangintaival 2,  93600  KUUSAMO","","","","","","",""
"FI1301604","","","Metsähallitus, Pohjanmaan puistoalue Torangintaival 2,  93600  KUUSAMO","","","","","","",""
"FI1301605","","","Metsähallitus, Pohjanmaan puistoalue Torangintaival 2,  93600 KUUSAMO","","","","","","",""
"FI1301606","","","Metsähallitus, Pohjanmaan puistoalue Torangintaival 2,  93600  KUUSAMO","","","","","","",""
"FI1301611","","","Lapin ympäristökeskus PL 8060,  96101  Rovaniemi","","","","","","",""
"FI1301612","","","Metsähallituksen Perä-Pohjolan puistoalue Torangintaival 2,  93600  Kuusamo","","","","","","",""
"FI1301613","","","Lapin ympäristökeskus PL 8060,  96101  Rovaniemi","","","","","","",""
"FI1301701","","","Metsähallitus Perä-Pohjolan puistoalue PL 57, 99601 Sodankylä99601  SODANKYLÄ","","","","","","",""
"FI1301705","","","Metsähallitus, Perä-Pohjolan puistoalue PL 57,  99601  SODANKYLÄ","","","","","","",""
"FI1301706","","","Metsähallitus, Perä-Pohjolan luontopalvelut PL 8016, 96101 Rovaniemi","","","","","","",""
"FI1301707","","","Metsähallitus Perä-Pohjolan puistoalue PL 57, 99601 Sodankylä99601  SODANKYLÄ","","","","","","",""
"FI1301708","","","Metsähallitus, Perä-Pohjolan puistoalue PL 57,  99601  SODANKYLÄ","","","","","","",""
"FI1301712","","","Metsähallitus Perä-Pohjolan puistoalue PL 57, 99601 Sodankylä99601  SODANKYLÄ","","","","","","",""
"FI1301713","","","Metsähallitus, Perä-Pohjolan luontopalvelut PL 8016, 96101 Rovaniemi","","","","","","",""
"FI1301714","","","Metsähallitus, Peräpohjolan puistoalue PL 57,  99601  SODANKYLÄ","","","","","","",""
"FI1301715","","","Metsähallitus, Perä-Pohjolan luontopalvelut PL 8016, 96101 Rovaniemi","","","","","","",""
"FI1301716","","","Metsähallitus, Perä-Pohjolan puistoalue PL 57,  99601  SODANKYLÄ","","","","","","",""
"FI1301801","","","Metsäntutkimuslaitos, Rovaniemen tutkimusasema PL 16,  96301  Rovaniemi","","","","","","",""
"FI1301802","","","Lapin ympäristökeskus PL 8060,  96101  ROVANIEMI","","","","","","",""
"FI1301805","","","Lapin ympäristökeskus PL 8060,  96101  Rovaniemi","","","","","","",""
"FI1301806","","","Lapin ympäristökeskus PL 8060,  96101  ROVANIEMI","","","","","","",""
"FI1301807","","","Lapin ympäristökeskus PL 8060,  96101  ROVANIEMI","","","","","","",""
"FI1301810","","","Metsähallitus, Perä-Pohjolan puistoalue PL 57, 99601 Sodankylä","","","","","","",""
"FI1301811","","","Lapin ympäristökeskus PL 8060,  96101  Rovaniemi","","","","","","",""
"FI1301812","","","Lapin ympäristökeskus PL 8060,  96101  Rovaniemi","","","","","","",""
"FI1301813","","","Lapin ympäristökeskus PL 8060,  96101  Rovaniemi","","","","","","",""
"FI1301814","","","Metsähallitus, Perä-Pohjolan puistoalue PL 57,  99601  SODANKYLÄ","","","","","","",""
"FI1301901","","","Lapin ympäristökeskus PL 8060,  96101  ROVANIEMI","","","","","","",""
"FI1301902","","","Lapin ympäristökeskus PL 8060,  96101  ROVANIEMI","","","","","","",""
"FI1301903","","","Lapin ympäristökeskus PL 8060,  96101  ROVANIEMI","","","","","","",""
"FI1301904","","","Lapin ympäristökeskus PL 8060,  96101  ROVANIEMI","","","","","","",""
"FI1301905","","","Lapin ympäristökeskus PL 8060,  96101  ROVANIEMI","","","","","","",""
"FI1301907","","","Lapin ympäristökeskus PL 8060, 96101  ROVANIEMI","","","","","","",""
"FI1301908","","","Lapin ympäristökeskus PL 8060,  96101  ROVANIEMI","","","","","","",""
"FI1301909","","","Lapin ympäristökeskus PL 8060,  96101  ROVANIEMI","","","","","","",""
"FI1301911","","","Lapin ympäristökeskus PL 8060,  96101  Rovaniemi","","","","","","",""
"FI1301912","","","Lapin ympäristökeskus PL 806096101 Rovaniemi","","","","","","",""
"FI1301913","","","Lapin ympäristökeskus PL 806096101 Rovaniemi","","","","","","",""
"FI1302001","","","Metsähallitus, Ylä-Lapin luonnonhoitoalue PL 36,  99801  Ivalo","","","","","","",""
"FI1302002","","","Metsähallitus, Ylä-Lapin luonnonhoitoalue PL 36,  99801  IVALO","","","","","","",""
"FI1302003","","","Metsähallitus, Ylä-Lapin luonnonhoitoalue PL 36,  99801  IVALO","","","","","","",""
"FI1302004","","","Metsähallitus, Ylä-Lapin luonnonhoitoalue PL 36,  99801  IVALO","","","","","","",""
"FI1302008","","","Lapin ympäristökeskus PL 8060,  96101  ROVANIEMI","","","","","","",""
"FI1302009","","","Lapin ympäristökeskus","","","","","","",""
"FI1302010","","","Metsähallitus, Ylä-Lapin luonnonhoitoalue","","","","","","",""
"FI1302011","","","Lapin Ympäristökeskus, PL 8060, 96101 Rovaniemi","","","","","","",""
"FI1302012","","","Lapin ympäristökeskus, PL 8060, 96101 Rovaniemi","","","","","","",""
"FI1302013","","","Lapin ympäristökeskus, PL 8060, 96101 Rovaniemi","","","","","","",""
"FI1302101","","","Metsähallitus, Perä-Pohjolan puistoalue PL 57,  99601  Sodankylä","","","","","","",""
"FI1302103","","","Lapin ympäristökeskus PL 8060,  96101  ROVANIEMI","","","","","","",""
"FI1302104","","","Lapin ympäristökeskus PL 8060,  96101  ROVANIEMI","","","","","","",""
"FI1302105","","","Lapin ympäristökeskus PL 8060,  96101  Rovaniemi","","","","","","",""
"FI1302107","","","Metsähallitus, Perä-Pohjolan puistoalue PL 57,  99601  SODANKYLÄ","","","","","","",""
"FI1302108","","","Lapin ympäristökeskus PL 8060,  96101  ROVANIEMI","","","","","","",""
"FI1400001","","","Ålands landskapsstyrelse PB 60 FI 22101 MARIEHAMN","","","","","","",""
"FI1400002","","","Ålands landskapsstyrelse PB 60 FI 22101 MARIEHAMN","","","","","","",""
"FI1400003","","","Ålands landskapsstyrelse PB 60FI22101 MARIEHAMN","","","","","","",""
"FI1400004","","","Ålands landskapsstyrelse Pb 60 FI22101 MARIEHAMN","","","","","","",""
"FI1400005","","","Ålands landskapsstyrelse PB 60FIN22101 MARIEHAMN","","","","","","",""
"FI1400006","","","Ålands landskapsstyrelse PB 60FIN22101 MARIEHAMN","","","","","","",""
"FI1400007","","","Ålands landskapsstyrelse PB 60FIN22101 MARIEHAMN","","","","","","",""
"FI1400009","","","Ålands landskapsstyrelse PB 60FI22101  MARIEHAMN","","","","","","",""
"FI1400010","","","Ålands landskapsstyrelse PB 60FI22101  MARIEHAMN","","","","","","",""
"FI1400011","","","Ålands landskapsstyrelse PB 60FI22101  MARIEHAMN","","","","","","",""
"FI1400012","","","Ålands landskapsstyrelse PB 60FI22101  MARIEHAMN","","","","","","",""
"FI1400013","","","Ålands landskapsstyrelse PB 6022101  MARIEHAMN","","","","","","",""
"FI1400014","","","Ålands landskapsstyrelse PB 60FI22101 MARIEHAMN","","","","","","",""
"FI1400015","","","Ålands landskapsstyrelse PB 60FI22101  MARIEHAMN","","","","","","",""
"FI1400016","","","Ålands landskapsstyrelse PB 60FI 22101  MARIEHAMN","","","","","","",""
"FI1400017","","","Ålands landskapsstyrelse PB 60FI 22101 Mariehamn","","","","","","",""
"FI1400018","","","Ålands landskapsstyrelse PB 60FI 22101  MARIEHAMN","","","","","","",""
"FI1400019","","","Ålands landskapsstyrelse PB 60FI22101  MARIEHAMN","","","","","","",""
"FI1400020","","","Ålands landskapsstyrelse PB 60FI 22101 MARIEHAMN","","","","","","",""
"FI1400021","","","Ålands landskapsstyrelse PB 60FI22101  MARIEHAMN","","","","","","",""
"FI1400022","","","Ålands landskapsstyrelse PB 60FI 22101 MARIEHAMN","","","","","","",""
"FI1400023","","","Ålands landskapsstyrelse PB 60FI22101  MARIEHAMN","","","","","","",""
"FI1400024","","","Ålands landskapsstyrelse PB 60FI22101  MARIEHAMN","","","","","","",""
"FI1400025","","","Ålands landskapsstyrelse PB 60FI 22101  MARIEHAMN","","","","","","",""
"FI1400026","","","Ålands landskapsstyrelse PB 60FI22101  MARIEHAMN","","","","","","",""
"FI1400027","","","Ålands landskapsstyrelse PB 60FI22101  MARIEHAMN","","","","","","",""
"FI1400028","","","Ålands landskapsstyrelse PB 60FI 22101  MARIEHAMN","","","","","","",""
"FI1400029","","","Ålands landskapsstyrelse PB 60 FI22101 MARIEHAMN","","","","","","",""
"FI1400030","","","Ålands landskapsstyrelse PB 6022101 MARIEHAMN","","","","","","",""
"FI1400031","","","Ålands landskapsstyrelse PB 60FI22101 MARIEHAMN","","","","","","",""
"FI1400032","","","Ålands landskapsstyrelse PB 60, FI22101MARIEHAMN","","","","","","",""
"FI1400033","","","Ålands landskapsstyrelse PB 60FI22101  MARIEHAMN","","","","","","",""
"FI1400034","","","Ålands landskapsstyrelse PB 60FI22101 MARIEHAMN","","","","","","",""
"FI1400035","","","Ålands landskapsstyrelse PB 60FI22101 MARIEHAMN","","","","","","",""
"FI1400036","","","Ålands landskapsstyrelse PB 60FI22101 MARIEHAMN","","","","","","",""
"FI1400037","","","Ålands landskapsstyrelse PB 60FI22101 MARIEHAMN","","","","","","",""
"FI1400038","","","Ålands landskapsstyrelse PB 60FI22101 MARIEHAMN","","","","","","",""
"FI1400039","","","Ålands landskapsstyrelse PB 60FI22101 MARIEHAMN","","","","","","",""
"FI1400040","","","Ålands landskapsstyrelse PB 60FI22101 MARIEHAMN","","","","","","",""
"FI1400041","","","Ålands landskapsstyrelse PB 60FI22101 MARIEHAMN","","","","","","",""
"FI1400042","","","Ålands landskapsstyrelse PB 60FI22101 MARIEHAMN","","","","","","",""
"FI1400043","","","Ålands landskapsstyrelse PB 60FI22101 MARIEHAMN","","","","","","",""
"FI1400044","","","Ålands landskapsstyrelse PB 60FI22101 MARIEHAMN","","","","","","",""
"FI1400045","","","Ålands landskapsstyrelse PB 60FI22101 MARIEHAMN","","","","","","",""
"FI1400046","","","Ålands landskapsstyrelse PB 60FI22101 MARIEHAMN","","","","","","",""
"FI1400047","","","Ålands landskapsstyrelse PB 60FI22101 MARIEHAMN","","","","","","",""
"FI1400048","","","Ålands landskapsstyrelse PB 60FI22101 MARIEHAMN","","","","","","",""
"FI1400049","","","Ålands landskapsstyrelse PB 60FI22101 Mariehamn","","","","","","",""
"FI1400050","","","Ålands landskapsstyrelse PB 60FI22101 MARIEHAMN","","","","","","",""
"FI1400051","","","Ålands landskapsstyrelse PB 60FI22101 MARIEHAMN","","","","","","",""
"FI1400052","","","Ålands landskapsstyrelse PB 60FI22101 MARIEHAMN","","","","","","",""
"FI1400053","","","Ålands landskapsstyrelse PB 60FI22101 MARIEHAMN","","","","","","",""
"FI1400054","","","Ålands landskapsstyrelse PB 60FI22101 MARIEHAMN","","","","","","",""
"FI1400055","","","Ålands landskapsstyrelse PB 60FI22101 MARIEHAMN","","","","","","",""
"FI1400056","","","Ålands landskapsstyrelse PB 60FI22101 MARIEHAMN","","","","","","",""
"FI1400057","","","Ålands landskapsstyrelse PB 60FI22101 MARIEHAMN","","","","","","",""
"FI1400058","","","Ålands landskapsregering PB 1060AX-22111 MARIEHAMN","","","","","","",""
"FI1400059","","","Mariehamns stad FI22100 Mariehamn","","","","","","",""
"FI1400060","","","Ålands landskapsstyrelse PB 60FI22101 Mariehamn","","","","","","",""
"FI1400061","","","Mariehamns stad FI22101 MARIEHAMN","","","","","","",""
"FI1400062","","","Ålands landskapsstyrelse PB 60FI22101 MARIEHAMN","","","","","","",""
"FI1400063","","","Ålands landskapsstyrelse PB 60FI22101 MARIEHAMN","","","","","","",""
"FI1400064","","","Ålands landskapsstyrelse PB 60FI22101 MARIEHAMN","","","","","","",""
"FI1400065","","","Ålands landskapsstyrelse PB 60FI22101 MARIEHAMN","","","","","","",""
"FI1400066","","","Ålands landskapsstyrelse PB 60FI22101 MARIEHAMN","","","","","","",""
"FI1400067","","","Ålands landskapsstyrelse PB 60 FI22101 MARIEHAMN","","","","","","",""
"FI1400069","","","Ålands landskapsstyrelse","","","","","","",""
"FI1400070","","","Ålands landskapsstyrelse","","","","","","",""
"FI1400071","","","Ålands landskapsstyrelse","","","","","","",""
"FI1400072","","","Ålands landskapsstyrelse","","","","","","",""
"FI1400073","","","Ålands landskapsstyrelse","","","","","","",""
"FI1400074","","","Ålands landskapsstyrelse","","","","","","",""
"FI1400075","","","Ålands landskapsstyrelse","","","","","","",""
"FI1400076","","","Ålands landskapsstyrelse","","","","","","",""
"FI1400077","","","Ålands landskapsstyrelse","","","","","","",""
"FI1400078","","","Ålands landskapsstyrelse","","","","","","",""
"FI1400079","","","Ålands landskapsstyrelse","","","","","","",""
"FI1400080","","","Ålands landskapsstyrelse","","","","","","",""
"FI1400081","","","Ålands landskapsstyrelse","","","","","","",""
"FI1400083","","","Ålands landskapsstyrelse","","","","","","",""
"FI1400084","","","Ålands landskapsstyrelse","","","","","","",""
"FI1400085","","","Ålands landskapsstyrelse","","","","","","",""
"FI1400086","","","Ålands landskapsstyrelse","","","","","","",""
"FI1400087","","","Ålands landskapsstyrelse","","","","","","",""
"FI1400088","","","Ålands landskapsstyrelse","","","","","","",""
"FI1400089","","","Ålands landskapsstyrelse","","","","","","",""
"FI1400090","","","Ålands landskapsstyrelse","","","","","","",""
"FI1400091","","","Ålands landskapsregering PB 1060, AX-22111 Mariehamn","","","","","","",""
"FR2502022","","","","","","","","","",""
"FR5302015","","","","","","","","","",""
"FR8202009","","","","","","","","","",""
"FR8212032","","","","","","","","","",""
"FR8302033","","","","","","","","","",""
"FR8302034","","","","","","","","","",""
"FR8302036","","","","","","","","","",""
"FR8302039","","","","","","","","","",""
"FR8302040","","","","","","","","","",""
"FR9112037","","","","","","","","","",""
"FR9312026","","","","","","","","","",""
"FR9402019","","","","","","","","","",""
"FR9402020","","","","","","","","","",""
"FR9402021","","","","","","","","","",""
"GR1110005","","","","","","","","","",""
"GR1110013","","","","","","","","","",""
"GR1140001","","","","","","","","","",""
"GR1150005","","","","","","","","","",""
"GR1220001","","","","","","","","","",""
"GR1220002","","","","","","","","","",""
"GR1260007","","","","","","","","","",""
"GR1340010","","","","","","","","","",""
"GR1420004","","","","","","","","","",""
"GR1430001","","","","","","","","","",""
"GR1430004","","","","","","","","","",""
"GR1440003","","","","","","","","","",""
"GR2110001","","","","","","","","","",""
"GR2220007","","","","","","","","","",""
"GR2320007","","","","","","","","","",""
"GR2410001","","","","","","","","","",""
"GR2420001","","","","","","","","","",""
"GR2420002","","","","","","","","","",""
"GR2420009","","","","","","","","","",""
"GR2420013","","","","","","","","","",""
"GR2420014","","","","","","","","","",""
"GR2420015","","","","","","","","","",""
"GR2420016","","","","","","","","","",""
"GR2420017","","","","","","","","","",""
"GR2440002","","","","","","","","","",""
"GR2510005","","","","","","","","","",""
"GR2530007","","","","","","","","","",""
"GR2540001","","","","","","","","","",""
"GR2540005","","","","","","","","","",""
"GR2540009","","","","","","","","","",""
"GR2550010","","","","","","","","","",""
"GR3000011","","","","","","","","","",""
"GR3000019","","","","","","","","","",""
"GR3000020","","","","","","","","","",""
"GR4110015","","","","","","","","","",""
"GR4110016","","","","","","","","","",""
"GR4120006","","","","","","","","","",""
"GR4210021","","","","","","","","","",""
"GR4210024","","","","","","","","","",""
"GR4220025","","","","","","","","","",""
"GR4220034","","","","","","","","","",""
"GR4220035","","","","","","","","","",""
"GR4320006","","","","","","","","","",""
"GR4320011","","","","","","","","","",""
"GR4340003","","","","","","","","","",""
"GR4340006","","","","","","","","","",""
"GR4340010","","","","","","","","","",""
"GR4340017","","","","","","","","","",""
"GR4340023","","","","","","","","","",""
"GR4340024","","","","","","","","","",""
